{"type":"FeatureCollection","features":[{"type":"Feature","properties":{"F_DISA_NM":"2014년 8.17 ~ 21 호우","F_AVR_HGT":11.76,"F_AREA":151.1,"ADM_CD":"1120012200","F_SAT_YMD":"20140817","F_END_YMD":"20140821","F_SAT_TM":"20","F_END_TM":"2","F_RSN_DTL":"침수","F_ZONE_NM":"성동구 용답동84-5","INV_YR":"2014","F_YR":"2014","GU_NAM":"성동구","F_SHIM":0.5},"geometry":{"type":"Polygon","coordinates":[[[127.05144636406472,37.56509933228447],[127.05152494978371,37.56516700833229],[127.05164635158478,37.565078479756615],[127.05156562779258,37.56501256162301],[127.05144636406472,37.56509933228447]]]}},{"type":"Feature","properties":{"F_DISA_NM":"2014년 8.17 ~ 21 호우","F_AVR_HGT":11.56,"F_AREA":120.3,"ADM_CD":"1120012200","F_SAT_YMD":"20140817","F_END_YMD":"20140821","F_SAT_TM":"20","F_END_TM":"2","F_RSN_DTL":"침수","F_ZONE_NM":"성동구 용답동13-11","INV_YR":"2014","F_YR":"2014","GU_NAM":"성동구","F_SHIM":0.3},"geometry":{"type":"Polygon","coordinates":[[[127.05389180546759,37.56398590304071],[127.05392438600062,37.56396185019986],[127.05395176270041,37.56394166490348],[127.05399434316232,37.56390961583012],[127.05397513517752,37.56389282993157],[127.05394557642185,37.563867975765376],[127.05392051415065,37.5638474263233],[127.05390469904883,37.56385911015796],[127.05385305668014,37.56389721786189],[127.05381779480885,37.56392291167088],[127.05383613038917,37.56393848164645],[127.05387152182873,37.5639685499796],[127.05389180546759,37.56398590304071]]]}},{"type":"Feature","properties":{"F_DISA_NM":"2014년 8.17 ~ 21 호우","F_AVR_HGT":11.43,"F_AREA":105.8,"ADM_CD":"1120012200","F_SAT_YMD":"20140817","F_END_YMD":"20140821","F_SAT_TM":"20","F_END_TM":"2","F_RSN_DTL":"침수","F_ZONE_NM":"성동구 용답동57-3","INV_YR":"2014","F_YR":"2014","GU_NAM":"성동구","F_SHIM":0.3},"geometry":{"type":"Polygon","coordinates":[[[127.05299681456489,37.56433079875717],[127.05301231338483,37.56431969181582],[127.0530365339431,37.56430149028475],[127.05305705563629,37.564286660061704],[127.05304642157249,37.56427806926908],[127.0530007360512,37.56423974311101],[127.05297271758131,37.56421601426719],[127.05295189068427,37.564198490097596],[127.052943974413,37.56419180820814],[127.05292537640892,37.564205952822704],[127.05289582748196,37.56422804892198],[127.05288505754332,37.56423582914198],[127.05290130904652,37.56424944502273],[127.05293519415665,37.564278451123585],[127.05296775407741,37.56430608828896],[127.05299681456489,37.56433079875717]]]}},{"type":"Feature","properties":{"F_DISA_NM":"2014년 8.17 ~ 21 호우","F_AVR_HGT":11.76,"F_AREA":120.3,"ADM_CD":"1120012200","F_SAT_YMD":"20140817","F_END_YMD":"20140821","F_SAT_TM":"20","F_END_TM":"2","F_RSN_DTL":"침수","F_ZONE_NM":"성동구 용답동12-17","INV_YR":"2014","F_YR":"2014","GU_NAM":"성동구","F_SHIM":0.5},"geometry":{"type":"Polygon","coordinates":[[[127.05380357795008,37.563695030831695],[127.05383182620902,37.56367498933451],[127.05388948776582,37.5636338786755],[127.05390730556194,37.56362129296491],[127.05390162045705,37.563616682423685],[127.05385857312685,37.5635798150249],[127.05383143834226,37.56355732935527],[127.05381604187588,37.56356873368653],[127.05375551858529,37.56361246745416],[127.05372914858066,37.56363162513357],[127.05375596672081,37.56365450740166],[127.05380357795008,37.563695030831695]]]}},{"type":"Feature","properties":{"F_DISA_NM":"2014년 8.17 ~ 21 호우","F_AVR_HGT":11.69,"F_AREA":110.1,"ADM_CD":"1120012200","F_SAT_YMD":"20140817","F_END_YMD":"20140821","F_SAT_TM":"20","F_END_TM":"2","F_RSN_DTL":"침수","F_ZONE_NM":"성동구 용답동49-10","INV_YR":"2014","F_YR":"2014","GU_NAM":"성동구","F_SHIM":0.3},"geometry":{"type":"Polygon","coordinates":[[[127.05210025287555,37.56356991366573],[127.052175087818,37.5636326534859],[127.05227136120331,37.56356352430672],[127.05225911887597,37.563553114135615],[127.05222892655063,37.56352761109819],[127.05220321898615,37.56350598939051],[127.05219563140764,37.56349977582324],[127.05210025287555,37.56356991366573]]]}},{"type":"Feature","properties":{"F_DISA_NM":"2014년 8.17 ~ 21 호우","F_AVR_HGT":11.39,"F_AREA":110.1,"ADM_CD":"1120012200","F_SAT_YMD":"20140817","F_END_YMD":"20140821","F_SAT_TM":"20","F_END_TM":"2","F_RSN_DTL":"침수","F_ZONE_NM":"성동구 용답동46-21","INV_YR":"2014","F_YR":"2014","GU_NAM":"성동구","F_SHIM":0.3},"geometry":{"type":"Polygon","coordinates":[[[127.05302410851911,37.563038948863564],[127.0531201538081,37.562969557798375],[127.05304783217866,37.56290792568989],[127.05295204802951,37.562978487869],[127.05302410851911,37.563038948863564]]]}},{"type":"Feature","properties":{"F_DISA_NM":"2014년 8.17 ~ 21 호우","F_AVR_HGT":11.39,"F_AREA":110.1,"ADM_CD":"1120012200","F_SAT_YMD":"20140817","F_END_YMD":"20140821","F_SAT_TM":"20","F_END_TM":"2","F_RSN_DTL":"침수","F_ZONE_NM":"성동구 용답동46-20","INV_YR":"2014","F_YR":"2014","GU_NAM":"성동구","F_SHIM":0.3},"geometry":{"type":"Polygon","coordinates":[[[127.05295204802951,37.562978487869],[127.05304783217866,37.56290792568989],[127.05297620135475,37.56284668066066],[127.05287996524847,37.562918360205515],[127.05295204802951,37.562978487869]]]}},{"type":"Feature","properties":{"F_DISA_NM":"2014년 8.17 ~ 21 호우","F_AVR_HGT":11.39,"F_AREA":108.1,"ADM_CD":"1120012200","F_SAT_YMD":"20140817","F_END_YMD":"20140821","F_SAT_TM":"20","F_END_TM":"2","F_RSN_DTL":"침수","F_ZONE_NM":"성동구 용답동45-5","INV_YR":"2014","F_YR":"2014","GU_NAM":"성동구","F_SHIM":0.3},"geometry":{"type":"Polygon","coordinates":[[[127.05304783217866,37.56290792568989],[127.0531201538081,37.562969557798375],[127.05321749939806,37.562898526284805],[127.05314457774132,37.562836687270064],[127.05304783217866,37.56290792568989]]]}},{"type":"Feature","properties":{"F_DISA_NM":"2014년 8.17 ~ 21 호우","F_AVR_HGT":19.05,"F_AREA":291,"ADM_CD":"1120010600","F_SAT_YMD":"20140817","F_END_YMD":"20140821","F_SAT_TM":"20","F_END_TM":"2","F_RSN_DTL":"침수","F_ZONE_NM":"성동구 사근동219-2","INV_YR":"2014","F_YR":"2014","GU_NAM":"성동구","F_SHIM":0.3},"geometry":{"type":"Polygon","coordinates":[[[127.04779492232564,37.562226189293376],[127.0478424219201,37.56231245840406],[127.04785051288303,37.56230986038057],[127.04789118733723,37.56228603126838],[127.04792198432835,37.5622677110684],[127.04797667183912,37.56224562433767],[127.04803308901423,37.562238529360656],[127.0481238788902,37.56221186031854],[127.04804089797229,37.562164672197866],[127.04795378303334,37.56213094642341],[127.04792825937498,37.56212934368767],[127.04784431960097,37.56216009137354],[127.04783705351875,37.562178762720876],[127.04784463620082,37.5622144299093],[127.04779492232564,37.562226189293376]]]}},{"type":"Feature","properties":{"F_DISA_NM":"2014년 8.17 ~ 21 호우","F_AVR_HGT":13.09,"F_AREA":92.6,"ADM_CD":"1120012200","F_SAT_YMD":"20140817","F_END_YMD":"20140821","F_SAT_TM":"20","F_END_TM":"2","F_RSN_DTL":"침수","F_ZONE_NM":"성동구 용답동158-5","INV_YR":"2014","F_YR":"2014","GU_NAM":"성동구","F_SHIM":0.5},"geometry":{"type":"Polygon","coordinates":[[[127.0501290438659,37.565205452667605],[127.05017541989476,37.56512340754889],[127.0501296138565,37.565107172579246],[127.05007643776263,37.56508847191377],[127.05003102370226,37.56517046253956],[127.0501290438659,37.565205452667605]]]}},{"type":"Feature","properties":{"F_DISA_NM":"2014년 8.17 ~ 21 호우","F_AVR_HGT":12.3,"F_AREA":73.7,"ADM_CD":"1120012200","F_SAT_YMD":"20140817","F_END_YMD":"20140821","F_SAT_TM":"20","F_END_TM":"2","F_RSN_DTL":"침수","F_ZONE_NM":"성동구 용답동139-7","INV_YR":"2014","F_YR":"2014","GU_NAM":"성동구","F_SHIM":0.3},"geometry":{"type":"Polygon","coordinates":[[[127.0495302355843,37.567317641965666],[127.04956686709892,37.56725198104691],[127.04947304482499,37.56721847539101],[127.04943617604683,37.56728492023727],[127.0495302355843,37.567317641965666]]]}},{"type":"Feature","properties":{"F_DISA_NM":"2014년 8.17 ~ 21 호우","F_AVR_HGT":12.73,"F_AREA":234.4,"ADM_CD":"1120012200","F_SAT_YMD":"20140817","F_END_YMD":"20140821","F_SAT_TM":"20","F_END_TM":"2","F_RSN_DTL":"침수","F_ZONE_NM":"성동구 용답동147-8","INV_YR":"2014","F_YR":"2014","GU_NAM":"성동구","F_SHIM":0.3},"geometry":{"type":"Polygon","coordinates":[[[127.04957460644226,37.56631361638417],[127.04959867672652,37.56627062942932],[127.04949177941913,37.56623252505428],[127.04934517821258,37.56618075966472],[127.04930071177095,37.56626008268464],[127.04955412026173,37.56635043911389],[127.04957460644226,37.56631361638417]]]}},{"type":"Feature","properties":{"F_DISA_NM":"2014년 06.22 호우","F_AVR_HGT":12.47,"F_AREA":106,"ADM_CD":"1120011800","F_SAT_YMD":"20140622","F_END_YMD":"20140622","F_SAT_TM":"12","F_END_TM":"18","F_RSN_DTL":"침수","F_ZONE_NM":"성동구 송정동66-16","INV_YR":"2014","F_YR":"2014","GU_NAM":"성동구","F_SHIM":0.3},"geometry":{"type":"Polygon","coordinates":[[[127.06518079201439,37.54988182893863],[127.06511568748537,37.54980041442797],[127.06510224937631,37.549807197117275],[127.06501867031061,37.549851687979746],[127.06506526302746,37.549895342961925],[127.06509872735104,37.549924012503695],[127.06518079201439,37.54988182893863]]]}},{"type":"Feature","properties":{"F_DISA_NM":"2014년 8.17 ~ 21 호우","F_AVR_HGT":12.03,"F_AREA":109.8,"ADM_CD":"1120012200","F_SAT_YMD":"20140817","F_END_YMD":"20140821","F_SAT_TM":"20","F_END_TM":"2","F_RSN_DTL":"침수","F_ZONE_NM":"성동구 용답동72-3","INV_YR":"2014","F_YR":"2014","GU_NAM":"성동구","F_SHIM":0.3},"geometry":{"type":"Polygon","coordinates":[[[127.05280174505005,37.56627962498847],[127.05284416939581,37.56624834225035],[127.05290419659623,37.566203555028146],[127.05284862286823,37.56615687195286],[127.05283905188408,37.566163831745335],[127.05282440795223,37.56615123327914],[127.05273133371438,37.56621849644541],[127.05280174505005,37.56627962498847]]]}},{"type":"Feature","properties":{"F_DISA_NM":"2014년 8.17 ~ 21 호우","F_AVR_HGT":12.03,"F_AREA":97.5,"ADM_CD":"1120012200","F_SAT_YMD":"20140817","F_END_YMD":"20140821","F_SAT_TM":"20","F_END_TM":"2","F_RSN_DTL":"침수","F_ZONE_NM":"성동구 용답동72-4","INV_YR":"2014","F_YR":"2014","GU_NAM":"성동구","F_SHIM":0.3},"geometry":{"type":"Polygon","coordinates":[[[127.05266469392875,37.566160663844244],[127.05273133371438,37.56621849644541],[127.05282440795223,37.56615123327914],[127.05275743958094,37.56609292334845],[127.05266469392875,37.566160663844244]]]}},{"type":"Feature","properties":{"F_DISA_NM":"2014년 8.17 ~ 21 호우","F_AVR_HGT":12.03,"F_AREA":105.5,"ADM_CD":"1120012200","F_SAT_YMD":"20140817","F_END_YMD":"20140821","F_SAT_TM":"20","F_END_TM":"2","F_RSN_DTL":"침수","F_ZONE_NM":"성동구 용답동72-2","INV_YR":"2014","F_YR":"2014","GU_NAM":"성동구","F_SHIM":0.3},"geometry":{"type":"Polygon","coordinates":[[[127.05284862286823,37.56615687195286],[127.05290419659623,37.566203555028146],[127.0529703779936,37.56615412500216],[127.05300137565386,37.56613083895466],[127.05293863158875,37.5660761582687],[127.05293243630898,37.566070529787794],[127.0528436291379,37.56613729564155],[127.05285823889726,37.56614957877426],[127.05284862286823,37.56615687195286]]]}},{"type":"Feature","properties":{"F_DISA_NM":"2014년 8.17 ~ 21 호우","F_AVR_HGT":12.03,"F_AREA":76.4,"ADM_CD":"1120012200","F_SAT_YMD":"20140817","F_END_YMD":"20140821","F_SAT_TM":"20","F_END_TM":"2","F_RSN_DTL":"침수","F_ZONE_NM":"성동구 용답동72-6","INV_YR":"2014","F_YR":"2014","GU_NAM":"성동구","F_SHIM":0.3},"geometry":{"type":"Polygon","coordinates":[[[127.05303281274247,37.56600603832058],[127.05296066947842,37.565944595321014],[127.05289195275411,37.56599390030806],[127.05296527386935,37.566056360953006],[127.05303281274247,37.56600603832058]]]}},{"type":"Feature","properties":{"F_DISA_NM":"2014년 8.17 ~ 21 호우","F_AVR_HGT":11.66,"F_AREA":77.4,"ADM_CD":"1120012200","F_SAT_YMD":"20140817","F_END_YMD":"20140821","F_SAT_TM":"20","F_END_TM":"2","F_RSN_DTL":"침수","F_ZONE_NM":"성동구 용답동72-7","INV_YR":"2014","F_YR":"2014","GU_NAM":"성동구","F_SHIM":0.3},"geometry":{"type":"Polygon","coordinates":[[[127.05296066947842,37.565944595321014],[127.05293703324429,37.56592446852088],[127.05288654430231,37.565881351161714],[127.05281925445118,37.56593166459344],[127.05289195275411,37.56599390030806],[127.05296066947842,37.565944595321014]]]}},{"type":"Feature","properties":{"F_DISA_NM":"2014년 8.17 ~ 21 호우","F_AVR_HGT":12.09,"F_AREA":111.4,"ADM_CD":"1120012200","F_SAT_YMD":"20140817","F_END_YMD":"20140821","F_SAT_TM":"20","F_END_TM":"2","F_RSN_DTL":"침수","F_ZONE_NM":"성동구 용답동3-16","INV_YR":"2014","F_YR":"2014","GU_NAM":"성동구","F_SHIM":0.3},"geometry":{"type":"Polygon","coordinates":[[[127.054586894745,37.56436978518838],[127.0545926933845,37.56437474703062],[127.05467492420689,37.56431276705402],[127.05458788903844,37.56423967293818],[127.05458722053343,37.564238673140984],[127.05455137147794,37.56426618742894],[127.05450666518206,37.56430109378993],[127.05455517198511,37.56434244542017],[127.054586894745,37.56436978518838]]]}},{"type":"Feature","properties":{"F_DISA_NM":"2014년 8.17 ~ 21 호우","F_AVR_HGT":12.72,"F_AREA":134.2,"ADM_CD":"1120012200","F_SAT_YMD":"20140817","F_END_YMD":"20140821","F_SAT_TM":"20","F_END_TM":"2","F_RSN_DTL":"침수","F_ZONE_NM":"성동구 용답동3-13","INV_YR":"2014","F_YR":"2014","GU_NAM":"성동구","F_SHIM":0.3},"geometry":{"type":"Polygon","coordinates":[[[127.05496282701341,37.564364912462416],[127.0548821673969,37.56429677111704],[127.0547955579654,37.564360852517964],[127.05477975917701,37.56434771421818],[127.05476246218949,37.564360552100844],[127.05485873988323,37.564442390513136],[127.05496282701341,37.564364912462416]]]}},{"type":"Feature","properties":{"F_DISA_NM":"2014년 8.17 ~ 21 호우","F_AVR_HGT":14.48,"F_AREA":115.4,"ADM_CD":"1120012200","F_SAT_YMD":"20140817","F_END_YMD":"20140821","F_SAT_TM":"21","F_END_TM":"3","F_RSN_DTL":"침수","F_ZONE_NM":"성동구 용답동7-10","INV_YR":"2014","F_YR":"2014","GU_NAM":"성동구","F_SHIM":0.3},"geometry":{"type":"Polygon","coordinates":[[[127.05545139760947,37.56378889532415],[127.05537228876432,37.56372069953914],[127.05528105279046,37.563787062914336],[127.05536183724874,37.563855933737294],[127.05545139760947,37.56378889532415]]]}},{"type":"Feature","properties":{"F_DISA_NM":"2014년 8.17 ~ 21 호우","F_AVR_HGT":12.09,"F_AREA":108.8,"ADM_CD":"1120012200","F_SAT_YMD":"20140817","F_END_YMD":"20140821","F_SAT_TM":"20","F_END_TM":"2","F_RSN_DTL":"침수","F_ZONE_NM":"성동구 용답동8-8","INV_YR":"2014","F_YR":"2014","GU_NAM":"성동구","F_SHIM":0.3},"geometry":{"type":"Polygon","coordinates":[[[127.0551854511539,37.56390556843248],[127.0552764941332,37.56383807898415],[127.05520111240718,37.563774377322886],[127.05519855255169,37.563771765618746],[127.0551076680418,37.56383925493581],[127.05518425038922,37.563904172445405],[127.0551854511539,37.56390556843248]]]}},{"type":"Feature","properties":{"F_DISA_NM":"2014년 8.17 ~ 21 호우","F_AVR_HGT":14.48,"F_AREA":98.8,"ADM_CD":"1120012200","F_SAT_YMD":"20140817","F_END_YMD":"20140821","F_SAT_TM":"20","F_END_TM":"2","F_RSN_DTL":"침수","F_ZONE_NM":"성동구 용답동6-10","INV_YR":"2014","F_YR":"2014","GU_NAM":"성동구","F_SHIM":0.3},"geometry":{"type":"Polygon","coordinates":[[[127.05563152345924,37.563949756563225],[127.05568124704914,37.563935903584245],[127.05563649201963,37.563839842646054],[127.0555806856301,37.563862699271205],[127.05553155483405,37.56389804953278],[127.05560963276868,37.563964506772564],[127.05562813996288,37.56395078524122],[127.05563152345924,37.563949756563225]]]}},{"type":"Feature","properties":{"F_DISA_NM":"2014년 8.17 ~ 21 호우","F_AVR_HGT":14.48,"F_AREA":125.3,"ADM_CD":"1120012200","F_SAT_YMD":"20140817","F_END_YMD":"20140821","F_SAT_TM":"20","F_END_TM":"2","F_RSN_DTL":"침수","F_ZONE_NM":"성동구 용답동8-1","INV_YR":"2014","F_YR":"2014","GU_NAM":"성동구","F_SHIM":0.3},"geometry":{"type":"Polygon","coordinates":[[[127.05534917340869,37.56403117284795],[127.05542841896823,37.564100179472305],[127.055489098912,37.564054750920285],[127.05552822853754,37.56402535177933],[127.05544900665451,37.56395780481235],[127.05543180000473,37.56397006611967],[127.05534917340869,37.56403117284795]]]}},{"type":"Feature","properties":{"F_DISA_NM":"2014년 8.17 ~ 21 호우","F_AVR_HGT":14.48,"F_AREA":171.9,"ADM_CD":"1120012200","F_SAT_YMD":"20140817","F_END_YMD":"20140821","F_SAT_TM":"20","F_END_TM":"2","F_RSN_DTL":"침수","F_ZONE_NM":"성동구 용답동7-7","INV_YR":"2014","F_YR":"2014","GU_NAM":"성동구","F_SHIM":0.3},"geometry":{"type":"Polygon","coordinates":[[[127.05528105279046,37.563787062914336],[127.05537228876432,37.56372069953914],[127.05545139760947,37.56378889532415],[127.05553504115939,37.56372590498981],[127.0555262074872,37.56371863804985],[127.0554401344063,37.56364576035216],[127.0554316176377,37.56363844821082],[127.05534641061065,37.56369930384179],[127.05525473270082,37.56376494660718],[127.05528105279046,37.563787062914336]]]}},{"type":"Feature","properties":{"F_DISA_NM":"2014년 8.17 ~ 21 호우","F_AVR_HGT":12.03,"F_AREA":94.2,"ADM_CD":"1120012200","F_SAT_YMD":"20140817","F_END_YMD":"20140821","F_SAT_TM":"20","F_END_TM":"2","F_RSN_DTL":"침수","F_ZONE_NM":"성동구 용답동72-9","INV_YR":"2014","F_YR":"2014","GU_NAM":"성동구","F_SHIM":0.3},"geometry":{"type":"Polygon","coordinates":[[[127.05271789519858,37.566098319404865],[127.05278709918342,37.56604950985209],[127.05269730000008,37.56597343329216],[127.05262945458928,37.56602268368922],[127.05271789519858,37.566098319404865]]]}},{"type":"Feature","properties":{"F_DISA_NM":"2014년 6.23 호우","F_AVR_HGT":78.4,"F_AREA":78.4,"ADM_CD":"1117013000","F_SAT_YMD":"20140623","F_END_YMD":"20140623","F_SAT_TM":"1","F_END_TM":"22","F_RSN_DTL":"침수","F_ZONE_NM":"용산구 이태원동20-59","INV_YR":"2014","F_YR":"2014","GU_NAM":"용산구","F_SHIM":0.3},"geometry":{"type":"Polygon","coordinates":[[[126.99633864422391,37.53098732732242],[126.99634533012203,37.53099324714652],[126.99639779386006,37.530952110042655],[126.99638878902161,37.53094127970301],[126.99641904304687,37.530917530808736],[126.99637833946552,37.53088070541592],[126.99637673329215,37.53087563274926],[126.99628023596766,37.53093595006401],[126.99633864422391,37.53098732732242]]]}},{"type":"Feature","properties":{"F_DISA_NM":"2014년 06.22 호우","F_AVR_HGT":28.43,"F_AREA":230.1,"ADM_CD":"1168010100","F_SAT_YMD":"20140622","F_END_YMD":"20140622","F_SAT_TM":"12","F_END_TM":"18","F_RSN_DTL":"내수침수","F_ZONE_NM":"강남구 역삼동 694-14","INV_YR":"2014","F_YR":"2014","GU_NAM":"강남구","F_SHIM":0.3},"geometry":{"type":"Polygon","coordinates":[[[127.04593251242956,37.507049217899755],[127.0460194258641,37.50713874436146],[127.04618426420225,37.507036869409795],[127.04609667289779,37.5069486948202],[127.04593251242956,37.507049217899755]]]}},{"type":"Feature","properties":{"F_DISA_NM":"2014년 8.17 ~ 21 호우","F_AVR_HGT":21.18,"F_AREA":231.3,"ADM_CD":"1168011400","F_SAT_YMD":"20140817","F_END_YMD":"20140821","F_SAT_TM":"6","F_END_TM":"12","F_RSN_DTL":"내수침수","F_ZONE_NM":"강남구 일원동 676-8","INV_YR":"2014","F_YR":"2014","GU_NAM":"강남구","F_SHIM":0.5},"geometry":{"type":"Polygon","coordinates":[[[127.0829782155318,37.49139233941857],[127.08314573994733,37.491446824392284],[127.08320271033307,37.49132478962445],[127.08303507297566,37.49127021470821],[127.0829782155318,37.49139233941857]]]}},{"type":"Feature","properties":{"F_DISA_NM":"2014년 8.17 ~ 21 호우","F_AVR_HGT":19.51,"F_AREA":198,"ADM_CD":"1168011400","F_SAT_YMD":"20140817","F_END_YMD":"20140821","F_SAT_TM":"6","F_END_TM":"12","F_RSN_DTL":"내수침수","F_ZONE_NM":"강남구 일원동 657-6","INV_YR":"2014","F_YR":"2014","GU_NAM":"강남구","F_SHIM":0.5},"geometry":{"type":"Polygon","coordinates":[[[127.08540270185208,37.49177757015152],[127.0855721470401,37.4918283562172],[127.08560847023178,37.491750393880736],[127.08558501742212,37.49170932497591],[127.08545312633501,37.49166977475286],[127.08540270185208,37.49177757015152]]]}},{"type":"Feature","properties":{"F_DISA_NM":"2014년 8.17 ~ 21 호우","F_AVR_HGT":19.51,"F_AREA":197.6,"ADM_CD":"1168011400","F_SAT_YMD":"20140817","F_END_YMD":"20140821","F_SAT_TM":"6","F_END_TM":"12","F_RSN_DTL":"내수침수","F_ZONE_NM":"강남구 일원동 655-5","INV_YR":"2014","F_YR":"2014","GU_NAM":"강남구","F_SHIM":0.5},"geometry":{"type":"Polygon","coordinates":[[[127.08563943964957,37.491839210422306],[127.0858127306443,37.49189080430386],[127.08586101325709,37.49178931726074],[127.0856868175515,37.491737453793554],[127.08563943964957,37.491839210422306]]]}}]}