{"type":"FeatureCollection","features":[{"type":"Feature","properties":{"F_DISA_NM":"2016년 7.1~7호우·강풍·풍랑","F_AVR_HGT":54.07,"F_AREA":26.4,"ADM_CD":"1135010500","F_SAT_YMD":"20160705","F_END_YMD":"20160707","F_SAT_TM":"14","F_END_TM":"24","F_RSN_DTL":"침수","F_ZONE_NM":"노원구 상계동1116-86","INV_YR":"2016","F_YR":"2016","GU_NAM":"노원구","F_SHIM":0.5},"geometry":{"type":"Polygon","coordinates":[[[127.05850083317812,37.67579048751296],[127.05860614545648,37.67585688325597],[127.05866182498508,37.67585626165484],[127.05866745788032,37.675722122258506],[127.05860547184326,37.675687825250705],[127.05850083317812,37.67579048751296]]]}},{"type":"Feature","properties":{"F_DISA_NM":"2016년 7.1~7호우·강풍·풍랑","F_AVR_HGT":31.76,"F_AREA":82.94,"ADM_CD":"1135010500","F_SAT_YMD":"20160705","F_END_YMD":"20160707","F_SAT_TM":"10","F_END_TM":"24","F_RSN_DTL":"침수(하수도역류)","F_ZONE_NM":"노원구 상계동387-52","INV_YR":"2016","F_YR":"2016","GU_NAM":"노원구","F_SHIM":0.5},"geometry":{"type":"Polygon","coordinates":[[[127.0702219992189,37.65823290140047],[127.07029583729515,37.658176583518845],[127.07022604279263,37.65811977270398],[127.07015347339748,37.658175441102834],[127.0702219992189,37.65823290140047]]]}},{"type":"Feature","properties":{"F_DISA_NM":"2016년 7.1~7호우·강풍·풍랑","F_AVR_HGT":78.44,"F_AREA":149,"ADM_CD":"1114016200","F_SAT_YMD":"20160701","F_END_YMD":"20160707","F_SAT_TM":"11","F_END_TM":"17","F_RSN_DTL":"침수","F_ZONE_NM":"중구 신당동432-1648","INV_YR":"2016","F_YR":"2016","GU_NAM":"중구","F_SHIM":0.3},"geometry":{"type":"Polygon","coordinates":[[[127.00591301909944,37.549528139181625],[127.006066999397,37.549507203324374],[127.00605999119854,37.549451495305746],[127.00600282616602,37.54934785646671],[127.00598404169868,37.5493583807565],[127.00595622775553,37.54938505114625],[127.00591301909944,37.549528139181625]]]}},{"type":"Feature","properties":{"F_DISA_NM":"2016년 7.1~7 호우·강풍·풍랑","F_AVR_HGT":20.28,"F_AREA":198.4,"ADM_CD":"1168010700","F_SAT_YMD":"20160701","F_END_YMD":"20160707","F_SAT_TM":"19","F_END_TM":"1","F_RSN_DTL":"내수침수","F_ZONE_NM":"강남구 신사동 626-57","INV_YR":"2016","F_YR":"2016","GU_NAM":"강남구","F_SHIM":0.3},"geometry":{"type":"Polygon","coordinates":[[[127.03159717284159,37.52352914137918],[127.03170996279157,37.523541816634136],[127.03173716900378,37.52340116432373],[127.03156114052935,37.523382468528595],[127.03159353688147,37.52348931831686],[127.03159717284159,37.52352914137918]]]}},{"type":"Feature","properties":{"F_DISA_NM":"2016년 7.1~7 호우·강풍·풍랑","F_AVR_HGT":20.28,"F_AREA":336.6,"ADM_CD":"1168010700","F_SAT_YMD":"20160701","F_END_YMD":"20160707","F_SAT_TM":"19","F_END_TM":"23","F_RSN_DTL":"내수침수","F_ZONE_NM":"강남구 신사동 626-64","INV_YR":"2016","F_YR":"2016","GU_NAM":"강남구","F_SHIM":0.3},"geometry":{"type":"Polygon","coordinates":[[[127.03164805700214,37.52319377798496],[127.03178222873062,37.52321113289073],[127.03182997928043,37.52296199545302],[127.03169467711677,37.52294554188482],[127.03164805700214,37.52319377798496]]]}},{"type":"Feature","properties":{"F_DISA_NM":"2016년 7.1~7 호우·강풍·풍랑","F_AVR_HGT":18.85,"F_AREA":168,"ADM_CD":"1174010800","F_SAT_YMD":"20160701","F_END_YMD":"20160707","F_SAT_TM":"5","F_END_TM":"11","F_RSN_DTL":"내수침수","F_ZONE_NM":"강동구 성내동 379-63","INV_YR":"2016","F_YR":"2016","GU_NAM":"강동구","F_SHIM":0.5},"geometry":{"type":"Polygon","coordinates":[[[127.13725319643649,37.533423585886425],[127.13736143035403,37.5333889534101],[127.1373036361762,37.53326885442114],[127.13729545965359,37.53325201525033],[127.13718715800353,37.53328663873478],[127.13722766688286,37.533370663860495],[127.13725319643649,37.533423585886425]]]}},{"type":"Feature","properties":{"F_DISA_NM":"2016년 7.1~7 호우·강풍·풍랑","F_AVR_HGT":21.15,"F_AREA":109,"ADM_CD":"1174010600","F_SAT_YMD":"20160701","F_END_YMD":"20160707","F_SAT_TM":"5","F_END_TM":"11","F_RSN_DTL":"내수침수","F_ZONE_NM":"강동구 둔촌동 70-48","INV_YR":"2016","F_YR":"2016","GU_NAM":"강동구","F_SHIM":0.5},"geometry":{"type":"Polygon","coordinates":[[[127.14052213728506,37.52995300266721],[127.14061491139323,37.5299309812783],[127.14057661052861,37.52984292722571],[127.14044631449377,37.52987953476396],[127.14044702850465,37.52988021867921],[127.14052213728506,37.52995300266721]]]}},{"type":"Feature","properties":{"F_DISA_NM":"2016년 7.1~7 호우·강풍·풍랑","F_AVR_HGT":21.39,"F_AREA":218.5,"ADM_CD":"1174010200","F_SAT_YMD":"20160701","F_END_YMD":"20160707","F_SAT_TM":"5","F_END_TM":"11","F_RSN_DTL":"내수침수","F_ZONE_NM":"강동구 고덕동 196-6","INV_YR":"2016","F_YR":"2016","GU_NAM":"강동구","F_SHIM":0.5},"geometry":{"type":"Polygon","coordinates":[[[127.17017176760012,37.55888491479917],[127.17017945316312,37.55872960938583],[127.17004973958392,37.55872410034831],[127.17003604381763,37.558723516233016],[127.17002881080818,37.55887888406084],[127.17017176760012,37.55888491479917]]]}},{"type":"Feature","properties":{"F_DISA_NM":"2016년 7.1~7 호우·강풍·풍랑","F_AVR_HGT":25.63,"F_AREA":122.7,"ADM_CD":"1174010700","F_SAT_YMD":"20160701","F_END_YMD":"20160707","F_SAT_TM":"5","F_END_TM":"11","F_RSN_DTL":"내수침수","F_ZONE_NM":"강동구 암사동 456-40","INV_YR":"2016","F_YR":"2016","GU_NAM":"강동구","F_SHIM":0.3},"geometry":{"type":"Polygon","coordinates":[[[127.1337669253106,37.55316285014294],[127.13381590856253,37.55315216359026],[127.13386320228952,37.55313961386138],[127.13383589728797,37.55306429465973],[127.13396476433114,37.55302692127674],[127.13394878141422,37.55301215395517],[127.13382964243758,37.55304700265854],[127.13372987063343,37.55306495401418],[127.13373637430584,37.553082173662794],[127.1337669253106,37.55316285014294]]]}},{"type":"Feature","properties":{"F_DISA_NM":"2016년 7.1~7 호우·강풍·풍랑","F_AVR_HGT":22.33,"F_AREA":148.9,"ADM_CD":"1174010700","F_SAT_YMD":"20160701","F_END_YMD":"20160707","F_SAT_TM":"5","F_END_TM":"11","F_RSN_DTL":"내수침수","F_ZONE_NM":"강동구 암사동 470-13","INV_YR":"2016","F_YR":"2016","GU_NAM":"강동구","F_SHIM":0.3},"geometry":{"type":"Polygon","coordinates":[[[127.13183024324769,37.553033008226166],[127.13183531758419,37.552944525395674],[127.13165078010856,37.552961307126395],[127.13165482388267,37.552982935443],[127.13166670366324,37.553046334034974],[127.13183024324769,37.553033008226166]]]}},{"type":"Feature","properties":{"F_DISA_NM":"2016년 7.1~7 호우·강풍·풍랑","F_AVR_HGT":33.5,"F_AREA":552,"ADM_CD":"1174010900","F_SAT_YMD":"20160701","F_END_YMD":"20160707","F_SAT_TM":"5","F_END_TM":"11","F_RSN_DTL":"내수침수","F_ZONE_NM":"강동구 천호동 276","INV_YR":"2016","F_YR":"2016","GU_NAM":"강동구","F_SHIM":0.3},"geometry":{"type":"Polygon","coordinates":[[[127.13285210407457,37.5436566790826],[127.13289565890173,37.54363826842838],[127.1329028751895,37.54363657554589],[127.13309578734523,37.54369169065434],[127.13315091300409,37.5435997280829],[127.13307238138216,37.54357258762733],[127.132994094187,37.54353640089188],[127.1329235500778,37.54351496373056],[127.13279908291577,37.543477729032276],[127.13274262875244,37.54348333287554],[127.13273922766278,37.543486102698914],[127.13273644074087,37.543484204703404],[127.1327234955153,37.543496905048116],[127.13272285306319,37.543498347348425],[127.1326949226986,37.54356071798348],[127.13273041232335,37.543621342318566],[127.13280726556793,37.54365287269621],[127.13285210407457,37.5436566790826]]]}},{"type":"Feature","properties":{"F_DISA_NM":"2016년 7.1~7 호우·강풍·풍랑","F_AVR_HGT":17.2,"F_AREA":170.8,"ADM_CD":"1174010800","F_SAT_YMD":"20160701","F_END_YMD":"20160707","F_SAT_TM":"5","F_END_TM":"11","F_RSN_DTL":"내수침수","F_ZONE_NM":"강동구 성내동 427-54","INV_YR":"2016","F_YR":"2016","GU_NAM":"강동구","F_SHIM":0.5},"geometry":{"type":"Polygon","coordinates":[[[127.13398608368723,37.52723043081561],[127.13411469152913,37.52719958062623],[127.13410512071086,37.527173985118985],[127.13406932678315,37.52707824061382],[127.13396289396323,37.52710350675663],[127.13394223318392,37.52712722606749],[127.13398132294225,37.52723157140752],[127.13398608368723,37.52723043081561]]]}},{"type":"Feature","properties":{"F_DISA_NM":"2016년 7.1~7 호우·강풍·풍랑","F_AVR_HGT":31.1,"F_AREA":183.1,"ADM_CD":"1174010700","F_SAT_YMD":"20160701","F_END_YMD":"20160707","F_SAT_TM":"5","F_END_TM":"11","F_RSN_DTL":"내수침수","F_ZONE_NM":"강동구 암사동 476-17","INV_YR":"2016","F_YR":"2016","GU_NAM":"강동구","F_SHIM":0.3},"geometry":{"type":"Polygon","coordinates":[[[127.13731811543633,37.55050280838247],[127.13735910718074,37.55047974993802],[127.1372705669035,37.55037985983546],[127.13723066035678,37.5504022502694],[127.13714655134571,37.55044946870513],[127.13723375784649,37.55055027043284],[127.13731811543633,37.55050280838247]]]}},{"type":"Feature","properties":{"F_DISA_NM":"2016년 7.1~7 호우·강풍·풍랑","F_AVR_HGT":20.85,"F_AREA":155,"ADM_CD":"1174010900","F_SAT_YMD":"20160701","F_END_YMD":"20160707","F_SAT_TM":"5","F_END_TM":"11","F_RSN_DTL":"내수침수","F_ZONE_NM":"강동구 천호동 169-30","INV_YR":"2016","F_YR":"2016","GU_NAM":"강동구","F_SHIM":0.5},"geometry":{"type":"Polygon","coordinates":[[[127.13335307664282,37.538427295184626],[127.13347568346718,37.53840224581479],[127.13344159218906,37.53830578761983],[127.13344167016699,37.53829866969298],[127.13343828106149,37.53828882563216],[127.13330578172388,37.538318210766484],[127.13330074969237,37.53833276740842],[127.13335307664282,37.538427295184626]]]}},{"type":"Feature","properties":{"F_DISA_NM":"2016년 7.1~7 호우·강풍·풍랑","F_AVR_HGT":27.23,"F_AREA":179.3,"ADM_CD":"1174010200","F_SAT_YMD":"20160701","F_END_YMD":"20160707","F_SAT_TM":"5","F_END_TM":"11","F_RSN_DTL":"내수침수","F_ZONE_NM":"강동구 고덕동 187-2","INV_YR":"2016","F_YR":"2016","GU_NAM":"강동구","F_SHIM":0.5},"geometry":{"type":"Polygon","coordinates":[[[127.16868974737574,37.55952064269403],[127.16889085404432,37.55944972027903],[127.16888698704871,37.55944125646617],[127.16885259400604,37.55936617175957],[127.1686728086777,37.55943128859063],[127.16867546575769,37.55945038579067],[127.16868550533103,37.5594861408309],[127.16868974737574,37.55952064269403]]]}},{"type":"Feature","properties":{"F_DISA_NM":"2016년 7.1~7 호우·강풍·풍랑","F_AVR_HGT":18.33,"F_AREA":95.3,"ADM_CD":"1174010500","F_SAT_YMD":"20160701","F_END_YMD":"20160707","F_SAT_TM":"5","F_END_TM":"11","F_RSN_DTL":"내수침수","F_ZONE_NM":"강동구 길동 413-21","INV_YR":"2016","F_YR":"2016","GU_NAM":"강동구","F_SHIM":0.5},"geometry":{"type":"Polygon","coordinates":[[[127.13814013143609,37.53655503399153],[127.1382320505634,37.53658042571143],[127.13827046044497,37.53648613741602],[127.13817693427418,37.53646046827738],[127.13814013143609,37.53655503399153]]]}},{"type":"Feature","properties":{"F_DISA_NM":"2016년 7.1~7 호우·강풍·풍랑","F_AVR_HGT":23.73,"F_AREA":701.2,"ADM_CD":"1174010500","F_SAT_YMD":"20160701","F_END_YMD":"20160707","F_SAT_TM":"5","F_END_TM":"11","F_RSN_DTL":"내수침수","F_ZONE_NM":"강동구 길동 356-7","INV_YR":"2016","F_YR":"2016","GU_NAM":"강동구","F_SHIM":0.5},"geometry":{"type":"Polygon","coordinates":[[[127.14329152105428,37.53993633296492],[127.1431933836389,37.539617589649765],[127.1429817610159,37.539658928571704],[127.14303084042565,37.539818255266404],[127.14307989724517,37.53997749186412],[127.14329152105428,37.53993633296492]]]}},{"type":"Feature","properties":{"F_DISA_NM":"2016년 7.1~7 호우·강풍·풍랑","F_AVR_HGT":31.11,"F_AREA":218.2,"ADM_CD":"1174010100","F_SAT_YMD":"20160701","F_END_YMD":"20160707","F_SAT_TM":"5","F_END_TM":"11","F_RSN_DTL":"내수침수","F_ZONE_NM":"강동구 명일동 174","INV_YR":"2016","F_YR":"2016","GU_NAM":"강동구","F_SHIM":0.5},"geometry":{"type":"Polygon","coordinates":[[[127.15533658958225,37.54739110761337],[127.15550599046166,37.547385661089955],[127.15549926401422,37.547262324225436],[127.15549882864474,37.54725421587617],[127.1553301639702,37.547259841628424],[127.15533658958225,37.54739110761337]]]}},{"type":"Feature","properties":{"F_DISA_NM":"2016년 7.1~7 호우·강풍·풍랑","F_AVR_HGT":20.07,"F_AREA":244.8,"ADM_CD":"1174010600","F_SAT_YMD":"20160701","F_END_YMD":"20160707","F_SAT_TM":"5","F_END_TM":"11","F_RSN_DTL":"내수침수","F_ZONE_NM":"강동구 둔촌동 511-11","INV_YR":"2016","F_YR":"2016","GU_NAM":"강동구","F_SHIM":0.5},"geometry":{"type":"Polygon","coordinates":[[[127.1391511561042,37.52915103904005],[127.13924128367096,37.5291297516165],[127.13925077286208,37.529060634331884],[127.13924775670577,37.52895846515864],[127.13910934311131,37.52899134156855],[127.13896641737108,37.529025286239865],[127.1389761264414,37.52905120554048],[127.13910261010483,37.529021253394454],[127.1391511561042,37.52915103904005]]]}},{"type":"Feature","properties":{"F_DISA_NM":"2016년 7.1~7 호우·강풍·풍랑","F_AVR_HGT":28.33,"F_AREA":357,"ADM_CD":"1174010700","F_SAT_YMD":"20160701","F_END_YMD":"20160707","F_SAT_TM":"5","F_END_TM":"11","F_RSN_DTL":"내수침수","F_ZONE_NM":"강동구 암사동 275-14","INV_YR":"2016","F_YR":"2016","GU_NAM":"강동구","F_SHIM":0.5},"geometry":{"type":"Polygon","coordinates":[[[127.13712950467806,37.55956894835091],[127.13702341491727,37.55943357941008],[127.13699105478278,37.55942598516471],[127.13684925179315,37.55950009194889],[127.13696661767753,37.559650035123106],[127.13712950467806,37.55956894835091]]]}},{"type":"Feature","properties":{"F_DISA_NM":"2016년 7.1~7 호우·강풍·풍랑","F_AVR_HGT":20.38,"F_AREA":330,"ADM_CD":"1174011000","F_SAT_YMD":"20160701","F_END_YMD":"20160707","F_SAT_TM":"5","F_END_TM":"11","F_RSN_DTL":"내수침수","F_ZONE_NM":"강동구 강일동 138-10","INV_YR":"2016","F_YR":"2016","GU_NAM":"강동구","F_SHIM":0.3},"geometry":{"type":"Polygon","coordinates":[[[127.1708961480788,37.57700378224622],[127.17095307265535,37.57700105166358],[127.17095800358179,37.576903999380534],[127.17092375679584,37.57690296734426],[127.17090566544427,37.57690242568163],[127.17090506031532,37.57691514847282],[127.17080162893089,37.576911846052184],[127.17080054579426,37.57693345325064],[127.17074455062533,37.576931659477545],[127.17074577484775,37.57690735812909],[127.17057521950782,37.576901908253205],[127.17056846033456,37.57699167416168],[127.17063954219533,37.57699689718355],[127.17074713342056,37.57699745478568],[127.1708961480788,37.57700378224622]]]}},{"type":"Feature","properties":{"F_DISA_NM":"2016년 7.1~7 호우·강풍·풍랑","F_AVR_HGT":35.41,"F_AREA":164.1,"ADM_CD":"1165010800","F_SAT_YMD":"20160701","F_END_YMD":"20160707","F_SAT_TM":"5","F_END_TM":"11","F_RSN_DTL":"침수(도로범람유입)","F_ZONE_NM":"서초구 서초동 1490-18","INV_YR":"2016","F_YR":"2016","GU_NAM":"서초구","F_SHIM":0.5},"geometry":{"type":"Polygon","coordinates":[[[127.00334278641576,37.48305032869259],[127.00337601297389,37.48294114481719],[127.00325267199574,37.48291733322506],[127.00322373950314,37.48293139827963],[127.00319618808238,37.48302202140183],[127.00334278641576,37.48305032869259]]]}},{"type":"Feature","properties":{"F_DISA_NM":"2016년 7.1~7 호우·강풍·풍랑","F_AVR_HGT":51.51,"F_AREA":342,"ADM_CD":"1165010900","F_SAT_YMD":"20160701","F_END_YMD":"20160707","F_SAT_TM":"17","F_END_TM":"23","F_RSN_DTL":"침수(공공하수도역류)","F_ZONE_NM":"서초구 내곡동 193-13","INV_YR":"2016","F_YR":"2016","GU_NAM":"서초구","F_SHIM":0.1},"geometry":{"type":"Polygon","coordinates":[[[127.06369533549905,37.45603370187727],[127.06368180757872,37.45599378544069],[127.06367373619831,37.45596456106785],[127.06365098829977,37.455900484508454],[127.06363473089085,37.45589467255886],[127.06362213575397,37.455889282155134],[127.0636047254155,37.45589701291995],[127.06348465127157,37.45595266797798],[127.06341295249194,37.45598324963584],[127.0634325350918,37.456033019931475],[127.06345341240036,37.45609033997082],[127.06369533549905,37.45603370187727]]]}},{"type":"Feature","properties":{"F_DISA_NM":"2016년 7.1~7 호우·강풍·풍랑","F_AVR_HGT":42.43,"F_AREA":307,"ADM_CD":"1165011000","F_SAT_YMD":"20160701","F_END_YMD":"20160707","F_SAT_TM":"12","F_END_TM":"18","F_RSN_DTL":"침수(공공하수도역류)","F_ZONE_NM":"서초구 염곡동 219-8","INV_YR":"2016","F_YR":"2016","GU_NAM":"서초구","F_SHIM":0.5},"geometry":{"type":"Polygon","coordinates":[[[127.05719478289564,37.45733315650687],[127.05710012315662,37.457208574009],[127.05690432086807,37.457301757804245],[127.05699696819748,37.45742584584884],[127.05719478289564,37.45733315650687]]]}},{"type":"Feature","properties":{"F_DISA_NM":"2016년 7.1~7 호우·강풍·풍랑","F_AVR_HGT":25.54,"F_AREA":255.8,"ADM_CD":"1165010300","F_SAT_YMD":"20160701","F_END_YMD":"20160707","F_SAT_TM":"5","F_END_TM":"11","F_RSN_DTL":"침수(도로범람유입)","F_ZONE_NM":"서초구 우면동 7-9","INV_YR":"2016","F_YR":"2016","GU_NAM":"서초구","F_SHIM":0.5},"geometry":{"type":"Polygon","coordinates":[[[127.02642276202455,37.46924111596914],[127.02630413713025,37.46910950428987],[127.02617359803058,37.469184404996525],[127.02629233582729,37.46931592668114],[127.02630975237453,37.469305939909],[127.02642276202455,37.46924111596914]]]}},{"type":"Feature","properties":{"F_DISA_NM":"2016년 7.1~7 호우·강풍·풍랑","F_AVR_HGT":30.96,"F_AREA":355,"ADM_CD":"1165010300","F_SAT_YMD":"20160701","F_END_YMD":"20160707","F_SAT_TM":"2","F_END_TM":"8","F_RSN_DTL":"산사태","F_ZONE_NM":"서초구 우면동 601-6","INV_YR":"2016","F_YR":"2016","GU_NAM":"서초구","F_SHIM":0.1},"geometry":{"type":"Polygon","coordinates":[[[127.0126198757874,37.45841854308313],[127.01264276313692,37.458339351579745],[127.01267332152311,37.458237481044456],[127.01248545522688,37.45819562891643],[127.01242783801557,37.458373988240936],[127.01251220350919,37.45839367639586],[127.0126198757874,37.45841854308313]]]}},{"type":"Feature","properties":{"F_DISA_NM":"2016년 7.1~7 호우·강풍·풍랑","F_AVR_HGT":36.4,"F_AREA":157.2,"ADM_CD":"1165010100","F_SAT_YMD":"20160701","F_END_YMD":"20160707","F_SAT_TM":"3","F_END_TM":"9","F_RSN_DTL":"침수(공공하수도역류)","F_ZONE_NM":"서초구 방배동 900-16","INV_YR":"2016","F_YR":"2016","GU_NAM":"서초구","F_SHIM":0.5},"geometry":{"type":"Polygon","coordinates":[[[126.99642250229796,37.48661227808948],[126.99648710468034,37.48651784695158],[126.99634769526597,37.48646108688712],[126.99628874614733,37.486555977710424],[126.99642250229796,37.48661227808948]]]}},{"type":"Feature","properties":{"F_DISA_NM":"2016년 7.1~7 호우·강풍·풍랑","F_AVR_HGT":23.81,"F_AREA":335.4,"ADM_CD":"1165010100","F_SAT_YMD":"20160701","F_END_YMD":"20160707","F_SAT_TM":"10","F_END_TM":"16","F_RSN_DTL":"침수(공공하수도역류)","F_ZONE_NM":"서초구 방배동 921-23","INV_YR":"2016","F_YR":"2016","GU_NAM":"서초구","F_SHIM":0.5},"geometry":{"type":"Polygon","coordinates":[[[126.99431332366298,37.48282501704688],[126.99439560026534,37.48269760240264],[126.99426877169871,37.48264485006308],[126.99421157559071,37.48262186199237],[126.99411601170114,37.48277147635548],[126.99426556505799,37.4828339971106],[126.99431332366298,37.48282501704688]]]}},{"type":"Feature","properties":{"F_DISA_NM":"2016년 7.1~7 호우·강풍·풍랑","F_AVR_HGT":18.47,"F_AREA":281.9,"ADM_CD":"1165010200","F_SAT_YMD":"20160701","F_END_YMD":"20160707","F_SAT_TM":"5","F_END_TM":"11","F_RSN_DTL":"침수(공공하수도역류)","F_ZONE_NM":"서초구 양재동 322-3","INV_YR":"2016","F_YR":"2016","GU_NAM":"서초구","F_SHIM":0.5},"geometry":{"type":"Polygon","coordinates":[[[127.04099284753381,37.47063667555225],[127.0408513740799,37.47053202614207],[127.0407230095125,37.47063496337965],[127.04085747695544,37.47074484109342],[127.04099284753381,37.47063667555225]]]}}]}