{"type":"FeatureCollection","features":[{"type":"Feature","properties":{"F_DISA_NM":"2020년 7.28~8.11 호우","F_AVR_HGT":86.5,"F_AREA":73.08,"ADM_CD":"1130510100","F_SAT_YMD":"20200728","F_END_YMD":"20200811","F_SAT_TM":"8","F_END_TM":"12","F_RSN_DTL":"침수","F_ZONE_NM":"강북구 미아동258-559","INV_YR":"2019","F_YR":"2019","GU_NAM":"강북구","F_SHIM":0.45},"geometry":{"type":"Polygon","coordinates":[[[127.0335047426142,37.6226204546312],[127.0335144255981,37.62258944928586],[127.0335336672881,37.622528249508],[127.03334567174873,37.62248777427726],[127.0333141633145,37.62257788076783],[127.0335047426142,37.6226204546312]]]}},{"type":"Feature","properties":{"F_DISA_NM":"2019년 9.10.~ 호우","F_AVR_HGT":28.18,"F_AREA":108.51,"ADM_CD":"1132010800","F_SAT_YMD":"20190910","F_END_YMD":"20190910","F_SAT_TM":"12","F_END_TM":"18","F_RSN_DTL":"기타","F_ZONE_NM":"도봉구 도봉동605-32","INV_YR":"2019","F_YR":"2019","GU_NAM":"도봉구","F_SHIM":0.3},"geometry":{"type":"Polygon","coordinates":[[[127.04231115810394,37.673187822095926],[127.04241442001033,37.67318625469011],[127.04241152735905,37.67307894990785],[127.04230837890279,37.673080427174625],[127.04230918897633,37.67311078965675],[127.04231115810394,37.673187822095926]]]}},{"type":"Feature","properties":{"F_DISA_NM":"2019년 제13호 태풍 링링","F_AVR_HGT":40.18,"F_AREA":334.2,"ADM_CD":"1168010800","F_SAT_YMD":"20190906","F_END_YMD":"20190907","F_SAT_TM":"9","F_END_TM":"15","F_RSN_DTL":"기타","F_ZONE_NM":"강남구 논현동 202-9","INV_YR":"2019","F_YR":"2019","GU_NAM":"강남구","F_SHIM":0.1},"geometry":{"type":"Polygon","coordinates":[[[127.02713229353962,37.50556562110989],[127.02705815478888,37.50572105931082],[127.02722872296266,37.50577174849483],[127.0273529273812,37.50551160328488],[127.02732114383247,37.505502059652954],[127.0272708518145,37.505607307191134],[127.02713229353962,37.50556562110989]]]}},{"type":"Feature","properties":{"F_DISA_NM":"2019년 제13호 태풍 링링","F_AVR_HGT":34.21,"F_AREA":218,"ADM_CD":"1168011800","F_SAT_YMD":"20190906","F_END_YMD":"20190909","F_SAT_TM":"9","F_END_TM":"15","F_RSN_DTL":"기타","F_ZONE_NM":"강남구 도곡동 187-1","INV_YR":"2019","F_YR":"2019","GU_NAM":"강남구","F_SHIM":0.1},"geometry":{"type":"Polygon","coordinates":[[[127.04548783066804,37.48839319521508],[127.04550631798763,37.48837421326138],[127.04550954163437,37.488221861871835],[127.04546785500399,37.48816844805032],[127.04534254524106,37.48821859924097],[127.04534878057609,37.488227372673784],[127.04540124347906,37.48830123524811],[127.04548783066804,37.48839319521508]]]}},{"type":"Feature","properties":{"F_DISA_NM":"2019년 제13호 태풍 링링","F_AVR_HGT":12.78,"F_AREA":4381.3,"ADM_CD":"1153010200","F_SAT_YMD":"20190906","F_END_YMD":"20190917","F_SAT_TM":"7","F_END_TM":"13","F_RSN_DTL":"기타","F_ZONE_NM":"구로구 구로동 1279","INV_YR":"2019","F_YR":"2019","GU_NAM":"구로구","F_SHIM":0.3},"geometry":{"type":"Polygon","coordinates":[[[126.89368694219,37.487634770162],[126.8936750461533,37.48765124761039],[126.89367961034367,37.48765391873698],[126.89368566578798,37.48765747420469],[126.89368098342621,37.48766621864422],[126.89364655148084,37.487730599725175],[126.89364541741249,37.48773294129056],[126.8936349042872,37.48775486203888],[126.8936341897952,37.48775635704697],[126.89360471162112,37.48781192184499],[126.89356525599882,37.48788639852518],[126.89356400989249,37.487888019187125],[126.89352106452269,37.487943859977875],[126.89350981480824,37.48795901352906],[126.89345979021739,37.48802334425762],[126.89345435271296,37.48803036708652],[126.89340034629862,37.488080142993546],[126.89340136893026,37.4880845227904],[126.8934034927979,37.48809366087614],[126.89340709313866,37.48810609797363],[126.89342504890298,37.48812170170549],[126.89342685907111,37.48812098256133],[126.89345384816413,37.488145154054465],[126.89345655835551,37.48814758923373],[126.89350093803981,37.488187273823385],[126.89353097931233,37.488211988689024],[126.8935991887588,37.48827133682248],[126.8935901687832,37.48827704993489],[126.89351906146123,37.48832208002106],[126.89358434029467,37.4882807567316],[126.89358686859669,37.48828387650184],[126.89368652266309,37.488406548566964],[126.89378563154997,37.488357912884666],[126.89412100539198,37.4881964886613],[126.89428634900888,37.488117314774385],[126.8945978114196,37.48796815712994],[126.89463133904114,37.48792692165271],[126.89454580585584,37.48796333475677],[126.89441313132819,37.48775571420244],[126.89427544573792,37.487811090931636],[126.89425734356696,37.487818733002406],[126.89410223628786,37.48788013041426],[126.89400292889091,37.48782327707473],[126.89392499421326,37.48776482131475],[126.89389823085703,37.48774092043336],[126.89385674243083,37.48773511623535],[126.8937173197942,37.48766137739004],[126.89369045370104,37.487630358465125],[126.89368694219,37.487634770162]]]}},{"type":"Feature","properties":{"F_DISA_NM":"2019년 9.10. 호우","F_AVR_HGT":6.93,"F_AREA":1638,"ADM_CD":"1153010100","F_SAT_YMD":"20190910","F_END_YMD":"20190911","F_SAT_TM":"11","F_END_TM":"17","F_RSN_DTL":"기타","F_ZONE_NM":"구로구 신도림동 276-59","INV_YR":"2019","F_YR":"2019","GU_NAM":"구로구","F_SHIM":0.3},"geometry":{"type":"Polygon","coordinates":[[[126.87951453185923,37.51230491547919],[126.87963932759438,37.51242037184034],[126.8796954604524,37.512470525140465],[126.87971782450701,37.51248973942451],[126.87989403140122,37.51263813487831],[126.87991357970775,37.51265004815536],[126.87993757589668,37.51263935099891],[126.88014897984787,37.51242630255423],[126.88009809109552,37.512350566561985],[126.87996788226853,37.51215509663258],[126.87990802261073,37.512171162859545],[126.87988538984395,37.51217816732953],[126.8796302237788,37.512245659247576],[126.87951453185923,37.51230491547919]]]}}]}