{"type":"FeatureCollection","features":[{"type":"Feature","properties":{"F_DISA_NM":"2013년 7.11~7.15 호우","F_AVR_HGT":41.3,"F_AREA":233.77,"ADM_CD":"1132010700","F_SAT_YMD":"20130711","F_END_YMD":"20130715","F_SAT_TM":"12","F_END_TM":"13","F_RSN_DTL":"침수","F_ZONE_NM":"도봉구 창동607-24","INV_YR":"2023","F_YR":"2013","GU_NAM":"도봉구","F_SHIM":0.3},"geometry":{"type":"Polygon","coordinates":[[[127.03977717330592,37.643422959912755],[127.03978468780385,37.64327285474832],[127.03971863013217,37.64327179498044],[127.03962481228861,37.64327011346018],[127.03961752320656,37.643418506685975],[127.03977717330592,37.643422959912755]]]}},{"type":"Feature","properties":{"F_DISA_NM":"2013년 7.11~7.15 호우","F_AVR_HGT":13.64,"F_AREA":501.5,"ADM_CD":"1123010500","F_SAT_YMD":"20130711","F_END_YMD":"20130715","F_SAT_TM":"3","F_END_TM":"9","F_RSN_DTL":"침수","F_ZONE_NM":"동대문구 답십리동542-8","INV_YR":"2013","F_YR":"2013","GU_NAM":"동대문","F_SHIM":0.3},"geometry":{"type":"Polygon","coordinates":[[[127.04772116962464,37.57231136738253],[127.04792092912176,37.572163905476415],[127.04791927544603,37.57216231137816],[127.04787599754414,37.57212189205153],[127.04783174546465,37.57208030180692],[127.0477956937059,37.57204642078619],[127.04776311107544,37.57202103470954],[127.04768523384583,37.572080359188526],[127.04756435021744,37.57217244228878],[127.04767817550541,37.57227219123634],[127.04772116962464,37.57231136738253]]]}},{"type":"Feature","properties":{"F_DISA_NM":"2013년 9.13~14 호우","F_AVR_HGT":24.86,"F_AREA":24.79,"ADM_CD":"1141011900","F_SAT_YMD":"20130913","F_END_YMD":"20130913","F_SAT_TM":"8","F_END_TM":"14","F_RSN_DTL":"침수","F_ZONE_NM":"서대문구 북가좌동291-1","INV_YR":"2013","F_YR":"2013","GU_NAM":"서대문","F_SHIM":0.1},"geometry":{"type":"Polygon","coordinates":[[[126.91412020228641,37.58132381065289],[126.91405709085272,37.581301023024004],[126.91393227191129,37.58125545771631],[126.91387302616951,37.581363559100495],[126.91388983950341,37.58141065711243],[126.91404206901429,37.581464387692165],[126.91412020228641,37.58132381065289]]]}},{"type":"Feature","properties":{"F_DISA_NM":"2013년 9.13~14 호우","F_AVR_HGT":22.25,"F_AREA":28.07,"ADM_CD":"1141012000","F_SAT_YMD":"20130913","F_END_YMD":"20130913","F_SAT_TM":"8","F_END_TM":"14","F_RSN_DTL":"침수","F_ZONE_NM":"서대문구 남가좌동205-1","INV_YR":"2013","F_YR":"2013","GU_NAM":"서대문","F_SHIM":0.1},"geometry":{"type":"Polygon","coordinates":[[[126.92088640128843,37.5760147338271],[126.92093485649976,37.575968906677964],[126.9208589250216,37.57591141690802],[126.92082728145897,37.57592489206819],[126.92083949473826,37.57594714578229],[126.92083644720621,37.57594933309777],[126.92085539135951,37.57598647571374],[126.92088640128843,37.5760147338271]]]}},{"type":"Feature","properties":{"F_DISA_NM":"2013년 9.13~14 호우","F_AVR_HGT":31.08,"F_AREA":32.5,"ADM_CD":"1141011900","F_SAT_YMD":"20130913","F_END_YMD":"20130913","F_SAT_TM":"8","F_END_TM":"14","F_RSN_DTL":"침수","F_ZONE_NM":"서대문구 북가좌동73-10","INV_YR":"2013","F_YR":"2013","GU_NAM":"서대문","F_SHIM":0.1},"geometry":{"type":"Polygon","coordinates":[[[126.91308266135238,37.57903801077116],[126.91314014740699,37.57903887371848],[126.91319104266036,37.57897441920272],[126.91311004927461,37.57893024628143],[126.9130732542097,37.57898977392192],[126.91304976555833,37.57901677690409],[126.91308266135238,37.57903801077116]]]}},{"type":"Feature","properties":{"F_DISA_NM":"2013년 9.13~14 호우","F_AVR_HGT":13.07,"F_AREA":128.88,"ADM_CD":"1141011900","F_SAT_YMD":"20130913","F_END_YMD":"20130913","F_SAT_TM":"8","F_END_TM":"14","F_RSN_DTL":"침수","F_ZONE_NM":"서대문구 북가좌동312-15","INV_YR":"2013","F_YR":"2013","GU_NAM":"서대문","F_SHIM":0.1},"geometry":{"type":"Polygon","coordinates":[[[126.90972567131742,37.5805381311655],[126.90974643530986,37.580527921116264],[126.90965079788357,37.58040595231392],[126.90963184750984,37.58041434376616],[126.90955324256791,37.58045369169176],[126.90953812903915,37.580499675259915],[126.90961110111921,37.5805944527663],[126.90972567131742,37.5805381311655]]]}},{"type":"Feature","properties":{"F_DISA_NM":"2013년 9.13~14 호우","F_AVR_HGT":20.67,"F_AREA":83.54,"ADM_CD":"1141011600","F_SAT_YMD":"20130913","F_END_YMD":"20130913","F_SAT_TM":"8","F_END_TM":"14","F_RSN_DTL":"침수","F_ZONE_NM":"서대문구 창천동33-15","INV_YR":"2013","F_YR":"2013","GU_NAM":"서대문","F_SHIM":0.1},"geometry":{"type":"Polygon","coordinates":[[[126.93682093852338,37.55847565991266],[126.93681982331181,37.55839105636893],[126.93669784795112,37.558396413428845],[126.93669793653287,37.55847707007514],[126.93682093852338,37.55847565991266]]]}},{"type":"Feature","properties":{"F_DISA_NM":"2013년 7.22~23 호우","F_AVR_HGT":41.1,"F_AREA":241,"ADM_CD":"1138010200","F_SAT_YMD":"20130722","F_END_YMD":"20130723","F_SAT_TM":"12","F_END_TM":"18","F_RSN_DTL":"침수","F_ZONE_NM":"은평구 녹번동94-5","INV_YR":"2013","F_YR":"2013","GU_NAM":"은평구","F_SHIM":0.3},"geometry":{"type":"Polygon","coordinates":[[[126.93050541823233,37.60573173889476],[126.9306609393067,37.60563956276019],[126.93056558661716,37.60554156868625],[126.93039233513784,37.60566500711213],[126.93043558373657,37.60568984622314],[126.93050541823233,37.60573173889476]]]}}]}