{"type":"FeatureCollection","features":[{"type":"Feature","properties":{"PNU":1114013200101270000,"COL_ADM_SE":11140,"F_AREA":28.35102197,"ADM_CD":1114013200,"F_ZONE_NM":"중구 충무로4가 127-16번지","TYPE":null,"F_DISA_NM":"2024 풍수해보험금","F_AVR_HGT":31.28738327,"F_SAT_YMD":"20240722","F_END_YMD":null,"F_SAT_TM":null,"F_END_TM":null,"F_RSN_DTL":"반파","INV_YR":"2024","F_YR":"2024","F_SHIM":0.2,"GU_NAM":"중구"},"geometry":{"type":"Polygon","coordinates":[[[126.9956355117122,37.562268633276204],[126.99566363762588,37.56226863467423],[126.99567371766975,37.562181851894735],[126.99563457900635,37.56218329153352],[126.9956355117122,37.562268633276204]]]}},{"type":"Feature","properties":{"PNU":1168010800101490000,"COL_ADM_SE":11680,"F_AREA":160.99022868,"ADM_CD":1168010800,"F_ZONE_NM":"강남구 학동로20길 491층","TYPE":null,"F_DISA_NM":"2024 풍수해보험금","F_AVR_HGT":25.71949501,"F_SAT_YMD":"20230704","F_END_YMD":null,"F_SAT_TM":null,"F_END_TM":null,"F_RSN_DTL":"침수","INV_YR":"2024","F_YR":"2024","F_SHIM":0.2,"GU_NAM":"강남구"},"geometry":{"type":"Polygon","coordinates":[[[127.02749019832693,37.51030000733943],[127.0273426293099,37.51039293250019],[127.02741085461848,37.51046058245015],[127.0275593286126,37.51036792730484],[127.02749019832693,37.51030000733943]]]}},{"type":"Feature","properties":{"PNU":1117012900103010200,"COL_ADM_SE":11170,"F_AREA":589.09685311,"ADM_CD":1117012900,"F_ZONE_NM":"용산구 이촌로75길 22 (이촌동) 1층 우부장돈대리","TYPE":null,"F_DISA_NM":"2024 풍수해보험금","F_AVR_HGT":15.05330772,"F_SAT_YMD":"20230824","F_END_YMD":null,"F_SAT_TM":null,"F_END_TM":null,"F_RSN_DTL":"소파","INV_YR":"2024","F_YR":"2024","F_SHIM":0.2,"GU_NAM":"용산구"},"geometry":{"type":"Polygon","coordinates":[[[126.97478651090701,37.5207862465919],[126.97470327957568,37.52062144465155],[126.97438675488982,37.52072659964395],[126.97446867509599,37.52088683345678],[126.97478651090701,37.5207862465919]]]}},{"type":"Feature","properties":{"PNU":1121510300102430100,"COL_ADM_SE":11215,"F_AREA":227.06924426,"ADM_CD":1121510300,"F_ZONE_NM":"광진구 아차산로 401-5 지하3호구의1동","TYPE":null,"F_DISA_NM":"2024 풍수해보험금","F_AVR_HGT":20.52170677,"F_SAT_YMD":"20240724","F_END_YMD":null,"F_SAT_TM":null,"F_END_TM":null,"F_RSN_DTL":"침수","INV_YR":"2024","F_YR":"2024","F_SHIM":0.2,"GU_NAM":"광진구"},"geometry":{"type":"Polygon","coordinates":[[[127.08685926366692,37.53776165753617],[127.08705301345383,37.53781043226329],[127.08709646241502,37.53770238977982],[127.08690289293635,37.53765275904951],[127.08685926366692,37.53776165753617]]]}},{"type":"Feature","properties":{"PNU":1159010200102420000,"COL_ADM_SE":11590,"F_AREA":209.68128902,"ADM_CD":1159010200,"F_ZONE_NM":"동작구 성대로5길  40 B02호 (상도동, 우창빌라)","TYPE":null,"F_DISA_NM":"2024 풍수해보험금","F_AVR_HGT":29.38899345,"F_SAT_YMD":"20240720","F_END_YMD":null,"F_SAT_TM":null,"F_END_TM":null,"F_RSN_DTL":"침수","INV_YR":"2024","F_YR":"2024","F_SHIM":0.2,"GU_NAM":"동작구"},"geometry":{"type":"Polygon","coordinates":[[[126.93405666085967,37.500829674691644],[126.93425211323928,37.50081812721655],[126.93424285719436,37.500710569759484],[126.93406163262763,37.50070861036709],[126.93406315234245,37.50074153371888],[126.93405666085967,37.500829674691644]]]}},{"type":"Feature","properties":{"PNU":1126010200101280000,"COL_ADM_SE":11260,"F_AREA":301.94423023,"ADM_CD":1126010200,"F_ZONE_NM":"중랑구 상봉2동 128-15번지","TYPE":null,"F_DISA_NM":"2024 풍수해보험금","F_AVR_HGT":14.07175846,"F_SAT_YMD":"20230726","F_END_YMD":null,"F_SAT_TM":null,"F_END_TM":null,"F_RSN_DTL":"반파","INV_YR":"2024","F_YR":"2024","F_SHIM":0.2,"GU_NAM":"중랑구"},"geometry":{"type":"Polygon","coordinates":[[[127.0795827235927,37.59357642196309],[127.07966488137265,37.59357451157347],[127.07966422064345,37.5935598620082],[127.07961990432808,37.59348587548764],[127.07956971215533,37.593401702703524],[127.07941215073552,37.593454036835375],[127.07942458354,37.59356281346122],[127.07946170846989,37.59357058246632],[127.0795827235927,37.59357642196309]]]}},{"type":"Feature","properties":{"PNU":1129011400103200000,"COL_ADM_SE":11290,"F_AREA":83.52415385,"ADM_CD":1129011400,"F_ZONE_NM":"성북구 삼선교로23길 1지하","TYPE":null,"F_DISA_NM":"2024 풍수해보험금","F_AVR_HGT":29.46388931,"F_SAT_YMD":"20240722","F_END_YMD":null,"F_SAT_TM":null,"F_END_TM":null,"F_RSN_DTL":"침수","INV_YR":"2024","F_YR":"2024","F_SHIM":0.2,"GU_NAM":"성북구"},"geometry":{"type":"Polygon","coordinates":[[[127.01463142925215,37.589857167537154],[127.01470114278474,37.589799767031906],[127.01457774392402,37.589760380675166],[127.01454197719644,37.589830246999426],[127.01463142925215,37.589857167537154]]]}},{"type":"Feature","properties":{"PNU":1129011700103310000,"COL_ADM_SE":11290,"F_AREA":198.50726922,"ADM_CD":1129011700,"F_ZONE_NM":"성북구 동선동2가 331","TYPE":"주택","F_DISA_NM":"7. 8.~7. 19. 호우","F_AVR_HGT":47.93081436,"F_SAT_YMD":"20240715","F_END_YMD":"20240719","F_SAT_TM":"20","F_END_TM":"14","F_RSN_DTL":"내수침수","INV_YR":"2024","F_YR":"2024","F_SHIM":0.1,"GU_NAM":"성북구"},"geometry":{"type":"Polygon","coordinates":[[[127.02196274692541,37.59017552467683],[127.0219837995335,37.59010772191593],[127.02198899220086,37.59009181863215],[127.02197913992661,37.59000283907101],[127.02187645840118,37.59001012777176],[127.02183134188208,37.590148157420536],[127.02183047077469,37.59015082448569],[127.02196274692541,37.59017552467683]]]}},{"type":"Feature","properties":{"PNU":1129013300108400000,"COL_ADM_SE":11290,"F_AREA":201.31684198,"ADM_CD":1129013300,"F_ZONE_NM":"성북구 정릉동 840-29","TYPE":"주택","F_DISA_NM":"7. 8.~7. 19. 호우","F_AVR_HGT":141.52756653,"F_SAT_YMD":"20240715","F_END_YMD":"20240719","F_SAT_TM":"20","F_END_TM":"14","F_RSN_DTL":"내수침수","INV_YR":"2024","F_YR":"2024","F_SHIM":0.1,"GU_NAM":"성북구"},"geometry":{"type":"Polygon","coordinates":[[[126.9978449398771,37.61434708968463],[126.99783179462374,37.61425754976471],[126.99781759117869,37.614266694278996],[126.99781374970057,37.61430523813345],[126.99771164458828,37.61430146878119],[126.99766045069514,37.6142950160927],[126.99765707495838,37.61430550340318],[126.9976188720838,37.61430066387755],[126.99759649873371,37.61438044501891],[126.99777115777442,37.61441631875686],[126.9977986163382,37.61433768198942],[126.9978449398771,37.61434708968463]]]}},{"type":"Feature","properties":{"PNU":1129013800102380200,"COL_ADM_SE":11290,"F_AREA":354.34621779,"ADM_CD":1129013800,"F_ZONE_NM":"성북구 장위동 238-207","TYPE":"상가","F_DISA_NM":"7. 22.~7. 23. 호우","F_AVR_HGT":29.67494354,"F_SAT_YMD":"20240722","F_END_YMD":"20240723","F_SAT_TM":"16","F_END_TM":"14","F_RSN_DTL":"내수침수","INV_YR":"2024","F_YR":"2024","F_SHIM":0.1,"GU_NAM":"성북구"},"geometry":{"type":"Polygon","coordinates":[[[127.05067922748688,37.613524818162254],[127.0505862340507,37.6134974309923],[127.05055000671555,37.613573515893385],[127.0505107111223,37.613651395008766],[127.05056850009112,37.61370834905719],[127.05069664976259,37.61376992284229],[127.05075033422001,37.61366510733707],[127.05075749249357,37.613648237982595],[127.05065517578794,37.613618196862355],[127.05069855345143,37.61353050431198],[127.05067922748688,37.613524818162254]]]}},{"type":"Feature","properties":{"PNU":1129011100100110200,"COL_ADM_SE":11290,"F_AREA":143.3129041,"ADM_CD":1129011100,"F_ZONE_NM":"성북구 삼선동1가 11-168","TYPE":"주택","F_DISA_NM":"7. 22.~7. 23. 호우","F_AVR_HGT":64.75959167,"F_SAT_YMD":"20240722","F_END_YMD":"20240723","F_SAT_TM":"16","F_END_TM":"14","F_RSN_DTL":"내수침수","INV_YR":"2024","F_YR":"2024","F_SHIM":0.1,"GU_NAM":"성북구"},"geometry":{"type":"Polygon","coordinates":[[[127.0067864349824,37.58621714924404],[127.00684532097202,37.586228201694055],[127.00697270543357,37.58625212605294],[127.00699336212995,37.5861731807469],[127.0068735976133,37.586151841893056],[127.00682187860633,37.58614320377648],[127.0067864349824,37.58621714924404]]]}},{"type":"Feature","properties":{"PNU":1129011100100110200,"COL_ADM_SE":11290,"F_AREA":165.63389383,"ADM_CD":1129011100,"F_ZONE_NM":"성북구 삼선동1가 11-187","TYPE":"주택","F_DISA_NM":"7. 22.~7. 23. 호우","F_AVR_HGT":64.75959167,"F_SAT_YMD":"20240722","F_END_YMD":"20240723","F_SAT_TM":"16","F_END_TM":"14","F_RSN_DTL":"내수침수","INV_YR":"2024","F_YR":"2024","F_SHIM":0.1,"GU_NAM":"성북구"},"geometry":{"type":"Polygon","coordinates":[[[127.0069811644208,37.58580810197153],[127.00710181139121,37.585827701773624],[127.00714372561812,37.58568747038918],[127.00702491366158,37.5856768894096],[127.0069811644208,37.58580810197153]]]}},{"type":"Feature","properties":{"PNU":1129013300101510000,"COL_ADM_SE":11290,"F_AREA":104.85380329,"ADM_CD":1129013300,"F_ZONE_NM":"성북구 정릉동 151-4","TYPE":"주택","F_DISA_NM":"7. 8.~7. 19. 호우","F_AVR_HGT":43.50651703,"F_SAT_YMD":"20240715","F_END_YMD":"20240719","F_SAT_TM":"20","F_END_TM":"14","F_RSN_DTL":"내수침수","INV_YR":"2024","F_YR":"2024","F_SHIM":0.1,"GU_NAM":"성북구"},"geometry":{"type":"Polygon","coordinates":[[[127.0127162045036,37.60354867987872],[127.0128077325026,37.60349477436728],[127.01273794400761,37.60344938049529],[127.01274585825803,37.60343884725328],[127.01272120264827,37.60342448792906],[127.0127106831246,37.603430786797084],[127.0126490384651,37.60347081428403],[127.01262659566785,37.60348688993204],[127.01269295170687,37.60352497722375],[127.0127162045036,37.60354867987872]]]}},{"type":"Feature","properties":{"PNU":1129013300108330000,"COL_ADM_SE":11290,"F_AREA":299.27639887,"ADM_CD":1129013300,"F_ZONE_NM":"성북구 정릉동 833-20","TYPE":"주택","F_DISA_NM":"7. 8.~7. 19. 호우","F_AVR_HGT":114.72648773,"F_SAT_YMD":"20240715","F_END_YMD":"20240719","F_SAT_TM":"20","F_END_TM":"14","F_RSN_DTL":"내수침수","INV_YR":"2024","F_YR":"2024","F_SHIM":0.1,"GU_NAM":"성북구"},"geometry":{"type":"Polygon","coordinates":[[[126.99846926836769,37.61609883085374],[126.99851255882743,37.6160777670314],[126.99858563098608,37.61594070264384],[126.99850512373966,37.61591989696473],[126.99846797419279,37.61589418201388],[126.99832394885021,37.61586770738094],[126.9983164847849,37.61586704946246],[126.99824048204302,37.615927151812954],[126.99826872857443,37.61596200253692],[126.99832154478624,37.61593467722875],[126.99835634906039,37.61597634853486],[126.99833881388176,37.61602083850133],[126.99846926836769,37.61609883085374]],[[126.99839960744634,37.61590874908756],[126.99853228069342,37.616013815907145],[126.99844326486667,37.61605078086673],[126.9983553425265,37.61594056154547],[126.99839960744634,37.61590874908756]]]}},{"type":"Feature","properties":{"PNU":1129013300101780100,"COL_ADM_SE":11290,"F_AREA":168.94705241,"ADM_CD":1129013300,"F_ZONE_NM":"성북구 정릉동 178-66","TYPE":"주택","F_DISA_NM":"7. 8.~7. 19. 호우","F_AVR_HGT":48.99485931,"F_SAT_YMD":"20240715","F_END_YMD":"20240719","F_SAT_TM":"20","F_END_TM":"14","F_RSN_DTL":"내수침수","INV_YR":"2024","F_YR":"2024","F_SHIM":0.1,"GU_NAM":"성북구"},"geometry":{"type":"Polygon","coordinates":[[[127.01671368078803,37.60364964760578],[127.01674683612625,37.60369089032628],[127.01688518616714,37.603626316977724],[127.01681185259068,37.603535840796326],[127.01667421594053,37.60359963011323],[127.01671368078803,37.60364964760578]]]}},{"type":"Feature","properties":{"PNU":1129013300100240000,"COL_ADM_SE":11290,"F_AREA":213.95624122,"ADM_CD":1129013300,"F_ZONE_NM":"성북구 정릉동 24-7","TYPE":"주택","F_DISA_NM":"7. 8.~7. 19. 호우","F_AVR_HGT":47.84856949,"F_SAT_YMD":"20240715","F_END_YMD":"20240719","F_SAT_TM":"20","F_END_TM":"14","F_RSN_DTL":"내수침수","INV_YR":"2024","F_YR":"2024","F_SHIM":0.1,"GU_NAM":"성북구"},"geometry":{"type":"Polygon","coordinates":[[[127.02120008009486,37.60081641128265],[127.02120682365229,37.600967018516045],[127.02135734965923,37.60094549585326],[127.02134664482512,37.600804169420925],[127.02120008009486,37.60081641128265]]]}},{"type":"Feature","properties":{"PNU":1129013300109510000,"COL_ADM_SE":11290,"F_AREA":220.707115,"ADM_CD":1129013300,"F_ZONE_NM":"성북구 정릉동 951-2","TYPE":"주택","F_DISA_NM":"7. 8.~7. 19. 호우","F_AVR_HGT":110.74494324,"F_SAT_YMD":"20240715","F_END_YMD":"20240719","F_SAT_TM":"20","F_END_TM":"14","F_RSN_DTL":"내수침수","INV_YR":"2024","F_YR":"2024","F_SHIM":0.1,"GU_NAM":"성북구"},"geometry":{"type":"Polygon","coordinates":[[[126.99346804650801,37.60887977898182],[126.9935272156131,37.60882782337084],[126.99344673289616,37.60876882158987],[126.9933827539444,37.60868536823985],[126.99326228596435,37.60869182892354],[126.99331844953693,37.60878239054408],[126.99346804650801,37.60887977898182]]]}},{"type":"Feature","properties":{"PNU":1129013800102380000,"COL_ADM_SE":11290,"F_AREA":263.01041192,"ADM_CD":1129013800,"F_ZONE_NM":"성북구 장위동 238-73","TYPE":"주택","F_DISA_NM":"7. 22.~7. 23. 호우","F_AVR_HGT":21.83527145,"F_SAT_YMD":"20240722","F_END_YMD":"20240723","F_SAT_TM":"16","F_END_TM":"14","F_RSN_DTL":"내수침수","INV_YR":"2024","F_YR":"2024","F_SHIM":0.1,"GU_NAM":"성북구"},"geometry":{"type":"Polygon","coordinates":[[[127.05126526250234,37.61490688486668],[127.05136764411873,37.614980253600066],[127.05138321626977,37.6149780756575],[127.05138873941495,37.61497198269219],[127.05153195712612,37.61484939767972],[127.0514283493815,37.61477166885757],[127.05138826517181,37.614804553590105],[127.05126526250234,37.61490688486668]]]}},{"type":"Feature","properties":{"PNU":1129013600100600000,"COL_ADM_SE":11290,"F_AREA":84.33195906,"ADM_CD":1129013600,"F_ZONE_NM":"성북구 하월곡동 60-69","TYPE":"주택","F_DISA_NM":"7. 8.~7. 19. 호우","F_AVR_HGT":30.49973259,"F_SAT_YMD":"20240715","F_END_YMD":"20240719","F_SAT_TM":"20","F_END_TM":"14","F_RSN_DTL":"내수침수","INV_YR":"2024","F_YR":"2024","F_SHIM":0.1,"GU_NAM":"성북구"},"geometry":{"type":"Polygon","coordinates":[[[127.0378399607392,37.60536822067268],[127.0378987769626,37.60533511848044],[127.0379123848362,37.605325816145694],[127.0378422925435,37.6052494884774],[127.03776897249773,37.605289163260004],[127.0378399607392,37.60536822067268]]]}},{"type":"Feature","properties":{"PNU":1129013800100760300,"COL_ADM_SE":11290,"F_AREA":171.90778157,"ADM_CD":1129013800,"F_ZONE_NM":"성북구 장위동 76-264","TYPE":"주택","F_DISA_NM":"7. 22.~7. 23. 호우","F_AVR_HGT":20.85562668,"F_SAT_YMD":"20240722","F_END_YMD":"20240723","F_SAT_TM":"16","F_END_TM":"14","F_RSN_DTL":"내수침수","INV_YR":"2024","F_YR":"2024","F_SHIM":0.1,"GU_NAM":"성북구"},"geometry":{"type":"Polygon","coordinates":[[[127.05244491544165,37.615856024654605],[127.05253704501644,37.615774166791],[127.05246626291975,37.615719147436224],[127.0524219557354,37.61568822687111],[127.05232904548477,37.61577135536522],[127.05244491544165,37.615856024654605]]]}},{"type":"Feature","properties":{"PNU":1129013800100750300,"COL_ADM_SE":11290,"F_AREA":66.15114854,"ADM_CD":1129013800,"F_ZONE_NM":"성북구 장위동 75-330","TYPE":"주택","F_DISA_NM":"7. 8.~7. 19. 호우","F_AVR_HGT":21.83527145,"F_SAT_YMD":"20240715","F_END_YMD":"20240719","F_SAT_TM":"20","F_END_TM":"14","F_RSN_DTL":"내수침수","INV_YR":"2024","F_YR":"2024","F_SHIM":0.1,"GU_NAM":"성북구"},"geometry":{"type":"Polygon","coordinates":[[[127.05137071287827,37.61530165023859],[127.05142597965765,37.61534411714233],[127.05159867648128,37.61523262868222],[127.05158491769248,37.615236598835985],[127.05145494096757,37.61527625201628],[127.05137071287827,37.61530165023859]]]}},{"type":"Feature","properties":{"PNU":1129013900101320100,"COL_ADM_SE":11290,"F_AREA":117.41560169,"ADM_CD":1129013900,"F_ZONE_NM":"성북구 석관동 132-29","TYPE":"주택","F_DISA_NM":"7. 22.~7. 23. 호우","F_AVR_HGT":17.54902039,"F_SAT_YMD":"20240722","F_END_YMD":"20240723","F_SAT_TM":"16","F_END_TM":"14","F_RSN_DTL":"내수침수","INV_YR":"2024","F_YR":"2024","F_SHIM":0.1,"GU_NAM":"성북구"},"geometry":{"type":"Polygon","coordinates":[[[127.06567872738059,37.612929546659075],[127.06568432214155,37.6129160649377],[127.0657132537182,37.61284295259402],[127.0655854820331,37.612812082325725],[127.06555286881047,37.61289770225615],[127.06567872738059,37.612929546659075]]]}},{"type":"Feature","properties":{"PNU":1129013800100540000,"COL_ADM_SE":11290,"F_AREA":120.90088693,"ADM_CD":1129013800,"F_ZONE_NM":"성북구 장위동 54-4","TYPE":"주택","F_DISA_NM":"7. 8.~7. 19. 호우","F_AVR_HGT":18.68757019,"F_SAT_YMD":"20240715","F_END_YMD":"20240719","F_SAT_TM":"20","F_END_TM":"14","F_RSN_DTL":"내수침수","INV_YR":"2024","F_YR":"2024","F_SHIM":0.1,"GU_NAM":"성북구"},"geometry":{"type":"Polygon","coordinates":[[[127.05867066936075,37.612924553026794],[127.05868062336745,37.612922593076725],[127.05869390437198,37.61293173160364],[127.05876266813337,37.6128629804276],[127.05865767146724,37.61279692630879],[127.05858529637005,37.61286786855525],[127.05867066936075,37.612924553026794]]]}},{"type":"Feature","properties":{"PNU":1129013800100890000,"COL_ADM_SE":11290,"F_AREA":227.13776623,"ADM_CD":1129013800,"F_ZONE_NM":"성북구 장위동 89-19","TYPE":"주택","F_DISA_NM":"7. 8.~7. 19. 호우","F_AVR_HGT":19.88700638,"F_SAT_YMD":"20240715","F_END_YMD":"20240719","F_SAT_TM":"20","F_END_TM":"14","F_RSN_DTL":"내수침수","INV_YR":"2024","F_YR":"2024","F_SHIM":0.1,"GU_NAM":"성북구"},"geometry":{"type":"Polygon","coordinates":[[[127.05436312520615,37.61572065588745],[127.05437048631995,37.61570320059153],[127.05440138304505,37.61571692670964],[127.05442933312757,37.615712129973765],[127.05445757455045,37.61565496809162],[127.05447014407218,37.615635131863314],[127.05438005508154,37.615588339262075],[127.05431485036968,37.61554181476628],[127.05429626372633,37.615557680343564],[127.05423048256874,37.61560902060454],[127.05423839549746,37.6156191260757],[127.05427602461,37.615655382751314],[127.05428798044866,37.61566462147009],[127.05430661907819,37.615674190561684],[127.05429999172696,37.61568819476876],[127.05436312520615,37.61572065588745]]]}},{"type":"Feature","properties":{"PNU":1174010500100480000,"COL_ADM_SE":11740,"F_AREA":527.21970216,"ADM_CD":1174010500,"F_ZONE_NM":"강동구 명일로 275","TYPE":null,"F_DISA_NM":"2024 풍수해보험금","F_AVR_HGT":26.53545494,"F_SAT_YMD":"20240722","F_END_YMD":null,"F_SAT_TM":null,"F_END_TM":null,"F_RSN_DTL":"전파","INV_YR":"2024","F_YR":"2024","F_SHIM":0.2,"GU_NAM":"강동구"},"geometry":{"type":"Polygon","coordinates":[[[127.1473910886148,37.54343162963085],[127.14747494707676,37.543437382459715],[127.14755639979525,37.54342800154923],[127.14767695554633,37.54339388502951],[127.14772180720684,37.543375151958934],[127.14773427792095,37.543369937798865],[127.147692508373,37.54323439030568],[127.1473508683707,37.54330112565571],[127.14736356519722,37.54334227627189],[127.1473910886148,37.54343162963085]]]}},{"type":"Feature","properties":{"PNU":1129011100100110000,"COL_ADM_SE":11290,"F_AREA":1299.21356286,"ADM_CD":1129011100,"F_ZONE_NM":"성북구 삼선동1가 11-2","TYPE":"주택","F_DISA_NM":"7. 22.~7. 23. 호우","F_AVR_HGT":54.57564316,"F_SAT_YMD":"20240722","F_END_YMD":"20240723","F_SAT_TM":"16","F_END_TM":"14","F_RSN_DTL":"내수침수","INV_YR":"2024","F_YR":"2024","F_SHIM":0.1,"GU_NAM":"성북구"},"geometry":{"type":"Polygon","coordinates":[[[127.0057130332856,37.58771902678252],[127.00577607457032,37.587713384358274],[127.00585972419027,37.58774349224003],[127.00588822074964,37.58772219189699],[127.00589853215153,37.587670015457526],[127.00598788680082,37.58767800384835],[127.00613798667939,37.58771873161535],[127.00615588501915,37.58768739464581],[127.00617635395366,37.58766390515381],[127.00622724499468,37.58763398141385],[127.00631494436843,37.58760707446295],[127.00636437520218,37.587583917122494],[127.00638114242756,37.587571383727656],[127.00639612017953,37.58755002975827],[127.00640530092663,37.58752742365744],[127.00620047152074,37.58750631286216],[127.00618638813815,37.58752719825917],[127.00610577380228,37.58751098368331],[127.00598727495033,37.58748094937769],[127.00598768233773,37.587477471558984],[127.00580108014847,37.58742843784419],[127.00580573868295,37.587518392048594],[127.00579518771194,37.587539781822315],[127.00577256718691,37.58755791046375],[127.00557059406643,37.587592542433],[127.00555839006924,37.58761540985786],[127.00556505992392,37.58763630347827],[127.0057130332856,37.58771902678252]]]}},{"type":"Feature","properties":{"PNU":1129011900102030000,"COL_ADM_SE":11290,"F_AREA":135.6076942,"ADM_CD":1129011900,"F_ZONE_NM":"성북구 동선동4가 203-1","TYPE":"주택","F_DISA_NM":"7. 8.~7. 19. 호우","F_AVR_HGT":40.23146973,"F_SAT_YMD":"20240715","F_END_YMD":"20240719","F_SAT_TM":"20","F_END_TM":"14","F_RSN_DTL":"내수침수","INV_YR":"2024","F_YR":"2024","F_SHIM":0.1,"GU_NAM":"성북구"},"geometry":{"type":"Polygon","coordinates":[[[127.01731112831466,37.59507042253477],[127.01741137021212,37.59500421377655],[127.01744891275247,37.594979377592985],[127.01737833462246,37.59492387746266],[127.01724281530996,37.595017120422526],[127.01731112831466,37.59507042253477]]]}},{"type":"Feature","properties":{"PNU":1129013600100600000,"COL_ADM_SE":11290,"F_AREA":96.68426984,"ADM_CD":1129013600,"F_ZONE_NM":"성북구 하월곡동 60-25","TYPE":"주택","F_DISA_NM":"7. 8.~7. 19. 호우","F_AVR_HGT":30.49973259,"F_SAT_YMD":"20240715","F_END_YMD":"20240719","F_SAT_TM":"20","F_END_TM":"14","F_RSN_DTL":"내수침수","INV_YR":"2024","F_YR":"2024","F_SHIM":0.1,"GU_NAM":"성북구"},"geometry":{"type":"Polygon","coordinates":[[[127.03775573785572,37.60541422369817],[127.0378399607392,37.60536822067268],[127.03776897249773,37.605289163260004],[127.03768671893944,37.60533261585146],[127.03768956375734,37.605337354147785],[127.03775573785572,37.60541422369817]]]}},{"type":"Feature","properties":{"PNU":1129012100100470000,"COL_ADM_SE":11290,"F_AREA":64.33579035,"ADM_CD":1129012100,"F_ZONE_NM":"성북구 안암동1가 47-4","TYPE":"주택","F_DISA_NM":"7. 22.~7. 23. 호우","F_AVR_HGT":29.5147625,"F_SAT_YMD":"20240722","F_END_YMD":"20240723","F_SAT_TM":"16","F_END_TM":"14","F_RSN_DTL":"내수침수","INV_YR":"2024","F_YR":"2024","F_SHIM":0.1,"GU_NAM":"성북구"},"geometry":{"type":"Polygon","coordinates":[[[127.02023038612663,37.589197486473],[127.02034853267483,37.589188800210586],[127.02034706718534,37.58916932114776],[127.02034549064018,37.58915844650973],[127.02035673247993,37.58915348929857],[127.02032459919126,37.589106598150224],[127.02025348406352,37.58915366790697],[127.02023038612663,37.589197486473]]]}},{"type":"Feature","properties":{"PNU":1129013300101410000,"COL_ADM_SE":11290,"F_AREA":149.15267154,"ADM_CD":1129013300,"F_ZONE_NM":"성북구 정릉동 141-9","TYPE":"주택","F_DISA_NM":"7. 8.~7. 19. 호우","F_AVR_HGT":44.74785385,"F_SAT_YMD":"20240715","F_END_YMD":"20240719","F_SAT_TM":"20","F_END_TM":"14","F_RSN_DTL":"내수침수","INV_YR":"2024","F_YR":"2024","F_SHIM":0.1,"GU_NAM":"성북구"},"geometry":{"type":"Polygon","coordinates":[[[127.01275084569605,37.60279181491714],[127.01281994588301,37.60285762512602],[127.01282290132927,37.60285612020154],[127.01291045406572,37.60280570178879],[127.0129575241962,37.60277006336101],[127.01296602510917,37.60274579906588],[127.01292514080693,37.602724819130465],[127.01287107655075,37.60271451709728],[127.01286796229712,37.60271422908219],[127.01286659527551,37.60273550142137],[127.01275084569605,37.60279181491714]]]}},{"type":"Feature","properties":{"PNU":1129013600100840100,"COL_ADM_SE":11290,"F_AREA":100.7242925,"ADM_CD":1129013600,"F_ZONE_NM":"성북구 하월곡동 84-31","TYPE":"주택","F_DISA_NM":"7. 8.~7. 19. 호우","F_AVR_HGT":28.0545002,"F_SAT_YMD":"20240715","F_END_YMD":"20240719","F_SAT_TM":"20","F_END_TM":"14","F_RSN_DTL":"내수침수","INV_YR":"2024","F_YR":"2024","F_SHIM":0.1,"GU_NAM":"성북구"},"geometry":{"type":"Polygon","coordinates":[[[127.03339176266896,37.60800244633767],[127.03340647514402,37.60797835010164],[127.03342856404146,37.60793647549221],[127.03330685433723,37.607888233711485],[127.03328193441044,37.60793086588543],[127.03326874184306,37.607960520757004],[127.03339176266896,37.60800244633767]]]}},{"type":"Feature","properties":{"PNU":1129013800100680100,"COL_ADM_SE":11290,"F_AREA":238.10029818,"ADM_CD":1129013800,"F_ZONE_NM":"성북구 장위동 68-99","TYPE":"상가","F_DISA_NM":"7. 22.~7. 23. 호우","F_AVR_HGT":23.35099945,"F_SAT_YMD":"20240722","F_END_YMD":"20240723","F_SAT_TM":"16","F_END_TM":"14","F_RSN_DTL":"내수침수","INV_YR":"2024","F_YR":"2024","F_SHIM":0.1,"GU_NAM":"성북구"},"geometry":{"type":"Polygon","coordinates":[[[127.05111794750864,37.61109493099107],[127.05116557381554,37.61108070248673],[127.0511866862395,37.6110146516519],[127.05107516894186,37.610990227868335],[127.05105055651171,37.61098753525529],[127.05092942316989,37.61096212428932],[127.05092226442606,37.610960712744976],[127.05089579834285,37.611049335362445],[127.05102548283361,37.61107495901148],[127.05111794750864,37.61109493099107]]]}},{"type":"Feature","properties":{"PNU":1129013800102380000,"COL_ADM_SE":11290,"F_AREA":209.59330509,"ADM_CD":1129013800,"F_ZONE_NM":"성북구 장위동 238-36","TYPE":"주택","F_DISA_NM":"7. 22.~7. 23. 호우","F_AVR_HGT":31.62308083,"F_SAT_YMD":"20240722","F_END_YMD":"20240723","F_SAT_TM":"16","F_END_TM":"14","F_RSN_DTL":"내수침수","INV_YR":"2024","F_YR":"2024","F_SHIM":0.1,"GU_NAM":"성북구"},"geometry":{"type":"Polygon","coordinates":[[[127.04961315214466,37.614332743763995],[127.04973288779512,37.614395925763795],[127.04974551436497,37.61439265905329],[127.04974936286425,37.6143889454385],[127.04985349568338,37.61430148064059],[127.04985162553292,37.61429941815974],[127.0497472037699,37.61422006642103],[127.04963654996031,37.61431201166134],[127.04961315214466,37.614332743763995]]]}},{"type":"Feature","properties":{"PNU":1129013800102300300,"COL_ADM_SE":11290,"F_AREA":200.74345898,"ADM_CD":1129013800,"F_ZONE_NM":"성북구 장위동 230-248","TYPE":"주택","F_DISA_NM":"7. 8.~7. 19. 호우","F_AVR_HGT":63.87607346,"F_SAT_YMD":"20240715","F_END_YMD":"20240719","F_SAT_TM":"20","F_END_TM":"14","F_RSN_DTL":"내수침수","INV_YR":"2024","F_YR":"2024","F_SHIM":0.1,"GU_NAM":"성북구"},"geometry":{"type":"Polygon","coordinates":[[[127.04066016228697,37.614743620400546],[127.04074534478707,37.61486915283986],[127.04083780579982,37.61483543439081],[127.04085904677041,37.61480055033558],[127.04079122321312,37.61468889632027],[127.04066016228697,37.614743620400546]]]}},{"type":"Feature","properties":{"PNU":1129013300200870300,"COL_ADM_SE":11290,"F_AREA":1275.87782726,"ADM_CD":1129013300,"F_ZONE_NM":"성북구 정릉동 산87-299","TYPE":"주택","F_DISA_NM":"7. 8.~7. 19. 호우","F_AVR_HGT":101.36759338,"F_SAT_YMD":"20240715","F_END_YMD":"20240719","F_SAT_TM":"20","F_END_TM":"14","F_RSN_DTL":"내수침수","INV_YR":"2024","F_YR":"2024","F_SHIM":0.1,"GU_NAM":"성북구"},"geometry":{"type":"Polygon","coordinates":[[[126.99312783363698,37.610188719821956],[126.99313067475788,37.61020285642858],[126.99315000263665,37.610245771564315],[126.99315915324934,37.610249565346315],[126.99330923249273,37.61031176164657],[126.99331009579677,37.610391489584906],[126.99329041595131,37.61045812482634],[126.99345277455888,37.61039783332587],[126.99347713600474,37.61039637539808],[126.99355326830471,37.610378955574205],[126.99361127812207,37.610376202471585],[126.99373907395224,37.6102847703244],[126.9939029543387,37.6102875290096],[126.99396368160738,37.61029066832998],[126.99401864534518,37.61028217557796],[126.99414968358688,37.610265299435135],[126.99421019568813,37.610268177330546],[126.99421748945069,37.61026703353519],[126.99426043804753,37.610245097277975],[126.9942768719913,37.610239079729254],[126.99434089832353,37.610207315022826],[126.99439781175225,37.61017991060442],[126.99450004914326,37.610160545620914],[126.99452451306999,37.61015215893278],[126.99420114534418,37.610165185539195],[126.99389732558001,37.61017617630487],[126.99370136065986,37.61016912681717],[126.99358820343438,37.61031211408848],[126.99312783363698,37.610188719821956]]]}},{"type":"Feature","properties":{"PNU":1130510100103250000,"COL_ADM_SE":11305,"F_AREA":153.56001345,"ADM_CD":1130510100,"F_ZONE_NM":"강북구 도봉로23나길 15(미아동)","TYPE":null,"F_DISA_NM":"2024 풍수해보험금","F_AVR_HGT":35.50966568,"F_SAT_YMD":"20240720","F_END_YMD":null,"F_SAT_TM":null,"F_END_TM":null,"F_RSN_DTL":"소파","INV_YR":"2024","F_YR":"2024","F_SHIM":0.2,"GU_NAM":"강북구"},"geometry":{"type":"Polygon","coordinates":[[[127.02535280391845,37.6191738714203],[127.02545362231855,37.619202051704086],[127.02558128761618,37.61923662339183],[127.02561309098218,37.61915841180328],[127.02544974455066,37.619118982095586],[127.02544737049516,37.61913330816573],[127.02542562910017,37.61915277374898],[127.02538111505086,37.619154764914576],[127.02535280391845,37.6191738714203]]]}},{"type":"Feature","properties":{"PNU":1130510100100840100,"COL_ADM_SE":11305,"F_AREA":135.37630562,"ADM_CD":1130510100,"F_ZONE_NM":"강북구 오패산로38길 14 .","TYPE":null,"F_DISA_NM":"2024 풍수해보험금","F_AVR_HGT":39.93763657,"F_SAT_YMD":"20240629","F_END_YMD":null,"F_SAT_TM":null,"F_END_TM":null,"F_RSN_DTL":"침수","INV_YR":"2024","F_YR":"2024","F_SHIM":0.2,"GU_NAM":"강북구"},"geometry":{"type":"Polygon","coordinates":[[[127.03437873623986,37.61522194820613],[127.03439087802717,37.61532487289482],[127.03452509001984,37.615314023664865],[127.03451212178719,37.615212360594306],[127.03437873623986,37.61522194820613]]]}},{"type":"Feature","properties":{"PNU":1130510300104920000,"COL_ADM_SE":11305,"F_AREA":271.62441132,"ADM_CD":1130510300,"F_ZONE_NM":"강북구 화계사길 33가동 B03호","TYPE":null,"F_DISA_NM":"2024 풍수해보험금","F_AVR_HGT":58.14414139,"F_SAT_YMD":"20240717","F_END_YMD":null,"F_SAT_TM":null,"F_END_TM":null,"F_RSN_DTL":"침수","INV_YR":"2024","F_YR":"2024","F_SHIM":0.2,"GU_NAM":"강북구"},"geometry":{"type":"Polygon","coordinates":[[[127.01169398049628,37.63344452294388],[127.01169740975058,37.63341921416947],[127.01160160954451,37.63340663572677],[127.01151573570519,37.63340961626013],[127.01138035120613,37.63339232886789],[127.01133752825129,37.63339890957947],[127.01133039800565,37.63345260847552],[127.01139395479481,37.63345827933754],[127.01139372965578,37.633469181193],[127.01168568464448,37.63350582621769],[127.01169398049628,37.63344452294388]]]}},{"type":"Feature","properties":{"PNU":1132010500103160000,"COL_ADM_SE":11320,"F_AREA":433.10252743,"ADM_CD":1132010500,"F_ZONE_NM":"도봉구 쌍문동 316-1","TYPE":"상가","F_DISA_NM":"7. 26.~7. 27. 호우","F_AVR_HGT":51.87505798,"F_SAT_YMD":"20240727","F_END_YMD":"20240727","F_SAT_TM":"1","F_END_TM":"13","F_RSN_DTL":"내수침수","INV_YR":"2024","F_YR":"2024","F_SHIM":0.3,"GU_NAM":"도봉구"},"geometry":{"type":"Polygon","coordinates":[[[127.0281993871297,37.649972926407266],[127.0282324707643,37.6499602151646],[127.02822271161713,37.64992111502917],[127.02819297975103,37.64980039101164],[127.02818866274731,37.649769578618425],[127.02818650176656,37.649747234909285],[127.02818536445794,37.649735612579676],[127.02818240292903,37.64969272680491],[127.02818126536428,37.64968038369459],[127.02817489507932,37.649611460490945],[127.02813274721181,37.6496265163],[127.02795906091951,37.64969953438233],[127.0280793377775,37.64983807743219],[127.02813035000037,37.64989482740655],[127.0281993871297,37.649972926407266]]]}},{"type":"Feature","properties":{"PNU":1129013800102380500,"COL_ADM_SE":11290,"F_AREA":196.27407982,"ADM_CD":1129013800,"F_ZONE_NM":"성북구 장위동 238-500","TYPE":"상가","F_DISA_NM":"7. 8.~7. 19. 호우","F_AVR_HGT":27.98888741,"F_SAT_YMD":"20240715","F_END_YMD":"20240719","F_SAT_TM":"20","F_END_TM":"14","F_RSN_DTL":"내수침수","INV_YR":"2024","F_YR":"2024","F_SHIM":0.1,"GU_NAM":"성북구"},"geometry":{"type":"Polygon","coordinates":[[[127.04823396783915,37.61594780160765],[127.04823907939483,37.61595315141058],[127.04838405362189,37.61589299850657],[127.0483776029902,37.61588357680799],[127.04837007218711,37.61586751530882],[127.04833641678199,37.615787764827026],[127.04815865017991,37.61586182376245],[127.04823396783915,37.61594780160765]]]}},{"type":"Feature","properties":{"PNU":1132010600106450000,"COL_ADM_SE":11320,"F_AREA":248.76675181,"ADM_CD":1132010600,"F_ZONE_NM":"도봉구 방학동 645-25","TYPE":"상가","F_DISA_NM":"7. 26.~7. 27. 호우","F_AVR_HGT":26.63672905,"F_SAT_YMD":"20240727","F_END_YMD":"20240727","F_SAT_TM":"1","F_END_TM":"13","F_RSN_DTL":"내수침수","INV_YR":"2024","F_YR":"2024","F_SHIM":0.3,"GU_NAM":"도봉구"},"geometry":{"type":"Polygon","coordinates":[[[127.04054310899005,37.66992372354998],[127.04056701499213,37.66990461502063],[127.04056625661322,37.66975514391839],[127.0404144864585,37.66975483366785],[127.0404151413896,37.6699238559102],[127.04054310899005,37.66992372354998]]]}},{"type":"Feature","properties":{"PNU":1174010300102840000,"COL_ADM_SE":11740,"F_AREA":194.1756649,"ADM_CD":1174010300,"F_ZONE_NM":"서울특별시 강동구 상일동 284-7 지하1층 2080 노래방","TYPE":null,"F_DISA_NM":"7.8.~19. 호우(재난지원금)","F_AVR_HGT":23.57044525,"F_SAT_YMD":"20240718","F_END_YMD":null,"F_SAT_TM":null,"F_END_TM":null,"F_RSN_DTL":"침수","INV_YR":"2024","F_YR":"2024","F_SHIM":0.2,"GU_NAM":"강동구"},"geometry":{"type":"Polygon","coordinates":[[[127.17285976476683,37.54904066119218],[127.17299208823157,37.54905653377509],[127.1730199763159,37.54891045176992],[127.17288749424371,37.548894390239866],[127.17285976476683,37.54904066119218]]]}},{"type":"Feature","properties":{"PNU":1174010200101750000,"COL_ADM_SE":11740,"F_AREA":185.74984396,"ADM_CD":1174010200,"F_ZONE_NM":"강동구 상일로25길 7-10","TYPE":null,"F_DISA_NM":"2024 풍수해보험금","F_AVR_HGT":23.2212841,"F_SAT_YMD":"20240718","F_END_YMD":null,"F_SAT_TM":null,"F_END_TM":null,"F_RSN_DTL":"침수","INV_YR":"2024","F_YR":"2024","F_SHIM":0.2,"GU_NAM":"강동구"},"geometry":{"type":"Polygon","coordinates":[[[127.16998235682046,37.56112764465385],[127.17000234934748,37.56103426471916],[127.16980556619774,37.560995892948846],[127.16979930587937,37.56102545429134],[127.16978619185515,37.56108746098343],[127.16998235682046,37.56112764465385]]]}},{"type":"Feature","properties":{"PNU":1174010200105270000,"COL_ADM_SE":11740,"F_AREA":225.67257591,"ADM_CD":1174010200,"F_ZONE_NM":"서울특별시 강동구 고덕동 527-5 지하1층(입큰노래연습장)","TYPE":null,"F_DISA_NM":"7.8.~19. 호우(재난지원금)","F_AVR_HGT":28.29278488,"F_SAT_YMD":"20240717","F_END_YMD":null,"F_SAT_TM":null,"F_END_TM":null,"F_RSN_DTL":"침수","INV_YR":"2024","F_YR":"2024","F_SHIM":0.2,"GU_NAM":"강동구"},"geometry":{"type":"Polygon","coordinates":[[[127.15574715719225,37.561569561352],[127.15591161978364,37.56156330979205],[127.15591153590896,37.56156105743049],[127.15590662689893,37.56143089804131],[127.15582727111361,37.561423316344964],[127.15578391031923,37.561417336381595],[127.15574243601134,37.56144802417053],[127.15574715719225,37.561569561352]]]}},{"type":"Feature","properties":{"PNU":1174010200101670000,"COL_ADM_SE":11740,"F_AREA":180.53678284,"ADM_CD":1174010200,"F_ZONE_NM":"강동구 고덕동 167-2","TYPE":"주택","F_DISA_NM":"7. 8.~7. 19. 호우","F_AVR_HGT":22.19813896,"F_SAT_YMD":"20240717","F_END_YMD":"20240717","F_SAT_TM":"1","F_END_TM":"24","F_RSN_DTL":"내수침수","INV_YR":"2024","F_YR":"2024","F_SHIM":0.01,"GU_NAM":"강동구"},"geometry":{"type":"Polygon","coordinates":[[[127.16917105067662,37.56179317921281],[127.16926621676843,37.561784304461256],[127.16930559283148,37.56177929307709],[127.16926090915693,37.5616381716972],[127.16925999724285,37.56163528983007],[127.16915011453753,37.5616427438898],[127.16917105067662,37.56179317921281]]]}},{"type":"Feature","properties":{"PNU":1130510300105550000,"COL_ADM_SE":11305,"F_AREA":122.51145217,"ADM_CD":1130510300,"F_ZONE_NM":"강북구 수유동555-10 , 지층","TYPE":null,"F_DISA_NM":"2024 풍수해보험금","F_AVR_HGT":47.99426956,"F_SAT_YMD":"20240717","F_END_YMD":null,"F_SAT_TM":null,"F_END_TM":null,"F_RSN_DTL":"침수","INV_YR":"2024","F_YR":"2024","F_SHIM":0.2,"GU_NAM":"강북구"},"geometry":{"type":"Polygon","coordinates":[[[127.01172747727772,37.64427106095735],[127.01186486667045,37.644304204930215],[127.0118959013077,37.64422145651708],[127.01175671036722,37.644187537896286],[127.01175091132617,37.64420411636832],[127.01173276664984,37.64425596013233],[127.01172747727772,37.64427106095735]]]}},{"type":"Feature","properties":{"PNU":1174010200101510000,"COL_ADM_SE":11740,"F_AREA":190.62004909,"ADM_CD":1174010200,"F_ZONE_NM":"강동구 고덕동 151-1","TYPE":"주택","F_DISA_NM":"7. 8.~7. 19. 호우","F_AVR_HGT":28.57059074,"F_SAT_YMD":"20240717","F_END_YMD":"20240717","F_SAT_TM":"1","F_END_TM":"24","F_RSN_DTL":"내수침수","INV_YR":"2024","F_YR":"2024","F_SHIM":0.01,"GU_NAM":"강동구"},"geometry":{"type":"Polygon","coordinates":[[[127.16612216369883,37.56195090728605],[127.16609995627799,37.56184750478363],[127.16609371235126,37.56181832146486],[127.16595135576203,37.56184059401568],[127.16598032649257,37.56197271964338],[127.16612216369883,37.56195090728605]]]}},{"type":"Feature","properties":{"PNU":1141011800100110800,"COL_ADM_SE":11410,"F_AREA":112.54521035,"ADM_CD":1141011800,"F_ZONE_NM":"서대문구 홍은동 11-804","TYPE":"주택","F_DISA_NM":"7. 8.~7. 19. 호우","F_AVR_HGT":43.93809967,"F_SAT_YMD":"20240717","F_END_YMD":"20240717","F_SAT_TM":"15","F_END_TM":"24","F_RSN_DTL":"내수침수","INV_YR":"2024","F_YR":"2024","F_SHIM":0.3,"GU_NAM":"서대문"},"geometry":{"type":"Polygon","coordinates":[[[126.94703723305902,37.59913256790293],[126.94708413260227,37.59910678537722],[126.94714488053134,37.59908189217689],[126.94705801181561,37.599024522552405],[126.94695688050574,37.59908395877079],[126.94700388225056,37.59915090553571],[126.94703723305902,37.59913256790293]]]}},{"type":"Feature","properties":{"PNU":1174010200102590000,"COL_ADM_SE":11740,"F_AREA":176.79641694,"ADM_CD":1174010200,"F_ZONE_NM":"강동구 고덕동 259-4","TYPE":"주택","F_DISA_NM":"7. 8.~7. 19. 호우","F_AVR_HGT":31.42788292,"F_SAT_YMD":"20240717","F_END_YMD":"20240717","F_SAT_TM":"1","F_END_TM":"24","F_RSN_DTL":"내수침수","INV_YR":"2024","F_YR":"2024","F_SHIM":0.01,"GU_NAM":"강동구"},"geometry":{"type":"Polygon","coordinates":[[[127.16136648262788,37.561106457755116],[127.16139398184566,37.56110470864542],[127.16142136672634,37.5611024190911],[127.1614486372693,37.561099589092215],[127.1614711542274,37.56109676552669],[127.16143630880666,37.56093928389496],[127.16133799449295,37.56096314904711],[127.1613363776772,37.56110700306079],[127.16136648262788,37.561106457755116]]]}},{"type":"Feature","properties":{"PNU":1138010200100730000,"COL_ADM_SE":11380,"F_AREA":625.48654526,"ADM_CD":1138010200,"F_ZONE_NM":"은평구 은평로21길 19A동지하02호(녹번동)","TYPE":null,"F_DISA_NM":"2024 풍수해보험금","F_AVR_HGT":39.14671249,"F_SAT_YMD":"20240717","F_END_YMD":null,"F_SAT_TM":null,"F_END_TM":null,"F_RSN_DTL":"침수","INV_YR":"2024","F_YR":"2024","F_SHIM":0.2,"GU_NAM":"은평구"},"geometry":{"type":"Polygon","coordinates":[[[126.93214147584844,37.6017872114982],[126.93207045102342,37.60181059528424],[126.9319947060418,37.60167351118826],[126.93192167254296,37.601665089004406],[126.93197603397287,37.60202461322807],[126.93200862570448,37.60204850847308],[126.93223303425337,37.60196845294336],[126.93214147584844,37.6017872114982]]]}},{"type":"Feature","properties":{"PNU":1138010300102300000,"COL_ADM_SE":11380,"F_AREA":361.82406423,"ADM_CD":1138010300,"F_ZONE_NM":"은평구 불광동 230-13","TYPE":"주택","F_DISA_NM":"7. 8.~7. 19. 호우","F_AVR_HGT":39.79824219,"F_SAT_YMD":"20240718","F_END_YMD":"20240718","F_SAT_TM":"15","F_END_TM":"24","F_RSN_DTL":"내수침수","INV_YR":"2024","F_YR":"2024","F_SHIM":0.1,"GU_NAM":"은평구"},"geometry":{"type":"Polygon","coordinates":[[[126.93139934526258,37.61752593226043],[126.9313986718407,37.61751935470266],[126.93134025590038,37.61736741466483],[126.93132768539299,37.61736524483551],[126.93110720027738,37.61743854340018],[126.93118487372847,37.61758770199081],[126.93134646079173,37.61751427817738],[126.93139934526258,37.61752593226043]]]}},{"type":"Feature","properties":{"PNU":1138010300103310100,"COL_ADM_SE":11380,"F_AREA":140.13881985,"ADM_CD":1138010300,"F_ZONE_NM":"은평구 통일로78가길19-1지하우측(불광동)","TYPE":null,"F_DISA_NM":"2024 풍수해보험금","F_AVR_HGT":53.15615005,"F_SAT_YMD":"20240718","F_END_YMD":null,"F_SAT_TM":null,"F_END_TM":null,"F_RSN_DTL":"침수","INV_YR":"2024","F_YR":"2024","F_SHIM":0.2,"GU_NAM":"은평구"},"geometry":{"type":"Polygon","coordinates":[[[126.92680766712868,37.618288767812174],[126.92680958771831,37.618293724419985],[126.92694928319169,37.618257142874505],[126.92690702019173,37.61815800832106],[126.92677478853463,37.61820657758366],[126.92680766712868,37.618288767812174]]]}},{"type":"Feature","properties":{"PNU":1138010500102000000,"COL_ADM_SE":11380,"F_AREA":160.55388361,"ADM_CD":1138010500,"F_ZONE_NM":"은평구 갈현로 170-3 102호 예원피아노 (구산동, 에원빌라)","TYPE":null,"F_DISA_NM":"2024 풍수해보험금","F_AVR_HGT":27.4808342,"F_SAT_YMD":"20230713","F_END_YMD":null,"F_SAT_TM":null,"F_END_TM":null,"F_RSN_DTL":"해당없음(면적)","INV_YR":"2024","F_YR":"2024","F_SHIM":0.2,"GU_NAM":"은평구"},"geometry":{"type":"Polygon","coordinates":[[[126.91202709113118,37.613143255388415],[126.91215943329296,37.613097495733335],[126.91211524381232,37.61301808583362],[126.9120627096539,37.613002819444375],[126.91196639828163,37.61303680348592],[126.91202709113118,37.613143255388415]]]}},{"type":"Feature","properties":{"PNU":1138010500100150000,"COL_ADM_SE":11380,"F_AREA":175.18023045,"ADM_CD":1138010500,"F_ZONE_NM":"은평구 갈현로 133？숲빌딩(구산동)","TYPE":null,"F_DISA_NM":"2024 풍수해보험금","F_AVR_HGT":30.66522713,"F_SAT_YMD":"20230823","F_END_YMD":null,"F_SAT_TM":null,"F_END_TM":null,"F_RSN_DTL":"소파","INV_YR":"2024","F_YR":"2024","F_SHIM":0.2,"GU_NAM":"은평구"},"geometry":{"type":"Polygon","coordinates":[[[126.91099466687406,37.60992344201117],[126.91099118873592,37.60989640989692],[126.9109771647011,37.60978683978169],[126.91084838090889,37.6097977328872],[126.91085992649388,37.6098963091387],[126.91086441053643,37.60993433400427],[126.91099466687406,37.60992344201117]]]}},{"type":"Feature","properties":{"PNU":1138010700101040000,"COL_ADM_SE":11380,"F_AREA":187.21161448,"ADM_CD":1138010700,"F_ZONE_NM":"은평구 응암로32길 3B01호(응암동, 고은명가)","TYPE":null,"F_DISA_NM":"2024 풍수해보험금","F_AVR_HGT":24.74320145,"F_SAT_YMD":"20240725","F_END_YMD":null,"F_SAT_TM":null,"F_END_TM":null,"F_RSN_DTL":"침수","INV_YR":"2024","F_YR":"2024","F_SHIM":0.2,"GU_NAM":"은평구"},"geometry":{"type":"Polygon","coordinates":[[[126.9209522738955,37.59762720234367],[126.92086498471448,37.59750749212046],[126.92074478172697,37.59756255011392],[126.92083241136373,37.59768144977246],[126.9209522738955,37.59762720234367]]]}},{"type":"Feature","properties":{"PNU":1174010800101650000,"COL_ADM_SE":11740,"F_AREA":180.27970602,"ADM_CD":1174010800,"F_ZONE_NM":"강동구 성내동 165-7","TYPE":"주택","F_DISA_NM":"7. 8.~7. 19. 호우","F_AVR_HGT":20.39358688,"F_SAT_YMD":"20240717","F_END_YMD":"20240717","F_SAT_TM":"1","F_END_TM":"24","F_RSN_DTL":"내수침수","INV_YR":"2024","F_YR":"2024","F_SHIM":0.01,"GU_NAM":"강동구"},"geometry":{"type":"Polygon","coordinates":[[[127.1314410649895,37.53568982935168],[127.13146758920223,37.53567234794075],[127.13151831297607,37.535640910541225],[127.13151986630375,37.535558062551004],[127.13150707781683,37.53549743080682],[127.13136765833008,37.53553984974643],[127.13137868346467,37.53556235343229],[127.1314410649895,37.53568982935168]]]}},{"type":"Feature","properties":{"PNU":1138010400103270000,"COL_ADM_SE":11380,"F_AREA":88.31532925,"ADM_CD":1138010400,"F_ZONE_NM":"은평구 서오릉로22길 18단독주택","TYPE":null,"F_DISA_NM":"2024 풍수해보험금","F_AVR_HGT":44.99816055,"F_SAT_YMD":"20240716","F_END_YMD":null,"F_SAT_TM":null,"F_END_TM":null,"F_RSN_DTL":"침수","INV_YR":"2024","F_YR":"2024","F_SHIM":0.2,"GU_NAM":"은평구"},"geometry":{"type":"Polygon","coordinates":[[[126.9080526620998,37.61769237953513],[126.90807873802741,37.61758221028943],[126.9079243886944,37.61755595954638],[126.90791994849383,37.61757415582778],[126.90792833009249,37.61757425257325],[126.90798898511908,37.61761880908986],[126.9080526620998,37.61769237953513]]]}},{"type":"Feature","properties":{"PNU":1138011000101710000,"COL_ADM_SE":11380,"F_AREA":153.98790054,"ADM_CD":1138011000,"F_ZONE_NM":"은평구 증산로7길12(구산동)","TYPE":null,"F_DISA_NM":"2024 풍수해보험금","F_AVR_HGT":13.7498333,"F_SAT_YMD":"20240717","F_END_YMD":null,"F_SAT_TM":null,"F_END_TM":null,"F_RSN_DTL":"침수","INV_YR":"2024","F_YR":"2024","F_SHIM":0.2,"GU_NAM":"은평구"},"geometry":{"type":"Polygon","coordinates":[[[126.90811718128742,37.58411874400998],[126.90824397719562,37.58403261995198],[126.90818087671448,37.58397346542753],[126.90815291846205,37.5839686680952],[126.9080408536498,37.58404435229035],[126.90811718128742,37.58411874400998]]]}},{"type":"Feature","properties":{"PNU":1138010900100300000,"COL_ADM_SE":11380,"F_AREA":243.45049944,"ADM_CD":1138010900,"F_ZONE_NM":"은평구 가좌로 312-9지층좌측(신사동)","TYPE":null,"F_DISA_NM":"2024 풍수해보험금","F_AVR_HGT":25.55866737,"F_SAT_YMD":"20240717","F_END_YMD":null,"F_SAT_TM":null,"F_END_TM":null,"F_RSN_DTL":"침수","INV_YR":"2024","F_YR":"2024","F_SHIM":0.2,"GU_NAM":"은평구"},"geometry":{"type":"Polygon","coordinates":[[[126.9105757637464,37.59603978884614],[126.91074628313531,37.596048659645156],[126.91074835001544,37.596025055462285],[126.91075959529807,37.595902890721234],[126.91059134123928,37.595893751391394],[126.9105757637464,37.59603978884614]]]}},{"type":"Feature","properties":{"PNU":1141011800103250000,"COL_ADM_SE":11410,"F_AREA":172.9942992,"ADM_CD":1141011800,"F_ZONE_NM":"서대문구 홍은동 325-31101호(홍은동)","TYPE":null,"F_DISA_NM":"2024 풍수해보험금","F_AVR_HGT":62.69998474,"F_SAT_YMD":"20240912","F_END_YMD":null,"F_SAT_TM":null,"F_END_TM":null,"F_RSN_DTL":"침수","INV_YR":"2024","F_YR":"2024","F_SHIM":0.2,"GU_NAM":"서대문"},"geometry":{"type":"Polygon","coordinates":[[[126.92621069426399,37.584950714120254],[126.92622824454094,37.584937850232556],[126.92625925574184,37.58495929544203],[126.92632244429906,37.584900915811424],[126.9261782731435,37.584800454102506],[126.92609803494398,37.58486921112788],[126.92621069426399,37.584950714120254]]]}},{"type":"Feature","properties":{"PNU":1141011800102650500,"COL_ADM_SE":11410,"F_AREA":116.85013979,"ADM_CD":1141011800,"F_ZONE_NM":"서대문구 연희로39길 47-7나동 B1층 그린파크 (홍은동, B)","TYPE":null,"F_DISA_NM":"2024 풍수해보험금","F_AVR_HGT":70.3798172,"F_SAT_YMD":"20231127","F_END_YMD":null,"F_SAT_TM":null,"F_END_TM":null,"F_RSN_DTL":"전파","INV_YR":"2024","F_YR":"2024","F_SHIM":0.2,"GU_NAM":"서대문"},"geometry":{"type":"Polygon","coordinates":[[[126.93298464420222,37.58688574291857],[126.9331232729392,37.58687098409492],[126.93310425057993,37.586785920066475],[126.93296725126325,37.58680187812472],[126.93298464420222,37.58688574291857]]]}},{"type":"Feature","properties":{"PNU":1144012400103840000,"COL_ADM_SE":11440,"F_AREA":99.65985899,"ADM_CD":1144012400,"F_ZONE_NM":"마포구 연남동 384-11","TYPE":"상가","F_DISA_NM":"7. 22.~7. 23. 호우","F_AVR_HGT":14.89534435,"F_SAT_YMD":"20240723","F_END_YMD":"20240723","F_SAT_TM":"18","F_END_TM":"24","F_RSN_DTL":"내수침수","INV_YR":"2024","F_YR":"2024","F_SHIM":0.1,"GU_NAM":"마포구"},"geometry":{"type":"Polygon","coordinates":[[[126.92597584246998,37.56214932528431],[126.92612424166654,37.56213257164219],[126.92611321906772,37.56206381914326],[126.92596832756678,37.562081656203034],[126.92597584246998,37.56214932528431]]]}},{"type":"Feature","properties":{"PNU":1144012400102240000,"COL_ADM_SE":11440,"F_AREA":85.09589855,"ADM_CD":1144012400,"F_ZONE_NM":"마포구 연남동 224-18","TYPE":"상가","F_DISA_NM":"7. 22.~7. 23. 호우","F_AVR_HGT":18.14371262,"F_SAT_YMD":"20240723","F_END_YMD":"20240723","F_SAT_TM":"14","F_END_TM":"24","F_RSN_DTL":"내수침수","INV_YR":"2024","F_YR":"2024","F_SHIM":0.1,"GU_NAM":"마포구"},"geometry":{"type":"Polygon","coordinates":[[[126.92673188723923,37.5642021690328],[126.9266506863522,37.56413580480524],[126.92657921397324,37.56418801680677],[126.9266327038468,37.56423490215543],[126.92668793681091,37.56423655895335],[126.92673188723923,37.5642021690328]]]}},{"type":"Feature","properties":{"PNU":1174010700105130000,"COL_ADM_SE":11740,"F_AREA":138.03431636,"ADM_CD":1174010700,"F_ZONE_NM":"강동구 암사동 513-10","TYPE":"주택","F_DISA_NM":"7. 8.~7. 19. 호우","F_AVR_HGT":16.7187841,"F_SAT_YMD":"20240717","F_END_YMD":"20240717","F_SAT_TM":"1","F_END_TM":"24","F_RSN_DTL":"내수침수","INV_YR":"2024","F_YR":"2024","F_SHIM":0.01,"GU_NAM":"강동구"},"geometry":{"type":"Polygon","coordinates":[[[127.12623153545132,37.54862701973003],[127.12634135108283,37.54860177506921],[127.12631584782173,37.54852918216823],[127.12613678167807,37.54857072675027],[127.12616094942467,37.5486432940694],[127.12623153545132,37.54862701973003]]]}},{"type":"Feature","properties":{"PNU":1171011100102240000,"COL_ADM_SE":11710,"F_AREA":100.5168671,"ADM_CD":1171011100,"F_ZONE_NM":"송파구 오금로31가길 1？(방이동)(방이동)","TYPE":null,"F_DISA_NM":"2024 풍수해보험금","F_AVR_HGT":26.05436821,"F_SAT_YMD":"20230711","F_END_YMD":null,"F_SAT_TM":null,"F_END_TM":null,"F_RSN_DTL":"침수","INV_YR":"2024","F_YR":"2024","F_SHIM":0.2,"GU_NAM":"송파구"},"geometry":{"type":"Polygon","coordinates":[[[127.12187096954791,37.50674045829239],[127.12196914856264,37.50674621470863],[127.12197796261938,37.50667106255135],[127.12195313470183,37.50663414697871],[127.12186949665556,37.506668380013586],[127.12185226127488,37.506711194940664],[127.12187096954791,37.50674045829239]]]}},{"type":"Feature","properties":{"PNU":1147010300100530000,"COL_ADM_SE":11470,"F_AREA":1230.64845028,"ADM_CD":1147010300,"F_ZONE_NM":"양천구 남부순환로79길 53-1B02(신월동)","TYPE":null,"F_DISA_NM":"2024 풍수해보험금","F_AVR_HGT":18.57068367,"F_SAT_YMD":"20240912","F_END_YMD":null,"F_SAT_TM":null,"F_END_TM":null,"F_RSN_DTL":"침수","INV_YR":"2024","F_YR":"2024","F_SHIM":0.2,"GU_NAM":"양천구"},"geometry":{"type":"Polygon","coordinates":[[[126.82665011066901,37.53921291689576],[126.82691204707969,37.538824977063484],[126.8265856434667,37.5388138623295],[126.82637411773155,37.539127093905876],[126.82643005611553,37.539205292823176],[126.82665011066901,37.53921291689576]]]}},{"type":"Feature","properties":{"PNU":1129013600100290200,"COL_ADM_SE":11290,"F_AREA":83.01953304,"ADM_CD":1129013600,"F_ZONE_NM":"성북구 하월곡동 29-116","TYPE":"주택","F_DISA_NM":"7. 8.~7. 19. 호우","F_AVR_HGT":25.76730309,"F_SAT_YMD":"20240715","F_END_YMD":"20240719","F_SAT_TM":"20","F_END_TM":"14","F_RSN_DTL":"내수침수","INV_YR":"2024","F_YR":"2024","F_SHIM":0.1,"GU_NAM":"성북구"},"geometry":{"type":"Polygon","coordinates":[[[127.039355456573,37.60377979872169],[127.03948993396767,37.60375405049829],[127.0394693255859,37.60369171812845],[127.03933702568818,37.603723547264664],[127.039355456573,37.60377979872169]]]}},{"type":"Feature","properties":{"PNU":1174010800101740000,"COL_ADM_SE":11740,"F_AREA":123.61418098,"ADM_CD":1174010800,"F_ZONE_NM":"강동구 성내동 174-45","TYPE":"주택","F_DISA_NM":"7. 8.~7. 19. 호우","F_AVR_HGT":17.60833717,"F_SAT_YMD":"20240717","F_END_YMD":"20240717","F_SAT_TM":"1","F_END_TM":"24","F_RSN_DTL":"내수침수","INV_YR":"2024","F_YR":"2024","F_SHIM":0.01,"GU_NAM":"강동구"},"geometry":{"type":"Polygon","coordinates":[[[127.13159838357822,37.53408382567581],[127.13161005424384,37.53408072241514],[127.13158687290178,37.53402269697135],[127.13156673570381,37.53397807494575],[127.13146505572489,37.53402958851504],[127.13145271166194,37.53403582795773],[127.1314848433788,37.534114043840596],[127.13159838357822,37.53408382567581]]]}},{"type":"Feature","properties":{"PNU":1174010800101740000,"COL_ADM_SE":11740,"F_AREA":145.22129675,"ADM_CD":1174010800,"F_ZONE_NM":"강동구 성내동 174-42","TYPE":"주택","F_DISA_NM":"7. 8.~7. 19. 호우","F_AVR_HGT":17.60833717,"F_SAT_YMD":"20240717","F_END_YMD":"20240717","F_SAT_TM":"1","F_END_TM":"24","F_RSN_DTL":"내수침수","INV_YR":"2024","F_YR":"2024","F_SHIM":0.01,"GU_NAM":"강동구"},"geometry":{"type":"Polygon","coordinates":[[[127.1315524423901,37.534301754378426],[127.13153381827432,37.534255436816714],[127.13152254609011,37.53422740131558],[127.13153053001022,37.534225221133845],[127.13152346282689,37.53420801994853],[127.1313656679253,37.53426128004425],[127.13138131654969,37.534288139457274],[127.13141191853484,37.53434541796342],[127.1315524423901,37.534301754378426]]]}},{"type":"Feature","properties":{"PNU":1174010800101750000,"COL_ADM_SE":11740,"F_AREA":127.55928073,"ADM_CD":1174010800,"F_ZONE_NM":"강동구 성내동 175-11","TYPE":"주택","F_DISA_NM":"7. 8.~7. 19. 호우","F_AVR_HGT":18.05887772,"F_SAT_YMD":"20240717","F_END_YMD":"20240717","F_SAT_TM":"1","F_END_TM":"24","F_RSN_DTL":"내수침수","INV_YR":"2024","F_YR":"2024","F_SHIM":0.01,"GU_NAM":"강동구"},"geometry":{"type":"Polygon","coordinates":[[[127.13148825748225,37.534731859924236],[127.13158716837067,37.53469448596806],[127.13152341741103,37.53459901487812],[127.13145170525385,37.53461004986935],[127.13141556450189,37.53462756888674],[127.13148825748225,37.534731859924236]]]}},{"type":"Feature","properties":{"PNU":1174010800101750000,"COL_ADM_SE":11740,"F_AREA":114.609254,"ADM_CD":1174010800,"F_ZONE_NM":"강동구 성내동 175-29","TYPE":"주택","F_DISA_NM":"7. 8.~7. 19. 호우","F_AVR_HGT":18.05887772,"F_SAT_YMD":"20240717","F_END_YMD":"20240717","F_SAT_TM":"1","F_END_TM":"24","F_RSN_DTL":"내수침수","INV_YR":"2024","F_YR":"2024","F_SHIM":0.01,"GU_NAM":"강동구"},"geometry":{"type":"Polygon","coordinates":[[[127.13181136924399,37.534785923869144],[127.13181414870455,37.534790236558436],[127.13186868901337,37.53476784076181],[127.13192786473874,37.534743529716685],[127.13186767891291,37.53466202026633],[127.13175988074565,37.53470901785239],[127.13178892128313,37.53475296328417],[127.13178989363638,37.534752583794656],[127.13181136924399,37.534785923869144]]]}},{"type":"Feature","properties":{"PNU":1147010200104050400,"COL_ADM_SE":11470,"F_AREA":431.80494125,"ADM_CD":1147010200,"F_ZONE_NM":"양천구 오목로54길 14-9B02(목동, 신목빌라 3동)","TYPE":null,"F_DISA_NM":"2024 풍수해보험금","F_AVR_HGT":7.30583353,"F_SAT_YMD":"20240715","F_END_YMD":null,"F_SAT_TM":null,"F_END_TM":null,"F_RSN_DTL":"침수","INV_YR":"2024","F_YR":"2024","F_SHIM":0.2,"GU_NAM":"양천구"},"geometry":{"type":"Polygon","coordinates":[[[126.87272691619563,37.52330547142853],[126.87274992242381,37.523412624763075],[126.8729345852094,37.52338669709381],[126.87290986130363,37.52329152515194],[126.87287782805977,37.52317093719604],[126.87274134206784,37.52319206996202],[126.87264664368938,37.52320673397953],[126.87266316748828,37.523274587887315],[126.87271804448197,37.523267619983365],[126.87272691619563,37.52330547142853]]]}},{"type":"Feature","properties":{"PNU":1150010300110120100,"COL_ADM_SE":11500,"F_AREA":131.35343854,"ADM_CD":1150010300,"F_ZONE_NM":"강서구 강서로45다길 39 39 지하 01호 뒷공간 연습실 녹음실","TYPE":null,"F_DISA_NM":"2024 풍수해보험금","F_AVR_HGT":19.19148941,"F_SAT_YMD":"20240718","F_END_YMD":null,"F_SAT_TM":null,"F_END_TM":null,"F_RSN_DTL":"소파","INV_YR":"2024","F_YR":"2024","F_SHIM":0.2,"GU_NAM":"강서구"},"geometry":{"type":"Polygon","coordinates":[[[126.83494429866104,37.54622984283843],[126.83506379352553,37.54623001133322],[126.83506032334303,37.546111255876546],[126.83498337561352,37.546111327585564],[126.83494347268865,37.5461433465731],[126.83494429866104,37.54622984283843]]]}},{"type":"Feature","properties":{"PNU":1138010100100760000,"COL_ADM_SE":11380,"F_AREA":155.25349575,"ADM_CD":1138010100,"F_ZONE_NM":"은평구 수색동 76-31","TYPE":"상가","F_DISA_NM":"7. 8.~7. 19. 호우","F_AVR_HGT":13.85300636,"F_SAT_YMD":"20240717","F_END_YMD":"20240717","F_SAT_TM":"9","F_END_TM":"14","F_RSN_DTL":"내수침수","INV_YR":"2024","F_YR":"2024","F_SHIM":0.5,"GU_NAM":"은평구"},"geometry":{"type":"Polygon","coordinates":[[[126.89872187208886,37.5804845590846],[126.89876096029238,37.58046224866251],[126.89881805320448,37.58043680044109],[126.89889862023311,37.58038245995902],[126.89891062878715,37.58037642478103],[126.89891222065044,37.58037138064299],[126.89892837323181,37.58031544344998],[126.89889868949147,37.58033199579309],[126.89885586225284,37.58035664557338],[126.89887196663581,37.580335846800466],[126.89885839443542,37.58032637464562],[126.89886224864343,37.58032268395456],[126.8988527454456,37.58031799056315],[126.89871111813339,37.58040147881157],[126.89871993340198,37.58041247851728],[126.89874604380351,37.58044241398592],[126.8987098926268,37.58046941208808],[126.89872187208886,37.5804845590846]]]}},{"type":"Feature","properties":{"PNU":1153010600101620000,"COL_ADM_SE":11530,"F_AREA":122.45109333,"ADM_CD":1153010600,"F_ZONE_NM":"구로구 경인로35다길 32-5101호","TYPE":null,"F_DISA_NM":"2024 풍수해보험금","F_AVR_HGT":34.43625565,"F_SAT_YMD":"20240708","F_END_YMD":null,"F_SAT_TM":null,"F_END_TM":null,"F_RSN_DTL":"침수","INV_YR":"2024","F_YR":"2024","F_SHIM":0.2,"GU_NAM":"구로구"},"geometry":{"type":"Polygon","coordinates":[[[126.8538380999709,37.50285427342645],[126.85389366418258,37.50277874918085],[126.85377625763408,37.50272958814805],[126.8537647316148,37.502724798446415],[126.85371211144938,37.50279843422062],[126.8538380999709,37.50285427342645]]]}},{"type":"Feature","properties":{"PNU":1153010600100530000,"COL_ADM_SE":11530,"F_AREA":326.07955577,"ADM_CD":1153010600,"F_ZONE_NM":"구로구 경인로47길 49 (고척동)","TYPE":null,"F_DISA_NM":"2024 풍수해보험금","F_AVR_HGT":13.69282074,"F_SAT_YMD":"20220808","F_END_YMD":null,"F_SAT_TM":null,"F_END_TM":null,"F_RSN_DTL":"반파","INV_YR":"2024","F_YR":"2024","F_SHIM":0.2,"GU_NAM":"구로구"},"geometry":{"type":"Polygon","coordinates":[[[126.86540047846438,37.501242581107824],[126.86540386070523,37.50124835139103],[126.86541823543297,37.50124161046781],[126.86543020125276,37.501253607523694],[126.86544420564441,37.50126398513018],[126.86544498010957,37.501273446499866],[126.86557315791276,37.501185566571976],[126.8655856169402,37.50117503923276],[126.86554724029503,37.501134179866185],[126.86552770920494,37.50111568692905],[126.86551098233411,37.50110990128725],[126.86542607923676,37.50103231769462],[126.86534613368501,37.501089529040755],[126.86531232140483,37.50108858906513],[126.86536541863602,37.501181272852364],[126.86540047846438,37.501242581107824]]]}},{"type":"Feature","properties":{"PNU":1153010700101540000,"COL_ADM_SE":11530,"F_AREA":105.5279453,"ADM_CD":1153010700,"F_ZONE_NM":"구로구 경인로35길 22 102호 (개봉동,주식회사조은미래)","TYPE":null,"F_DISA_NM":"2024 풍수해보험금","F_AVR_HGT":13.93425674,"F_SAT_YMD":"20220808","F_END_YMD":null,"F_SAT_TM":null,"F_END_TM":null,"F_RSN_DTL":"침수","INV_YR":"2024","F_YR":"2024","F_SHIM":0.2,"GU_NAM":"구로구"},"geometry":{"type":"Polygon","coordinates":[[[126.85507056678702,37.49828955046732],[126.85506357148182,37.49828134271219],[126.85507399613006,37.49827072385544],[126.85498341968348,37.49821006446683],[126.85490797449094,37.498276554636085],[126.85497967724359,37.4983312440854],[126.85507056678702,37.49828955046732]]]}},{"type":"Feature","properties":{"PNU":1154510200109810000,"COL_ADM_SE":11545,"F_AREA":89.79307616,"ADM_CD":1154510200,"F_ZONE_NM":"금천구 시흥대로 148길 38-61층","TYPE":null,"F_DISA_NM":"2024 풍수해보험금","F_AVR_HGT":24.70982857,"F_SAT_YMD":"20240718","F_END_YMD":null,"F_SAT_TM":null,"F_END_TM":null,"F_RSN_DTL":"침수","INV_YR":"2024","F_YR":"2024","F_SHIM":0.2,"GU_NAM":"금천구"},"geometry":{"type":"Polygon","coordinates":[[[126.9008248740219,37.47483706248994],[126.9008238881291,37.47482196085236],[126.90081937972894,37.474752814098295],[126.90071431320975,37.474759211736156],[126.90072120159034,37.47484913763569],[126.9008248740219,37.47483706248994]]]}},{"type":"Feature","properties":{"PNU":1154510300110330000,"COL_ADM_SE":11545,"F_AREA":1249.39835472,"ADM_CD":1154510300,"F_ZONE_NM":"금천구 시흥대로2길  57-18  (시흥동,더유웰아파트)","TYPE":null,"F_DISA_NM":"2024 풍수해보험금","F_AVR_HGT":37.85206909,"F_SAT_YMD":"20240718","F_END_YMD":null,"F_SAT_TM":null,"F_END_TM":null,"F_RSN_DTL":"해당없음(면적)","INV_YR":"2024","F_YR":"2024","F_SHIM":0.2,"GU_NAM":"금천구"},"geometry":{"type":"Polygon","coordinates":[[[126.90622060963334,37.4356176592733],[126.90614556435189,37.43560574148396],[126.90587587756106,37.43579080694666],[126.90568226591988,37.43592364797646],[126.9057241260326,37.43605051683458],[126.90572852681852,37.43606402651398],[126.90575338968988,37.436140280963464],[126.90605651470591,37.43590004703342],[126.90631378604625,37.43570415906458],[126.90622060963334,37.4356176592733]]]}},{"type":"Feature","properties":{"PNU":1156012200100380000,"COL_ADM_SE":11560,"F_AREA":60.20044808,"ADM_CD":1156012200,"F_ZONE_NM":"영등포구 경인로77길  54-1 현대 (문래동4가,CNC)","TYPE":null,"F_DISA_NM":"2024 풍수해보험금","F_AVR_HGT":8.99761219,"F_SAT_YMD":"20230729","F_END_YMD":null,"F_SAT_TM":null,"F_END_TM":null,"F_RSN_DTL":"해당없음(면적)","INV_YR":"2024","F_YR":"2024","F_SHIM":0.2,"GU_NAM":"영등포"},"geometry":{"type":"Polygon","coordinates":[[[126.88868815915707,37.51488654327346],[126.88870007920644,37.51490280862611],[126.88874855907791,37.51487996060975],[126.88868017822433,37.514785741228],[126.88867639781462,37.51478740445936],[126.88863144842303,37.51480933680456],[126.88865229799997,37.514837242553696],[126.88864797280958,37.51484013061817],[126.88865527778681,37.514848967358674],[126.8886635396158,37.51484583077611],[126.888671463219,37.51485698366632],[126.88866430812588,37.51486128359161],[126.88867391477748,37.51487396978272],[126.8886818607117,37.51487029229953],[126.88869182759989,37.51488412309819],[126.88868815915707,37.51488654327346]]]}},{"type":"Feature","properties":{"PNU":1159010200102140200,"COL_ADM_SE":11590,"F_AREA":162.45689777,"ADM_CD":1159010200,"F_ZONE_NM":"동작구 양녕로22가길  20 건물전체 (상도동)","TYPE":null,"F_DISA_NM":"2024 풍수해보험금","F_AVR_HGT":64.64766235,"F_SAT_YMD":"20240920","F_END_YMD":null,"F_SAT_TM":null,"F_END_TM":null,"F_RSN_DTL":"해당없음(면적)","INV_YR":"2024","F_YR":"2024","F_SHIM":0.2,"GU_NAM":"동작구"},"geometry":{"type":"Polygon","coordinates":[[[126.94376057108553,37.495261562249496],[126.94389926835919,37.49521380492433],[126.94388119954215,37.495182288163434],[126.94386817874472,37.49515953157669],[126.9438431565054,37.49511193758773],[126.94370687906843,37.49516002940172],[126.94376057108553,37.495261562249496]]]}},{"type":"Feature","properties":{"PNU":1159010800103790000,"COL_ADM_SE":11590,"F_AREA":142.07210584,"ADM_CD":1159010800,"F_ZONE_NM":"동작구 대방동길 57 1층 모코커피 (대방동)","TYPE":null,"F_DISA_NM":"2024 풍수해보험금","F_AVR_HGT":28.83345718,"F_SAT_YMD":"20240722","F_END_YMD":null,"F_SAT_TM":null,"F_END_TM":null,"F_RSN_DTL":"해당없음(면적)","INV_YR":"2024","F_YR":"2024","F_SHIM":0.2,"GU_NAM":"동작구"},"geometry":{"type":"Polygon","coordinates":[[[126.92521395960826,37.5030930890621],[126.92521513790079,37.503102117823666],[126.92521985826059,37.503186742609095],[126.9253246649058,37.503183872996416],[126.92538506943687,37.5031380331179],[126.92538308543533,37.50308713445918],[126.92521395960826,37.5030930890621]]]}},{"type":"Feature","properties":{"PNU":1159010800100370000,"COL_ADM_SE":11590,"F_AREA":479.40660984,"ADM_CD":1159010800,"F_ZONE_NM":"동작구 대방동 37-2번지 건물(동)명 이름없음 지상 6층","TYPE":null,"F_DISA_NM":"2024 풍수해보험금","F_AVR_HGT":16.36647339,"F_SAT_YMD":"20240702","F_END_YMD":null,"F_SAT_TM":null,"F_END_TM":null,"F_RSN_DTL":"반파","INV_YR":"2024","F_YR":"2024","F_SHIM":0.2,"GU_NAM":"동작구"},"geometry":{"type":"Polygon","coordinates":[[[126.93185397109819,37.51172721479716],[126.93176965651612,37.511647598019756],[126.93176627450698,37.51164774018231],[126.93160155655467,37.51163702906508],[126.9315953797962,37.51165039620135],[126.93158033348261,37.51166592948867],[126.93159308173189,37.511701048879665],[126.93159593433296,37.51173493705655],[126.93162645596713,37.51177752721562],[126.93166061465882,37.511813353031734],[126.93175064650225,37.511875115506086],[126.93179835764793,37.51189644323762],[126.93183357002916,37.51194264910733],[126.93185397109819,37.51172721479716]]]}},{"type":"Feature","properties":{"PNU":1159010900106070000,"COL_ADM_SE":11590,"F_AREA":738.46246661,"ADM_CD":1159010900,"F_ZONE_NM":"동작구 신대방1동 607-28번지","TYPE":null,"F_DISA_NM":"2024 풍수해보험금","F_AVR_HGT":17.46510811,"F_SAT_YMD":"20240731","F_END_YMD":null,"F_SAT_TM":null,"F_END_TM":null,"F_RSN_DTL":"반파","INV_YR":"2024","F_YR":"2024","F_SHIM":0.2,"GU_NAM":"동작구"},"geometry":{"type":"Polygon","coordinates":[[[126.90719718953903,37.489439377259096],[126.90726004071158,37.4895161205384],[126.90730075211638,37.489548012369944],[126.90731065018913,37.48958069052313],[126.90744812375371,37.489743430555585],[126.90744976088443,37.489745369008986],[126.90754203274325,37.489696941605004],[126.90754010146333,37.48969512905891],[126.90751144854129,37.489668211415236],[126.90764220345287,37.489580089453284],[126.9076124520289,37.48955453147081],[126.90762410867633,37.48954643173433],[126.90762118478231,37.48954268125066],[126.90759209674762,37.48955625422134],[126.90758092906108,37.48956215590331],[126.90751802185639,37.489502766011185],[126.90742708825077,37.489412954028374],[126.90740126920085,37.48938954350366],[126.9073795289305,37.48936865001314],[126.90730273536515,37.48940939509594],[126.90728852132345,37.48939203050005],[126.90719718953903,37.489439377259096]]]}},{"type":"Feature","properties":{"PNU":1162010100108730000,"COL_ADM_SE":11620,"F_AREA":126.60055876,"ADM_CD":1162010100,"F_ZONE_NM":"관악구 봉천로 447지하1층","TYPE":null,"F_DISA_NM":"2024 풍수해보험금","F_AVR_HGT":31.45624084,"F_SAT_YMD":"20240718","F_END_YMD":null,"F_SAT_TM":null,"F_END_TM":null,"F_RSN_DTL":"침수","INV_YR":"2024","F_YR":"2024","F_SHIM":0.2,"GU_NAM":"관악구"},"geometry":{"type":"Polygon","coordinates":[[[126.94974212082893,37.482744376545966],[126.94973431141298,37.482657795907976],[126.94958198361599,37.482672145075675],[126.94959706400897,37.48275696295602],[126.94974212082893,37.482744376545966]]]}},{"type":"Feature","properties":{"PNU":1129013800100681000,"COL_ADM_SE":11290,"F_AREA":116.91813021,"ADM_CD":1129013800,"F_ZONE_NM":"성북구 장위동 68-976","TYPE":"주택","F_DISA_NM":"7. 22.~7. 23. 호우","F_AVR_HGT":27.85123596,"F_SAT_YMD":"20240722","F_END_YMD":"20240723","F_SAT_TM":"16","F_END_TM":"14","F_RSN_DTL":"내수침수","INV_YR":"2024","F_YR":"2024","F_SHIM":0.1,"GU_NAM":"성북구"},"geometry":{"type":"Polygon","coordinates":[[[127.04906288884831,37.60953962812152],[127.04908119748173,37.6094790567447],[127.0490637195867,37.60947471204434],[127.04906253261964,37.60947817229283],[127.04905275916128,37.60946097648576],[127.04905183594855,37.609451777832774],[127.04894350637014,37.6094308916026],[127.04891744674265,37.609502530128765],[127.04891642183465,37.60951152233927],[127.04904386004416,37.60953636522124],[127.04906288884831,37.60953962812152]]]}},{"type":"Feature","properties":{"PNU":1168010100108100000,"COL_ADM_SE":11680,"F_AREA":212.80001528,"ADM_CD":1168010100,"F_ZONE_NM":"강남구 봉은사로2길 13 (역삼동,화성빌딩) 지하1층","TYPE":null,"F_DISA_NM":"2024 풍수해보험금","F_AVR_HGT":28.05446739,"F_SAT_YMD":"20240718","F_END_YMD":null,"F_SAT_TM":null,"F_END_TM":null,"F_RSN_DTL":"침수","INV_YR":"2024","F_YR":"2024","F_SHIM":0.2,"GU_NAM":"강남구"},"geometry":{"type":"Polygon","coordinates":[[[127.02577919513618,37.50377651736067],[127.02594625105046,37.50382405563593],[127.0259993683787,37.50371051887065],[127.0258331037005,37.50366099831073],[127.02577919513618,37.50377651736067]]]}},{"type":"Feature","properties":{"PNU":1129011800100650000,"COL_ADM_SE":11290,"F_AREA":86.31204052,"ADM_CD":1129011800,"F_ZONE_NM":"성북구 동선동3가 65","TYPE":"주택","F_DISA_NM":"7. 8.~7. 19. 호우","F_AVR_HGT":53.03741226,"F_SAT_YMD":"20240715","F_END_YMD":"20240719","F_SAT_TM":"20","F_END_TM":"14","F_RSN_DTL":"내수침수","INV_YR":"2024","F_YR":"2024","F_SHIM":0.1,"GU_NAM":"성북구"},"geometry":{"type":"Polygon","coordinates":[[[127.02107699652728,37.595011943389125],[127.02110754619314,37.59501036160122],[127.02116701483118,37.59500664867281],[127.02115717252035,37.59491124509897],[127.02106301037712,37.5949178559309],[127.02107699652728,37.595011943389125]]]}},{"type":"Feature","properties":{"PNU":1171010500101560000,"COL_ADM_SE":11710,"F_AREA":248.07228855,"ADM_CD":1171010500,"F_ZONE_NM":"송파구 석촌호수로18길 7-12지하1호 (석촌동 , 시티빌리지)","TYPE":null,"F_DISA_NM":"2024 풍수해보험금","F_AVR_HGT":14.25352592,"F_SAT_YMD":"20240729","F_END_YMD":null,"F_SAT_TM":null,"F_END_TM":null,"F_RSN_DTL":"침수","INV_YR":"2024","F_YR":"2024","F_SHIM":0.2,"GU_NAM":"송파구"},"geometry":{"type":"Polygon","coordinates":[[[127.10165897563711,37.50644250350591],[127.10175530977477,37.50630486652352],[127.1017138924106,37.50628733220923],[127.10161365336143,37.50624485406604],[127.10151730776653,37.506382517974075],[127.10165897563711,37.50644250350591]]]}},{"type":"Feature","properties":{"PNU":1165010100105370000,"COL_ADM_SE":11650,"F_AREA":358.22134408,"ADM_CD":1165010100,"F_ZONE_NM":"서초구 방배3동 537-3번지 건물(동)명 이름없음 지하 1층","TYPE":null,"F_DISA_NM":"2024 풍수해보험금","F_AVR_HGT":42.8911087,"F_SAT_YMD":"20240718","F_END_YMD":null,"F_SAT_TM":null,"F_END_TM":null,"F_RSN_DTL":"반파","INV_YR":"2024","F_YR":"2024","F_SHIM":0.2,"GU_NAM":"서초구"},"geometry":{"type":"Polygon","coordinates":[[[126.98863197982062,37.478116200352005],[126.98885456763473,37.478228218973406],[126.9889429993745,37.47809668210773],[126.9889272851477,37.47809361702748],[126.98892608684662,37.47809308530858],[126.98879049808258,37.478032784732676],[126.98878144293815,37.478029197768706],[126.98871192974937,37.478001691672],[126.98863197982062,37.478116200352005]]]}},{"type":"Feature","properties":{"PNU":1129013800102380400,"COL_ADM_SE":11290,"F_AREA":129.23914379,"ADM_CD":1129013800,"F_ZONE_NM":"성북구 장위동 238-475","TYPE":"주택","F_DISA_NM":"7. 8.~7. 19. 호우","F_AVR_HGT":27.70871887,"F_SAT_YMD":"20240715","F_END_YMD":"20240719","F_SAT_TM":"20","F_END_TM":"14","F_RSN_DTL":"내수침수","INV_YR":"2024","F_YR":"2024","F_SHIM":0.1,"GU_NAM":"성북구"},"geometry":{"type":"Polygon","coordinates":[[[127.04931862398463,37.6151602523334],[127.04941646954579,37.61515678893612],[127.04942179244091,37.615138415773465],[127.04943882457758,37.61508142181145],[127.04945175664147,37.61504216982767],[127.04931583326774,37.61504711728063],[127.04931862398463,37.6151602523334]]]}},{"type":"Feature","properties":{"PNU":1165010200101060000,"COL_ADM_SE":11650,"F_AREA":208.54913879,"ADM_CD":1165010200,"F_ZONE_NM":"서초구 양재천로7길  27, 101호(양재동, 공원빌라)","TYPE":null,"F_DISA_NM":"2024 풍수해보험금","F_AVR_HGT":19.56574554,"F_SAT_YMD":"20240719","F_END_YMD":null,"F_SAT_TM":null,"F_END_TM":null,"F_RSN_DTL":"반파","INV_YR":"2024","F_YR":"2024","F_SHIM":0.2,"GU_NAM":"서초구"},"geometry":{"type":"Polygon","coordinates":[[[127.03517987883686,37.475164838692635],[127.035047248296,37.47506632474333],[127.03494689707634,37.47515203851968],[127.0350796406482,37.475250462447804],[127.03517987883686,37.475164838692635]]]}},{"type":"Feature","properties":{"PNU":1129013900102610000,"COL_ADM_SE":11290,"F_AREA":216.70212676,"ADM_CD":1129013900,"F_ZONE_NM":"성북구 석관동 261-98","TYPE":"주택","F_DISA_NM":"7. 8.~7. 19. 호우","F_AVR_HGT":19.39444695,"F_SAT_YMD":"20240715","F_END_YMD":"20240719","F_SAT_TM":"20","F_END_TM":"14","F_RSN_DTL":"내수침수","INV_YR":"2024","F_YR":"2024","F_SHIM":0.1,"GU_NAM":"성북구"},"geometry":{"type":"Polygon","coordinates":[[[127.0586494514748,37.60730687015824],[127.05868580060887,37.60727149801791],[127.05871588029379,37.6072126583191],[127.05873865340668,37.60716618363],[127.05874544242246,37.607158314764035],[127.05863841820049,37.60709607269897],[127.05859977008627,37.60714619501595],[127.05855012539469,37.60721131497734],[127.05860572683042,37.60723479472221],[127.05858213687253,37.60727952187464],[127.0586494514748,37.60730687015824]]]}},{"type":"Feature","properties":{"PNU":1174010100103520000,"COL_ADM_SE":11740,"F_AREA":180.61718789,"ADM_CD":1174010100,"F_ZONE_NM":"강동구 명일동 352-12","TYPE":"주택","F_DISA_NM":"7. 8.~7. 19. 호우","F_AVR_HGT":21.0587957,"F_SAT_YMD":"20240717","F_END_YMD":"20240717","F_SAT_TM":"1","F_END_TM":"24","F_RSN_DTL":"내수침수","INV_YR":"2024","F_YR":"2024","F_SHIM":0.01,"GU_NAM":"강동구"},"geometry":{"type":"Polygon","coordinates":[[[127.14372107435726,37.54553181156328],[127.14386201608797,37.54549833211934],[127.14382275570293,37.545393909519674],[127.14365893269658,37.54543278636752],[127.14369119903002,37.54551895435255],[127.14372107435726,37.54553181156328]]]}},{"type":"Feature","properties":{"PNU":1174010700102500000,"COL_ADM_SE":11740,"F_AREA":5294.64897662,"ADM_CD":1174010700,"F_ZONE_NM":"서울특별시 강동구 암사동 250","TYPE":null,"F_DISA_NM":"7.8.~19. 호우(재난지원금)","F_AVR_HGT":19.05437965,"F_SAT_YMD":"20240716","F_END_YMD":null,"F_SAT_TM":null,"F_END_TM":null,"F_RSN_DTL":"침수(저지대침수)","INV_YR":"2024","F_YR":"2024","F_SHIM":0.2,"GU_NAM":"강동구"},"geometry":{"type":"Polygon","coordinates":[[[127.13620923320863,37.557975994803165],[127.13610117220155,37.55795689991838],[127.1360515132821,37.55793955840615],[127.1359672936493,37.55787992775562],[127.13591643816012,37.557832755794394],[127.13587730538,37.55780947371754],[127.1358561679474,37.55779269431786],[127.13585361032271,37.55776755962703],[127.13582715929341,37.55774131686982],[127.13583455694109,37.55771383729196],[127.13586591962931,37.55770846775547],[127.13593596489254,37.55771519951691],[127.13597099513,37.557697599352856],[127.1359739775167,37.55766936796262],[127.13595044382093,37.55761018174208],[127.1359504394509,37.55760774907594],[127.13598745406603,37.55752931184984],[127.13598116396965,37.55751178576098],[127.13595916521338,37.557506909428476],[127.1358691459757,37.557538726711634],[127.13578400711053,37.55755305918423],[127.13558414750008,37.557551430236245],[127.13558405683071,37.55755135826004],[127.1355716237132,37.557541443473795],[127.13568464364994,37.55749253554742],[127.135713660136,37.55747265377918],[127.13576079279372,37.557432064694126],[127.13580432045221,37.557356611402774],[127.1354108067471,37.55725351658031],[127.13541920412116,37.55735459806261],[127.13544004310505,37.5574197519977],[127.13544417479693,37.55745813846668],[127.13544375769489,37.55758553882858],[127.13544023683414,37.55761022091888],[127.13543618304797,37.55764066994485],[127.13537879577524,37.55772522078223],[127.13532112602564,37.55776579462422],[127.13525177325002,37.55782357254576],[127.13522183164771,37.55787057502386],[127.13524523672632,37.55788339662599],[127.13527828337166,37.55788297176954],[127.13521547356413,37.55795427511507],[127.13513795602304,37.55809826886246],[127.13511519224423,37.55810870104599],[127.13515523866951,37.558123963536126],[127.13517482829614,37.558116949687125],[127.13520875119583,37.55813815660941],[127.13523428199291,37.55816881539269],[127.1352938861606,37.55819084914463],[127.13535738690452,37.5582653340411],[127.13540006920901,37.55824825695766],[127.13563977715845,37.55817243697681],[127.1357815493901,37.55812608213869],[127.13591715965468,37.55810215075585],[127.1360292328649,37.55808658018266],[127.13609440170721,37.55809393007706],[127.13625575995327,37.558120577521116],[127.13634831168135,37.55813723928374],[127.13634768005507,37.55810074994191],[127.13631436251701,37.55805764861778],[127.13628530414263,37.558035454382825],[127.13623909857795,37.55798126755857],[127.13620923320863,37.557975994803165]]]}},{"type":"Feature","properties":{"PNU":1129013600100470000,"COL_ADM_SE":11290,"F_AREA":176.30798511,"ADM_CD":1129013600,"F_ZONE_NM":"성북구 하월곡동 47-44","TYPE":"주택","F_DISA_NM":"7. 8.~7. 19. 호우","F_AVR_HGT":25.11547623,"F_SAT_YMD":"20240715","F_END_YMD":"20240719","F_SAT_TM":"20","F_END_TM":"14","F_RSN_DTL":"내수침수","INV_YR":"2024","F_YR":"2024","F_SHIM":0.1,"GU_NAM":"성북구"},"geometry":{"type":"Polygon","coordinates":[[[127.0392726264783,37.60292372938242],[127.03937214544727,37.6029681790336],[127.0394591623316,37.6028564922849],[127.03938864369306,37.60278656261833],[127.03936995559418,37.60278099152855],[127.0392726264783,37.60292372938242]]]}},{"type":"Feature","properties":{"PNU":1174010800100870000,"COL_ADM_SE":11740,"F_AREA":124.93523528,"ADM_CD":1174010800,"F_ZONE_NM":"강동구 성내동 87-8","TYPE":"주택","F_DISA_NM":"7. 8.~7. 19. 호우","F_AVR_HGT":16.46311356,"F_SAT_YMD":"20240717","F_END_YMD":"20240717","F_SAT_TM":"1","F_END_TM":"24","F_RSN_DTL":"내수침수","INV_YR":"2024","F_YR":"2024","F_SHIM":0.01,"GU_NAM":"강동구"},"geometry":{"type":"Polygon","coordinates":[[[127.12279387153667,37.5356023580352],[127.12285449687673,37.53559064592789],[127.12294137426787,37.535573834212435],[127.12292195109198,37.53551309122584],[127.12290310860573,37.53551741733931],[127.12289643003362,37.53549451195631],[127.12276508726035,37.53551796456429],[127.12279387153667,37.5356023580352]]]}},{"type":"Feature","properties":{"PNU":1174010700104490000,"COL_ADM_SE":11740,"F_AREA":345.71965759,"ADM_CD":1174010700,"F_ZONE_NM":"강동구 암사동 449-20","TYPE":"주택","F_DISA_NM":"7. 8.~7. 19. 호우","F_AVR_HGT":20.30203606,"F_SAT_YMD":"20240717","F_END_YMD":"20240717","F_SAT_TM":"1","F_END_TM":"24","F_RSN_DTL":"내수침수","INV_YR":"2024","F_YR":"2024","F_SHIM":0.01,"GU_NAM":"강동구"},"geometry":{"type":"Polygon","coordinates":[[[127.13703441086332,37.55685661656512],[127.13717207093269,37.55689111054781],[127.1371715485519,37.55671531009487],[127.13717124571804,37.556616922397254],[127.13703396704483,37.556617773789576],[127.13703441086332,37.55685661656512]]]}},{"type":"Feature","properties":{"PNU":1174010100103390000,"COL_ADM_SE":11740,"F_AREA":250.97200543,"ADM_CD":1174010100,"F_ZONE_NM":"서울특별시 강동구 명일동 339-21 지하 1층 (더오캄 카페)","TYPE":null,"F_DISA_NM":"7.8.~19. 호우(재난지원금)","F_AVR_HGT":23.25608559,"F_SAT_YMD":"20240717","F_END_YMD":null,"F_SAT_TM":null,"F_END_TM":null,"F_RSN_DTL":"침수","INV_YR":"2024","F_YR":"2024","F_SHIM":0.2,"GU_NAM":"강동구"},"geometry":{"type":"Polygon","coordinates":[[[127.14619979580586,37.5479139938394],[127.14643359492665,37.54788920021074],[127.14641905613675,37.547796893535136],[127.14622439945434,37.54778647350916],[127.14618553492495,37.54781895679292],[127.14619979580586,37.5479139938394]]]}},{"type":"Feature","properties":{"PNU":1174010600106030000,"COL_ADM_SE":11740,"F_AREA":21552.3526879,"ADM_CD":1174010600,"F_ZONE_NM":"서울특별시 강동구 둔촌동 603 프라자아파트 상가 프로베이스볼 아카데미","TYPE":null,"F_DISA_NM":"7.8.~19. 호우(재난지원금)","F_AVR_HGT":30.24622078,"F_SAT_YMD":"20240717","F_END_YMD":null,"F_SAT_TM":null,"F_END_TM":null,"F_RSN_DTL":"침수","INV_YR":"2024","F_YR":"2024","F_SHIM":0.2,"GU_NAM":"강동구"},"geometry":{"type":"Polygon","coordinates":[[[127.14844419620044,37.53627727731505],[127.14846444837194,37.53627702686996],[127.1486011476959,37.53617883773368],[127.14865132387155,37.536137077302044],[127.14873078703843,37.53602334510656],[127.14874865949638,37.535998221176435],[127.14879590187854,37.53594908521109],[127.14885177728577,37.535854086948156],[127.14891109790445,37.53571605295456],[127.14896455609875,37.53558878409844],[127.14906399234594,37.535465872646945],[127.14925759150205,37.5353978759805],[127.14927670084316,37.535374759634266],[127.14924460959803,37.53524071406229],[127.14917362806666,37.53510482502251],[127.14918955697846,37.535104102332234],[127.14917134923468,37.535085231281975],[127.1491594677481,37.53507292956665],[127.14907542032891,37.53498954862842],[127.14895469203556,37.53485410902098],[127.1488841063506,37.534792443080306],[127.1487938065882,37.53469369880325],[127.14874413644928,37.5346470172314],[127.14865323173414,37.53468936905563],[127.14855583890862,37.53477526485398],[127.1485262140736,37.53479026722176],[127.148463380609,37.53468330748601],[127.14844097691301,37.534688164679864],[127.14837037778936,37.534573186708016],[127.14826118279576,37.5346121732398],[127.14772333509042,37.53480409401539],[127.1476954509447,37.53482412155907],[127.14769550247566,37.53484472719791],[127.14772095326124,37.5348996202076],[127.14770325519005,37.53493297884405],[127.14756490018262,37.534947421740924],[127.14715474009917,37.53558743478027],[127.14716893601327,37.535608932976245],[127.14725081150114,37.53562929351434],[127.14729082039835,37.53569413362198],[127.14733687279094,37.53571331296133],[127.1473767963187,37.535763304787125],[127.14741175217353,37.535841945288354],[127.1477817704595,37.535996503376026],[127.14778392194748,37.53599741071388],[127.14804456933678,37.536107279000525],[127.14810065576847,37.53613111273178],[127.14844419620044,37.53627727731505]]]}},{"type":"Feature","properties":{"PNU":1174010500103200000,"COL_ADM_SE":11740,"F_AREA":155.58474626,"ADM_CD":1174010500,"F_ZONE_NM":"강동구 길동 320-13","TYPE":"주택","F_DISA_NM":"7. 8.~7. 19. 호우","F_AVR_HGT":20.64363075,"F_SAT_YMD":"20240717","F_END_YMD":"20240717","F_SAT_TM":"1","F_END_TM":"24","F_RSN_DTL":"내수침수","INV_YR":"2024","F_YR":"2024","F_SHIM":0.01,"GU_NAM":"강동구"},"geometry":{"type":"Polygon","coordinates":[[[127.14324489823038,37.544516336277056],[127.14321784176187,37.54444410924789],[127.1430161756389,37.544492004483985],[127.1430432432631,37.54456424055549],[127.14324489823038,37.544516336277056]]]}},{"type":"Feature","properties":{"PNU":1174010700104250000,"COL_ADM_SE":11740,"F_AREA":135.26191431,"ADM_CD":1174010700,"F_ZONE_NM":"강동구 암사동 425-193","TYPE":"주택","F_DISA_NM":"7. 8.~7. 19. 호우","F_AVR_HGT":32.86276794,"F_SAT_YMD":"20240717","F_END_YMD":"20240717","F_SAT_TM":"1","F_END_TM":"24","F_RSN_DTL":"내수침수","INV_YR":"2024","F_YR":"2024","F_SHIM":0.01,"GU_NAM":"강동구"},"geometry":{"type":"Polygon","coordinates":[[[127.13772197522522,37.55061045197513],[127.13782082731322,37.55056827968448],[127.13786530449698,37.55063224370198],[127.13797817841899,37.55057806290711],[127.13793080353886,37.55050134425539],[127.13781353124536,37.55055132245744],[127.1377136274972,37.550593910410605],[127.13772197522522,37.55061045197513]]]}},{"type":"Feature","properties":{"PNU":1174010500103670000,"COL_ADM_SE":11740,"F_AREA":503.29510513,"ADM_CD":1174010500,"F_ZONE_NM":"서울특별시 강동구 길동 367-6 지하 1층(영심노래방)","TYPE":null,"F_DISA_NM":"7.8.~19. 호우(재난지원금)","F_AVR_HGT":19.15767975,"F_SAT_YMD":"20240717","F_END_YMD":null,"F_SAT_TM":null,"F_END_TM":null,"F_RSN_DTL":"침수","INV_YR":"2024","F_YR":"2024","F_SHIM":0.2,"GU_NAM":"강동구"},"geometry":{"type":"Polygon","coordinates":[[[127.14000381666868,37.53902611442665],[127.14001457357523,37.53905485247045],[127.14028422156393,37.53899092589572],[127.1402757158962,37.538968131779214],[127.14028657335223,37.538965596243926],[127.14023187868007,37.53881942947645],[127.13995139662083,37.53888599052024],[127.14000381666868,37.53902611442665]]]}},{"type":"Feature","properties":{"PNU":1174010800102880000,"COL_ADM_SE":11740,"F_AREA":129.77776489,"ADM_CD":1174010800,"F_ZONE_NM":"강동구 성내동 288-22","TYPE":"주택","F_DISA_NM":"7. 8.~7. 19. 호우","F_AVR_HGT":16.67793823,"F_SAT_YMD":"20240717","F_END_YMD":"20240717","F_SAT_TM":"1","F_END_TM":"24","F_RSN_DTL":"내수침수","INV_YR":"2024","F_YR":"2024","F_SHIM":0.01,"GU_NAM":"강동구"},"geometry":{"type":"Polygon","coordinates":[[[127.12546234338996,37.53289348230626],[127.1254028316035,37.53280392295277],[127.12528976544483,37.53285433493905],[127.12535000347005,37.532945254087075],[127.12546234338996,37.53289348230626]]]}},{"type":"Feature","properties":{"PNU":1174010800103860000,"COL_ADM_SE":11740,"F_AREA":178.19892465,"ADM_CD":1174010800,"F_ZONE_NM":"강동구 성내동 386-33","TYPE":"주택","F_DISA_NM":"7. 8.~7. 19. 호우","F_AVR_HGT":17.3426931,"F_SAT_YMD":"20240717","F_END_YMD":"20240717","F_SAT_TM":"1","F_END_TM":"24","F_RSN_DTL":"내수침수","INV_YR":"2024","F_YR":"2024","F_SHIM":0.01,"GU_NAM":"강동구"},"geometry":{"type":"Polygon","coordinates":[[[127.13456848885299,37.53223527420323],[127.13459949646158,37.532246141285476],[127.13471866667972,37.53220948968882],[127.13466371856885,37.53209641392892],[127.13452226133165,37.5321399110901],[127.13456848885299,37.53223527420323]]]}},{"type":"Feature","properties":{"PNU":1174010900103860000,"COL_ADM_SE":11740,"F_AREA":126.7848764,"ADM_CD":1174010900,"F_ZONE_NM":"강동구 천호동 386-10","TYPE":"주택","F_DISA_NM":"7. 8.~7. 19. 호우","F_AVR_HGT":19.79689766,"F_SAT_YMD":"20240719","F_END_YMD":"20240719","F_SAT_TM":"1","F_END_TM":"24","F_RSN_DTL":"내수침수","INV_YR":"2024","F_YR":"2024","F_SHIM":0.01,"GU_NAM":"강동구"},"geometry":{"type":"Polygon","coordinates":[[[127.12974111868255,37.542811588661166],[127.12983987387106,37.542788875514184],[127.12981212122155,37.5426920580763],[127.12980576405175,37.54267343247519],[127.12969736625111,37.542694912692035],[127.12970689160694,37.542720103089],[127.12974111868255,37.542811588661166]]]}},{"type":"Feature","properties":{"PNU":1174010800101500000,"COL_ADM_SE":11740,"F_AREA":160.90780096,"ADM_CD":1174010800,"F_ZONE_NM":"강동구 성내동 150-20","TYPE":"주택","F_DISA_NM":"7. 8.~7. 19. 호우","F_AVR_HGT":20.67658401,"F_SAT_YMD":"20240717","F_END_YMD":"20240717","F_SAT_TM":"1","F_END_TM":"24","F_RSN_DTL":"내수침수","INV_YR":"2024","F_YR":"2024","F_SHIM":0.01,"GU_NAM":"강동구"},"geometry":{"type":"Polygon","coordinates":[[[127.1294050109203,37.535154204031016],[127.12949586158419,37.53511985888154],[127.12940909115906,37.534979488095196],[127.12937793882118,37.53497022357949],[127.12934805559932,37.534995231449265],[127.12933549759317,37.53505530522277],[127.1294050109203,37.535154204031016]]]}},{"type":"Feature","properties":{"PNU":1174010900103820000,"COL_ADM_SE":11740,"F_AREA":110.95049291,"ADM_CD":1174010900,"F_ZONE_NM":"강동구 천호동 382-9","TYPE":"주택","F_DISA_NM":"7. 8.~7. 19. 호우","F_AVR_HGT":18.35593964,"F_SAT_YMD":"20240717","F_END_YMD":"20240717","F_SAT_TM":"1","F_END_TM":"24","F_RSN_DTL":"내수침수","INV_YR":"2024","F_YR":"2024","F_SHIM":0.01,"GU_NAM":"강동구"},"geometry":{"type":"Polygon","coordinates":[[[127.1289647996184,37.54269360623875],[127.1289578947039,37.54265220411392],[127.1289524276361,37.542617918270956],[127.12880572214709,37.54263632156992],[127.12882985748053,37.54271606034432],[127.1289647996184,37.54269360623875]]]}},{"type":"Feature","properties":{"PNU":1174010900102170000,"COL_ADM_SE":11740,"F_AREA":127.99494238,"ADM_CD":1174010900,"F_ZONE_NM":"서울특별시 강동구 천호동 217-45 지하1층 B02호","TYPE":null,"F_DISA_NM":"7.8.~19. 호우(재난지원금)","F_AVR_HGT":30.62144012,"F_SAT_YMD":"20240717","F_END_YMD":null,"F_SAT_TM":null,"F_END_TM":null,"F_RSN_DTL":"침수","INV_YR":"2024","F_YR":"2024","F_SHIM":0.2,"GU_NAM":"강동구"},"geometry":{"type":"Polygon","coordinates":[[[127.13464129200165,37.54383179217518],[127.13464611128212,37.543710252007955],[127.1345061994072,37.543763360917126],[127.13450249437673,37.54383069617906],[127.13464129200165,37.54383179217518]]]}},{"type":"Feature","properties":{"PNU":1174010900103610000,"COL_ADM_SE":11740,"F_AREA":189.00366525,"ADM_CD":1174010900,"F_ZONE_NM":"강동구 천호동 361-34","TYPE":"주택","F_DISA_NM":"7. 8.~7. 19. 호우","F_AVR_HGT":17.38296677,"F_SAT_YMD":"20240719","F_END_YMD":"20240719","F_SAT_TM":"1","F_END_TM":"24","F_RSN_DTL":"내수침수","INV_YR":"2024","F_YR":"2024","F_SHIM":0.01,"GU_NAM":"강동구"},"geometry":{"type":"Polygon","coordinates":[[[127.12825193600298,37.54453246817945],[127.12839962885384,37.544500153203856],[127.1283548824415,37.544377206937966],[127.1282119186604,37.54440889510058],[127.12824723813578,37.54451797626976],[127.12825193600298,37.54453246817945]]]}},{"type":"Feature","properties":{"PNU":1174010900103620000,"COL_ADM_SE":11740,"F_AREA":158.19433286,"ADM_CD":1174010900,"F_ZONE_NM":"강동구 천호동 362-44","TYPE":"주택","F_DISA_NM":"7. 8.~7. 19. 호우","F_AVR_HGT":17.9301889,"F_SAT_YMD":"20240717","F_END_YMD":"20240717","F_SAT_TM":"1","F_END_TM":"24","F_RSN_DTL":"내수침수","INV_YR":"2024","F_YR":"2024","F_SHIM":0.01,"GU_NAM":"강동구"},"geometry":{"type":"Polygon","coordinates":[[[127.1281418759435,37.54303767017224],[127.1281685978101,37.54304808400982],[127.12829544474607,37.54298227462516],[127.12822140878575,37.54290226493707],[127.12808677007447,37.54297069546993],[127.12810298435572,37.54299040980723],[127.1281418759435,37.54303767017224]]]}},{"type":"Feature","properties":{"PNU":1174010900103210000,"COL_ADM_SE":11740,"F_AREA":103.47104045,"ADM_CD":1174010900,"F_ZONE_NM":"강동구 천호동 321-47","TYPE":"주택","F_DISA_NM":"7. 8.~7. 19. 호우","F_AVR_HGT":16.73129059,"F_SAT_YMD":"20240717","F_END_YMD":"20240717","F_SAT_TM":"1","F_END_TM":"24","F_RSN_DTL":"내수침수","INV_YR":"2024","F_YR":"2024","F_SHIM":0.01,"GU_NAM":"강동구"},"geometry":{"type":"Polygon","coordinates":[[[127.12513540032766,37.547577229521806],[127.12520666464019,37.54756101815192],[127.1252182890914,37.54753536377359],[127.12514255925116,37.54745138062249],[127.12506530512425,37.54750647598015],[127.12513540032766,37.547577229521806]]]}},{"type":"Feature","properties":{"PNU":1174010700101330000,"COL_ADM_SE":11740,"F_AREA":4554.43841784,"ADM_CD":1174010700,"F_ZONE_NM":"서울특별시 강동구 암사동 133-3","TYPE":null,"F_DISA_NM":"7.8.~19. 호우(재난지원금)","F_AVR_HGT":18.33703728,"F_SAT_YMD":"20240716","F_END_YMD":null,"F_SAT_TM":null,"F_END_TM":null,"F_RSN_DTL":"침수","INV_YR":"2024","F_YR":"2024","F_SHIM":0.2,"GU_NAM":"강동구"},"geometry":{"type":"Polygon","coordinates":[[[127.13283263889197,37.559469169310205],[127.13283328217953,37.559481025610516],[127.13280606412714,37.559514059105496],[127.1327551097828,37.55952617999342],[127.13271014703398,37.55954730409258],[127.13272378763908,37.559587509085944],[127.13274751419577,37.5596093317024],[127.13277702457593,37.55970234403588],[127.1327866711428,37.55976253739669],[127.13278576639642,37.5598338967303],[127.13277942687945,37.55991046982108],[127.13274393941781,37.559952333174],[127.13268649742342,37.55998904022047],[127.13264301946525,37.55999863899442],[127.13263340101786,37.5600707107719],[127.13264938580818,37.56020208423729],[127.13268221089561,37.56027482966306],[127.13265486112444,37.56039435820003],[127.13266357955564,37.560467436735664],[127.13267917636607,37.56048069998748],[127.13270085227703,37.5605205446652],[127.13269402389507,37.56061531826075],[127.13268778894114,37.5606935220102],[127.13271452925409,37.56074922747126],[127.13289211639083,37.56074038953233],[127.13297388268525,37.56071090827199],[127.13307648369509,37.560725516156715],[127.13312368120633,37.56074556462105],[127.1331417430604,37.56069953999777],[127.13314150270732,37.56063367798074],[127.13313641687661,37.56048338969715],[127.13313180826846,37.56038562853022],[127.13312159236679,37.56033012098114],[127.1331056590112,37.56024135529185],[127.13310173191113,37.56014494484359],[127.13308827394904,37.56006717746547],[127.13309082143536,37.559951857050876],[127.13309773498146,37.55987365251441],[127.13310304801418,37.55979922490403],[127.13307539102294,37.55976927981844],[127.13305819609914,37.5597417917815],[127.13299890811754,37.55969391619067],[127.13296106639824,37.559638925913944],[127.13295989890312,37.559637927115794],[127.13294142651091,37.559585447047915],[127.13283263889197,37.559469169310205]]]}},{"type":"Feature","properties":{"PNU":1174010700102550000,"COL_ADM_SE":11740,"F_AREA":6885.8022769,"ADM_CD":1174010700,"F_ZONE_NM":"서울특별시 강동구 암사동 255-2","TYPE":null,"F_DISA_NM":"7.8.~19. 호우(재난지원금)","F_AVR_HGT":19.60311432,"F_SAT_YMD":"20240716","F_END_YMD":null,"F_SAT_TM":null,"F_END_TM":null,"F_RSN_DTL":"침수(저지대침수)","INV_YR":"2024","F_YR":"2024","F_SHIM":0.2,"GU_NAM":"강동구"},"geometry":{"type":"Polygon","coordinates":[[[127.132869755657,37.55909191994385],[127.13298745261503,37.55916465194331],[127.13308605819793,37.55922538590453],[127.133148256522,37.55925508526179],[127.13334809442898,37.55935105190755],[127.13352350050882,37.55943581920626],[127.13361713359518,37.55948744928048],[127.13362671965845,37.559468130360656],[127.13364812337501,37.559424210225615],[127.13367970351837,37.559368448710316],[127.13372677217177,37.559283928293866],[127.13379130881592,37.55918287316097],[127.13384751668151,37.55908894513932],[127.13386916930705,37.559051511804086],[127.13390721991885,37.55896208201885],[127.1339084845574,37.55896041377106],[127.13390868738414,37.55895990898974],[127.13392955409478,37.55893248651287],[127.13400486685495,37.55883267154764],[127.13408182963089,37.55872524132211],[127.13414060495528,37.5586435457044],[127.13416679730864,37.55854955212317],[127.13415801960052,37.55852035191497],[127.13409939147283,37.55851897617666],[127.1340692834781,37.558523722152536],[127.13404121074717,37.55852738464949],[127.13399692882928,37.55854257095876],[127.13392369502911,37.55855069893539],[127.13385328618857,37.558556309940776],[127.1337955493597,37.55856616838759],[127.1337043120173,37.55858238925844],[127.13362956868511,37.558607367239865],[127.13356230248596,37.55863658948143],[127.13345209833292,37.55868594271755],[127.1333202017201,37.55871816523314],[127.1331453160108,37.55873511871611],[127.1330730819335,37.55875198464536],[127.13299415523956,37.558779570743596],[127.13291576768576,37.558824184883704],[127.13283352469482,37.558877533843926],[127.13278762287108,37.558917949196136],[127.13274151683046,37.55894520130621],[127.13271620114442,37.558998072449405],[127.13277714402957,37.559034891212455],[127.132869755657,37.55909191994385]]]}},{"type":"Feature","properties":{"PNU":1174010200100800000,"COL_ADM_SE":11740,"F_AREA":1952.46564486,"ADM_CD":1174010200,"F_ZONE_NM":"서울특별시 강동구 고덕동 80-16","TYPE":null,"F_DISA_NM":"7.8.~19. 호우(재난지원금)","F_AVR_HGT":19.31964226,"F_SAT_YMD":"20240716","F_END_YMD":null,"F_SAT_TM":null,"F_END_TM":null,"F_RSN_DTL":"침수","INV_YR":"2024","F_YR":"2024","F_SHIM":0.2,"GU_NAM":"강동구"},"geometry":{"type":"Polygon","coordinates":[[[127.16060092822904,37.57232748178762],[127.16075687268074,37.572047127731786],[127.16082464564764,37.571946927655915],[127.1609319984497,37.57181781549489],[127.16060950522156,37.57166596569843],[127.16057483619723,37.571736658791316],[127.16052674333511,37.57185060831273],[127.16049170417652,37.5719283115553],[127.16044829493354,37.571966499761714],[127.16038577488284,37.57204588876753],[127.16038446384397,37.57204685458759],[127.1603392335274,37.57208043215118],[127.16026153674002,37.57215069648893],[127.16025367989344,37.57217159192703],[127.16060092822904,37.57232748178762]]]}},{"type":"Feature","properties":{"PNU":1174010700104580000,"COL_ADM_SE":11740,"F_AREA":123.34656348,"ADM_CD":1174010700,"F_ZONE_NM":"강동구 암사동 458-8","TYPE":"주택","F_DISA_NM":"7. 8.~7. 19. 호우","F_AVR_HGT":27.34058548,"F_SAT_YMD":"20240717","F_END_YMD":"20240717","F_SAT_TM":"1","F_END_TM":"24","F_RSN_DTL":"내수침수","INV_YR":"2024","F_YR":"2024","F_SHIM":0.01,"GU_NAM":"강동구"},"geometry":{"type":"Polygon","coordinates":[[[127.13318263794389,37.55435860177937],[127.13318922877926,37.554373911257116],[127.13330530449927,37.5543462114771],[127.13329630686815,37.55432018291289],[127.1332667091372,37.554234558836775],[127.13316242391343,37.55426110117805],[127.1331991544951,37.55435497940248],[127.13318263794389,37.55435860177937]]]}},{"type":"Feature","properties":{"PNU":1174010700101810000,"COL_ADM_SE":11740,"F_AREA":6899.658616,"ADM_CD":1174010700,"F_ZONE_NM":"서울특별시 강동구 암사동 181","TYPE":null,"F_DISA_NM":"7.8.~19. 호우(재난지원금)","F_AVR_HGT":18.11088867,"F_SAT_YMD":"20240722","F_END_YMD":null,"F_SAT_TM":null,"F_END_TM":null,"F_RSN_DTL":"침수(저지대침수)","INV_YR":"2024","F_YR":"2024","F_SHIM":0.2,"GU_NAM":"강동구"},"geometry":{"type":"Polygon","coordinates":[[[127.12662055690934,37.55687634412166],[127.12676518662364,37.55702749396353],[127.12690677445885,37.55716629428894],[127.12704596609646,37.55731338609097],[127.12718820019813,37.55747246665564],[127.12738039831798,37.55759573352879],[127.12743186531029,37.55754551156913],[127.1275007421965,37.557504136748186],[127.12759475973232,37.557451977232546],[127.12768464067034,37.55750392237613],[127.12777894178343,37.557418678080325],[127.12778430852721,37.55741329343484],[127.12779623961632,37.5574013065267],[127.12781281433702,37.557384656535454],[127.12783128719788,37.5573661124336],[127.12757314964611,37.557166873193815],[127.12736970255594,37.55699638874724],[127.1270603706159,37.556657387373086],[127.12684679314907,37.55639674174432],[127.12667394526511,37.55650649441731],[127.12656333007527,37.55638520326705],[127.12655215374825,37.556388341535964],[127.12623092101256,37.55644931784946],[127.12662055690934,37.55687634412166]]]}},{"type":"Feature","properties":{"PNU":1174010900101870000,"COL_ADM_SE":11740,"F_AREA":106.2026112,"ADM_CD":1174010900,"F_ZONE_NM":"강동구 천호동 187-7","TYPE":"주택","F_DISA_NM":"7. 8.~7. 19. 호우","F_AVR_HGT":27.63392426,"F_SAT_YMD":"20240717","F_END_YMD":"20240717","F_SAT_TM":"1","F_END_TM":"24","F_RSN_DTL":"내수침수","INV_YR":"2024","F_YR":"2024","F_SHIM":0.01,"GU_NAM":"강동구"},"geometry":{"type":"Polygon","coordinates":[[[127.13320505640648,37.54093909291097],[127.13322713551216,37.5409024609885],[127.1333161520381,37.540915957644664],[127.13333306136876,37.540918605708185],[127.1333497723647,37.540815027046634],[127.13324129899155,37.54082359939091],[127.13320736556068,37.540926728727406],[127.13318187496158,37.540927973488415],[127.13318093298794,37.54093923693714],[127.13320505640648,37.54093909291097]]]}},{"type":"Feature","properties":{"PNU":1174010900102070000,"COL_ADM_SE":11740,"F_AREA":116.19336721,"ADM_CD":1174010900,"F_ZONE_NM":"강동구 천호동 207-13","TYPE":"주택","F_DISA_NM":"7. 8.~7. 19. 호우","F_AVR_HGT":24.73027397,"F_SAT_YMD":"20240717","F_END_YMD":"20240717","F_SAT_TM":"1","F_END_TM":"24","F_RSN_DTL":"내수침수","INV_YR":"2024","F_YR":"2024","F_SHIM":0.01,"GU_NAM":"강동구"},"geometry":{"type":"Polygon","coordinates":[[[127.13415177912239,37.54174644834041],[127.13418322047693,37.54175725195479],[127.13421136994198,37.54170466548012],[127.13422225832565,37.541687318163866],[127.13408606576871,37.54163430360208],[127.13404289588188,37.54170316079564],[127.13415177912239,37.54174644834041]]]}},{"type":"Feature","properties":{"PNU":1168010600109890000,"COL_ADM_SE":11680,"F_AREA":92.57222973,"ADM_CD":1168010600,"F_ZONE_NM":"강남구 대치2동 989-10번지 한 건물 전체","TYPE":null,"F_DISA_NM":"2024 풍수해보험금","F_AVR_HGT":15.64295883,"F_SAT_YMD":"20240921","F_END_YMD":null,"F_SAT_TM":null,"F_END_TM":null,"F_RSN_DTL":"반파","INV_YR":"2024","F_YR":"2024","F_SHIM":0.2,"GU_NAM":"강남구"},"geometry":{"type":"Polygon","coordinates":[[[127.06241797536408,37.49895495265118],[127.06255156616713,37.498997861352954],[127.06258227641752,37.49893711816399],[127.06244868570522,37.49889420949641],[127.06241797536408,37.49895495265118]]]}},{"type":"Feature","properties":{"PNU":1168010300111800000,"COL_ADM_SE":11680,"F_AREA":185.78612478,"ADM_CD":1168010300,"F_ZONE_NM":"강남구 논현로4길 57지하동","TYPE":null,"F_DISA_NM":"2024 풍수해보험금","F_AVR_HGT":44.97045059,"F_SAT_YMD":"20240820","F_END_YMD":null,"F_SAT_TM":null,"F_END_TM":null,"F_RSN_DTL":"침수","INV_YR":"2024","F_YR":"2024","F_SHIM":0.2,"GU_NAM":"강남구"},"geometry":{"type":"Polygon","coordinates":[[[127.0540553126432,37.47459735005349],[127.05394019190362,37.474708494799195],[127.05404469890436,37.47477746518501],[127.05413451340478,37.47469074877967],[127.05412905559145,37.4746459713822],[127.0540553126432,37.47459735005349]]]}}]}