{"type":"FeatureCollection","features":[{"type":"Feature","properties":{"F_DISA_NM":"2017년 7.2 ~ 7.11 호우","F_AVR_HGT":17.43,"F_AREA":126,"ADM_CD":"1174010800","F_SAT_YMD":"20170702","F_END_YMD":"20170711","F_SAT_TM":"20","F_END_TM":"2","F_RSN_DTL":"내수침수","F_ZONE_NM":"강동구 성내동 86-20","INV_YR":"2017","F_YR":"2017","GU_NAM":"강동구","F_SHIM":0.3},"geometry":{"type":"Polygon","coordinates":[[[127.12336586215905,37.53572706299108],[127.12349902492295,37.535702508623025],[127.12347260954832,37.535614274642036],[127.12334291084416,37.5356399065988],[127.12336586215905,37.53572706299108]]]}},{"type":"Feature","properties":{"F_DISA_NM":"2017년 7.2 ~ 7.11 호우","F_AVR_HGT":27.63,"F_AREA":227.6,"ADM_CD":"1174010200","F_SAT_YMD":"20170702","F_END_YMD":"20170711","F_SAT_TM":"7","F_END_TM":"21","F_RSN_DTL":"내수침수","F_ZONE_NM":"강동구 고덕동 659","INV_YR":"2017","F_YR":"2017","GU_NAM":"강동구","F_SHIM":0.5},"geometry":{"type":"Polygon","coordinates":[[[127.15131669370906,37.56163722851238],[127.15136256739711,37.56147955135497],[127.15122103928921,37.56145958477352],[127.15117542557797,37.561617234517556],[127.15131669370906,37.56163722851238]]]}},{"type":"Feature","properties":{"F_DISA_NM":"2017년 7.2 ~ 7.11 호우","F_AVR_HGT":18.53,"F_AREA":119,"ADM_CD":"1174010800","F_SAT_YMD":"20170702","F_END_YMD":"20170711","F_SAT_TM":"4","F_END_TM":"10","F_RSN_DTL":"내수침수","F_ZONE_NM":"강동구 성내동 130-10","INV_YR":"2017","F_YR":"2017","GU_NAM":"강동구","F_SHIM":0.5},"geometry":{"type":"Polygon","coordinates":[[[127.12468676163975,37.5339589336974],[127.12460242717339,37.53387632847006],[127.12452322156777,37.53393360603315],[127.12460961508188,37.53401616412061],[127.12468676163975,37.5339589336974]]]}},{"type":"Feature","properties":{"F_DISA_NM":"2017년 7.2 ~ 7.11 호우","F_AVR_HGT":20.36,"F_AREA":116,"ADM_CD":"1174010800","F_SAT_YMD":"20170702","F_END_YMD":"20170711","F_SAT_TM":"6","F_END_TM":"12","F_RSN_DTL":"내수침수","F_ZONE_NM":"강동구 성내동 215-5","INV_YR":"2017","F_YR":"2017","GU_NAM":"강동구","F_SHIM":0.3},"geometry":{"type":"Polygon","coordinates":[[[127.12906637846388,37.53385565332324],[127.12918613604793,37.533855163530504],[127.12918430520324,37.533750145753864],[127.12907099223463,37.53376791864232],[127.12906637846388,37.53385565332324]]]}},{"type":"Feature","properties":{"F_DISA_NM":"2017년 7.2 ~ 7.11 호우","F_AVR_HGT":20.06,"F_AREA":279.6,"ADM_CD":"1174010900","F_SAT_YMD":"20170702","F_END_YMD":"20170711","F_SAT_TM":"15","F_END_TM":"21","F_RSN_DTL":"내수침수","F_ZONE_NM":"강동구 천호동 48-18","INV_YR":"2017","F_YR":"2017","GU_NAM":"강동구","F_SHIM":0.3},"geometry":{"type":"Polygon","coordinates":[[[127.13849275747846,37.54323053535262],[127.13865892585684,37.543182139450835],[127.13858919486643,37.54303691749554],[127.13841637110008,37.54307790585475],[127.13849275747846,37.54323053535262]]]}},{"type":"Feature","properties":{"F_DISA_NM":"2017년 7.2 ~ 7.11 호우","F_AVR_HGT":18.48,"F_AREA":112.5,"ADM_CD":"1174010900","F_SAT_YMD":"20170702","F_END_YMD":"20170711","F_SAT_TM":"6","F_END_TM":"12","F_RSN_DTL":"내수침수","F_ZONE_NM":"강동구 천호동 290-19","INV_YR":"2017","F_YR":"2017","GU_NAM":"강동구","F_SHIM":0.5},"geometry":{"type":"Polygon","coordinates":[[[127.130985824461,37.54780584942646],[127.13096587578347,37.54775440669346],[127.1309516335851,37.547717878112124],[127.13082927327997,37.54775083526428],[127.13086190357657,37.547832933862104],[127.130985824461,37.54780584942646]]]}},{"type":"Feature","properties":{"F_DISA_NM":"2017년 7.2 ~ 7.11 호우","F_AVR_HGT":17.03,"F_AREA":266,"ADM_CD":"1174010900","F_SAT_YMD":"20170702","F_END_YMD":"20170711","F_SAT_TM":"6","F_END_TM":"12","F_RSN_DTL":"내수침수","F_ZONE_NM":"강동구 천호동 317-21","INV_YR":"2017","F_YR":"2017","GU_NAM":"강동구","F_SHIM":0.5},"geometry":{"type":"Polygon","coordinates":[[[127.12426777339883,37.54813810127663],[127.12443685045069,37.54809839893191],[127.1244299631107,37.54808026915304],[127.12438051291458,37.5479500373203],[127.12421433209754,37.54798913291199],[127.12426777339883,37.54813810127663]]]}},{"type":"Feature","properties":{"F_DISA_NM":"2017년 7.2 ~ 7.11 호우","F_AVR_HGT":29.76,"F_AREA":184.4,"ADM_CD":"1174010200","F_SAT_YMD":"20170702","F_END_YMD":"20170711","F_SAT_TM":"24","F_END_TM":"6","F_RSN_DTL":"내수침수","F_ZONE_NM":"강동구 고덕동 260","INV_YR":"2017","F_YR":"2017","GU_NAM":"강동구","F_SHIM":0.3},"geometry":{"type":"Polygon","coordinates":[[[127.16242543072906,37.56156260661903],[127.16242042325713,37.56146035124729],[127.16224153792186,37.56146464933144],[127.16224696467913,37.56157252630839],[127.16242543072906,37.56156260661903]]]}},{"type":"Feature","properties":{"F_DISA_NM":"2017년 7.2 ~ 7.11 호우","F_AVR_HGT":20.38,"F_AREA":330,"ADM_CD":"1174011000","F_SAT_YMD":"20170702","F_END_YMD":"20170711","F_SAT_TM":"19","F_END_TM":"1","F_RSN_DTL":"내수침수","F_ZONE_NM":"강동구 강일동 138-10","INV_YR":"2017","F_YR":"2017","GU_NAM":"강동구","F_SHIM":0.3},"geometry":{"type":"Polygon","coordinates":[[[127.1708961480788,37.57700378224622],[127.17095307265535,37.57700105166358],[127.17095800358179,37.576903999380534],[127.17092375679584,37.57690296734426],[127.17090566544427,37.57690242568163],[127.17090506031532,37.57691514847282],[127.17080162893089,37.576911846052184],[127.17080054579426,37.57693345325064],[127.17074455062533,37.576931659477545],[127.17074577484775,37.57690735812909],[127.17057521950782,37.576901908253205],[127.17056846033456,37.57699167416168],[127.17063954219533,37.57699689718355],[127.17074713342056,37.57699745478568],[127.1708961480788,37.57700378224622]]]}},{"type":"Feature","properties":{"F_DISA_NM":"2017년 7.2 ~ 7.11 호우","F_AVR_HGT":23.58,"F_AREA":641,"ADM_CD":"1174010600","F_SAT_YMD":"20170702","F_END_YMD":"20170711","F_SAT_TM":"6","F_END_TM":"12","F_RSN_DTL":"내수침수","F_ZONE_NM":"강동구 둔촌동 87-7","INV_YR":"2017","F_YR":"2017","GU_NAM":"강동구","F_SHIM":0.3},"geometry":{"type":"Polygon","coordinates":[[[127.14311897709054,37.530350582651614],[127.14297254781464,37.53000342511206],[127.14293235034381,37.52999091339846],[127.14274154277354,37.530311111538744],[127.14291189544443,37.53032041320311],[127.14295213529815,37.53032532048686],[127.14311897709054,37.530350582651614]]]}},{"type":"Feature","properties":{"F_DISA_NM":"2017년 7.2 ~ 7.11 호우","F_AVR_HGT":18.51,"F_AREA":199,"ADM_CD":"1153010700","F_SAT_YMD":"20170702","F_END_YMD":"20170711","F_SAT_TM":"19","F_END_TM":"1","F_RSN_DTL":"침수(공공하수도역류)","F_ZONE_NM":"구로구 개봉동 7-34","INV_YR":"2017","F_YR":"2017","GU_NAM":"구로구","F_SHIM":0.3},"geometry":{"type":"Polygon","coordinates":[[[126.8445666234187,37.503739321600236],[126.84457021998172,37.50375004824681],[126.84462103667866,37.503732185899715],[126.84474130072198,37.50371072162366],[126.84474436951581,37.50370342761754],[126.84475891842871,37.503668578325964],[126.84476619316258,37.50365101853019],[126.84484925986972,37.50367851903881],[126.84485016405564,37.50367879053714],[126.84485095571247,37.50367879158699],[126.84491361327214,37.50367716276834],[126.84464021328762,37.50359363797238],[126.84459546542959,37.503683858477885],[126.8445666234187,37.503739321600236]]]}},{"type":"Feature","properties":{"F_DISA_NM":"2017년 7.2 ~ 7.11 호우","F_AVR_HGT":18.51,"F_AREA":99,"ADM_CD":"1153010700","F_SAT_YMD":"20170702","F_END_YMD":"20170711","F_SAT_TM":"19","F_END_TM":"1","F_RSN_DTL":"침수(공공하수도역류)","F_ZONE_NM":"구로구 개봉동 7-14","INV_YR":"2017","F_YR":"2017","GU_NAM":"구로구","F_SHIM":0.3},"geometry":{"type":"Polygon","coordinates":[[[126.84494858200756,37.5036121571083],[126.84495936237704,37.503540542103664],[126.84486555415023,37.50351194623209],[126.8448311071779,37.50359785569973],[126.84494988589005,37.50363765706194],[126.84494858200756,37.5036121571083]]]}},{"type":"Feature","properties":{"F_DISA_NM":"2017년 7.2 ~ 7.11 호우","F_AVR_HGT":18.51,"F_AREA":109,"ADM_CD":"1153010700","F_SAT_YMD":"20170702","F_END_YMD":"20170711","F_SAT_TM":"19","F_END_TM":"1","F_RSN_DTL":"침수(공공하수도역류)","F_ZONE_NM":"구로구 개봉동 7-17","INV_YR":"2017","F_YR":"2017","GU_NAM":"구로구","F_SHIM":0.3},"geometry":{"type":"Polygon","coordinates":[[[126.84468204851602,37.503544138663436],[126.84481043418984,37.50358674601143],[126.84484134534603,37.50351515771886],[126.84471634448073,37.50347642918545],[126.84468204851602,37.503544138663436]]]}}]}